{"type":"FeatureCollection","features":[{"type":"Feature","properties":{"name":"Andaman and Nicobar Islands","kind":"state","state_id":"35"},"geometry":{"type":"Point","coordinates":[92.83158996135877,12.6120990482755]}},{"type":"Feature","properties":{"name":"Andhra Pradesh","kind":"state","state_id":"28"},"geometry":{"type":"Point","coordinates":[79.62203375797333,15.895632394590095]}},{"type":"Feature","properties":{"name":"Arunachal Pradesh","kind":"state","state_id":"12"},"geometry":{"type":"Point","coordinates":[94.99787549723473,28.058265425215733]}},{"type":"Feature","properties":{"name":"Assam","kind":"state","state_id":"18"},"geometry":{"type":"Point","coordinates":[90.75985995558224,26.05397453666097]}},{"type":"Feature","properties":{"name":"Bihar","kind":"state","state_id":"10"},"geometry":{"type":"Point","coordinates":[86.12400322761921,25.904182524271196]}},{"type":"Feature","properties":{"name":"Chhattisgarh","kind":"state","state_id":"22"},"geometry":{"type":"Point","coordinates":[81.5070499950196,20.944790705759416]}},{"type":"Feature","properties":{"name":"Chandigarh","kind":"state","state_id":"04"},"geometry":{"type":"Point","coordinates":[76.78429582411351,30.730779004881708]}},{"type":"Feature","properties":{"name":"Dadra and Nagar Haveli and Daman and Diu","kind":"state","state_id":"38"},"geometry":{"type":"Point","coordinates":[73.00617080417987,20.20346537865376]}},{"type":"Feature","properties":{"name":"Delhi","kind":"state","state_id":"07"},"geometry":{"type":"Point","coordinates":[77.12364231852271,28.645020804175996]}},{"type":"Feature","properties":{"name":"Goa","kind":"state","state_id":"30"},"geometry":{"type":"Point","coordinates":[74.10257467265635,15.34996528878152]}},{"type":"Feature","properties":{"name":"Gujarat","kind":"state","state_id":"24"},"geometry":{"type":"Point","coordinates":[71.92409002176808,22.415726376879775]}},{"type":"Feature","properties":{"name":"Himachal Pradesh","kind":"state","state_id":"02"},"geometry":{"type":"Point","coordinates":[77.35516386683904,31.81715213861466]}},{"type":"Feature","properties":{"name":"Haryana","kind":"state","state_id":"06"},"geometry":{"type":"Point","coordinates":[76.0518721171531,29.291084656665895]}},{"type":"Feature","properties":{"name":"Jharkhand","kind":"state","state_id":"20"},"geometry":{"type":"Point","coordinates":[85.16934540928457,23.66060906829446]}},{"type":"Feature","properties":{"name":"Jammu and Kashmir","kind":"state","state_id":"01"},"geometry":{"type":"Point","coordinates":[74.93127392278899,33.7037369754957]}},{"type":"Feature","properties":{"name":"Karnataka","kind":"state","state_id":"29"},"geometry":{"type":"Point","coordinates":[75.53566920915418,15.022988188357683]}},{"type":"Feature","properties":{"name":"Kerala","kind":"state","state_id":"32"},"geometry":{"type":"Point","coordinates":[76.42969257717026,10.542534213979732]}},{"type":"Feature","properties":{"name":"Lakshadweep","kind":"state","state_id":"31"},"geometry":{"type":"Point","coordinates":[74.04269356619459,11.278161400151063]}},{"type":"Feature","properties":{"name":"Ladakh","kind":"state","state_id":"37"},"geometry":{"type":"Point","coordinates":[77.34922449597278,34.72220441669662]}},{"type":"Feature","properties":{"name":"Maharashtra","kind":"state","state_id":"27"},"geometry":{"type":"Point","coordinates":[75.43335807504724,18.819990465537174]}},{"type":"Feature","properties":{"name":"Meghalaya","kind":"state","state_id":"17"},"geometry":{"type":"Point","coordinates":[91.2638479465209,25.573502766224646]}},{"type":"Feature","properties":{"name":"Manipur","kind":"state","state_id":"14"},"geometry":{"type":"Point","coordinates":[93.8657394447496,24.762884418674986]}},{"type":"Feature","properties":{"name":"Madhya Pradesh","kind":"state","state_id":"23"},"geometry":{"type":"Point","coordinates":[79.39506427198276,23.96953555307803]}},{"type":"Feature","properties":{"name":"Mizoram","kind":"state","state_id":"15"},"geometry":{"type":"Point","coordinates":[92.86649139319083,23.22971950703387]}},{"type":"Feature","properties":{"name":"Nagaland","kind":"state","state_id":"13"},"geometry":{"type":"Point","coordinates":[94.55594580882658,26.117132579794642]}},{"type":"Feature","properties":{"name":"Odisha","kind":"state","state_id":"21"},"geometry":{"type":"Point","coordinates":[84.48159981832967,20.189870832594057]}},{"type":"Feature","properties":{"name":"Punjab","kind":"state","state_id":"03"},"geometry":{"type":"Point","coordinates":[75.58384773661892,31.027165081692416]}},{"type":"Feature","properties":{"name":"Puducherry","kind":"state","state_id":"34"},"geometry":{"type":"Point","coordinates":[79.80731325017163,10.915407188041492]}},{"type":"Feature","properties":{"name":"Rajasthan","kind":"state","state_id":"08"},"geometry":{"type":"Point","coordinates":[73.82664531586036,26.62854464786968]}},{"type":"Feature","properties":{"name":"Sikkim","kind":"state","state_id":"11"},"geometry":{"type":"Point","coordinates":[88.45779100924827,27.604093497078146]}},{"type":"Feature","properties":{"name":"Tamil Nadu","kind":"state","state_id":"33"},"geometry":{"type":"Point","coordinates":[78.35006436232874,10.821127461495948]}},{"type":"Feature","properties":{"name":"Tripura","kind":"state","state_id":"16"},"geometry":{"type":"Point","coordinates":[91.65169170575714,23.73497853227493]}},{"type":"Feature","properties":{"name":"Telangana","kind":"state","state_id":"36"},"geometry":{"type":"Point","coordinates":[79.29760977624875,17.876201134468737]}},{"type":"Feature","properties":{"name":"Uttarakhand","kind":"state","state_id":"05"},"geometry":{"type":"Point","coordinates":[79.32221480128842,30.092007469835956]}},{"type":"Feature","properties":{"name":"Uttar Pradesh","kind":"state","state_id":"09"},"geometry":{"type":"Point","coordinates":[80.77903989780836,27.137627183244454]}},{"type":"Feature","properties":{"name":"West Bengal","kind":"state","state_id":"19"},"geometry":{"type":"Point","coordinates":[88.06183944698802,24.389028242375282]}},{"type":"Feature","properties":{"name":"India","kind":"india"},"geometry":{"type":"Point","coordinates":[79,23]}},{"type":"Feature","properties":{"name":"Pakistan","kind":"country"},"geometry":{"type":"Point","coordinates":[66,29]}},{"type":"Feature","properties":{"name":"Afghanistan","kind":"country"},"geometry":{"type":"Point","coordinates":[65,34]}},{"type":"Feature","properties":{"name":"China","kind":"country"},"geometry":{"type":"Point","coordinates":[91,35]}},{"type":"Feature","properties":{"name":"Nepal","kind":"country"},"geometry":{"type":"Point","coordinates":[84,28.4]}},{"type":"Feature","properties":{"name":"Bhutan","kind":"country"},"geometry":{"type":"Point","coordinates":[90.4,27.5]}},{"type":"Feature","properties":{"name":"Bangladesh","kind":"country"},"geometry":{"type":"Point","coordinates":[90.2,23.8]}},{"type":"Feature","properties":{"name":"Myanmar","kind":"country"},"geometry":{"type":"Point","coordinates":[96,21]}},{"type":"Feature","properties":{"name":"Sri Lanka","kind":"country"},"geometry":{"type":"Point","coordinates":[80.7,7.5]}},{"type":"Feature","properties":{"name":"Arabian Sea","kind":"water"},"geometry":{"type":"Point","coordinates":[67,16]}},{"type":"Feature","properties":{"name":"Bay of Bengal","kind":"water"},"geometry":{"type":"Point","coordinates":[89,15]}},{"type":"Feature","properties":{"name":"Indian Ocean","kind":"water"},"geometry":{"type":"Point","coordinates":[80,3]}}]}
