{"type":"FeatureCollection","features":[{"type":"Feature","properties":{"id":"07-146","name":"New Delhi","source_name":"New Delhi","state_id":"07","source_agency":"Survey of India (SOI)","district_code":"079"},"geometry":{"type":"MultiPolygon","coordinates":[[[[77.25561521976151,28.613481069366983],[77.25598361309541,28.60878291757912],[77.25038755476245,28.607654598510408],[77.24554148709657,28.60551443132476],[77.24258703348838,28.608175424878418],[77.23314741880651,28.60249808456107],[77.23351060975958,28.60190561967909],[77.23336799431968,28.595163453211942],[77.23550557339998,28.59209783445612],[77.21406131930254,28.589421307571964],[77.21208989728046,28.589370100733777],[77.21221768613361,28.588066353471536],[77.21017492506213,28.580174849784168],[77.19866262067565,28.581106403900765],[77.19531133709125,28.581983008056408],[77.19158968128158,28.58235228840606],[77.19004476267595,28.57989987324264],[77.18998534266642,28.57196826443413],[77.1895694031009,28.56544511236318],[77.18891578433522,28.56398387095501],[77.18552595091707,28.5616620437627],[77.18294197981608,28.560691735844948],[77.1813931800825,28.558781430778254],[77.18402092165657,28.55765193619975],[77.181676292943,28.555194553797826],[77.18370988646934,28.554984844673786],[77.18293352428697,28.5516474036585],[77.18114161543521,28.548767025262556],[77.1752476228892,28.547931925977817],[77.16948602404624,28.54792255588013],[77.16547726254353,28.54585735486006],[77.16054794219578,28.545435113324004],[77.1620714399319,28.54418966352879],[77.170066661128,28.540434110570896],[77.17210974048014,28.538938783204124],[77.17480111814082,28.536028767062003],[77.1702730453925,28.533927477366305],[77.16880996261783,28.53257650678528],[77.16579181914541,28.528218347924817],[77.16402557816723,28.526389678771274],[77.15958866955395,28.5258010954346],[77.15613717574212,28.521314270572457],[77.15018971200088,28.52297666581381],[77.1451757497123,28.523621779790926],[77.13940236206128,28.523409561746657],[77.13418765112735,28.524036635215968],[77.13354722703492,28.52113176977626],[77.13117686461013,28.51785296865112],[77.12936937051413,28.50682451261943],[77.13410995016687,28.505488877832402],[77.13671223706665,28.504344226947804],[77.1408679887689,28.50065152381535],[77.14329530008874,28.49757573402617],[77.14750736425049,28.499682746115365],[77.15001036210553,28.499398654739263],[77.14763604759126,28.492114746047072],[77.14505331531535,28.48784909759133],[77.14439685483386,28.48393221032608],[77.13707793145434,28.486761818794683],[77.1309247318183,28.4877025132253],[77.12748141013115,28.486983034283597],[77.11861075253897,28.48801991424616],[77.12064243687212,28.49595654490424],[77.11696850442772,28.496359177397345],[77.10856580644351,28.500034496387283],[77.10566669815542,28.50227360802095],[77.10250379676425,28.503486598134756],[77.09707762197762,28.506475973620294],[77.0997967889678,28.51126918977278],[77.10094343272223,28.514156408271507],[77.1035438899708,28.518191991579233],[77.09523801975872,28.52502921110614],[77.08688367663422,28.53127567296766],[77.08557886546878,28.53176226494694],[77.0867467412931,28.535323220527275],[77.08891602095346,28.53852818728731],[77.0791882649419,28.54064259775145],[77.07567413887793,28.542511775360097],[77.07129737869614,28.54384317247412],[77.07110024114408,28.547532705826136],[77.06117693840348,28.552609470500226],[77.05066600009586,28.558952074958054],[77.05269722575576,28.56179055904358],[77.05740058004538,28.569908241622986],[77.05876563944649,28.57146051203348],[77.06350338663432,28.570002009843265],[77.06558494504034,28.569775611610492],[77.06782153902768,28.57375987730452],[77.0694607467184,28.57492791220847],[77.07570719187538,28.573459304549115],[77.08114473175165,28.5711766042977],[77.0940945837135,28.58605101820405],[77.09609279130132,28.588077819059507],[77.09623589338797,28.59142624790502],[77.09803409266252,28.591188624724662],[77.10324097027495,28.597421792403352],[77.09969606893068,28.598764592816707],[77.10033064403238,28.599887748555457],[77.09882581523618,28.601019862024653],[77.10277048784724,28.606259741647882],[77.10394190385026,28.612761009874777],[77.11042939992373,28.615531400320354],[77.11530633747496,28.618184821592184],[77.1157510876725,28.620550503526093],[77.11805308961662,28.627006794304155],[77.11942176942236,28.628049211922875],[77.12195601714883,28.62770879392117],[77.122008138573,28.631813066881687],[77.12539533079712,28.638953674605148],[77.12955850525356,28.639407450573078],[77.13390166300974,28.640973742167418],[77.13859787119117,28.64061671869758],[77.14562496660331,28.638196690712345],[77.14708316617833,28.640205481812067],[77.14968038754456,28.637253174935577],[77.15322623389234,28.63949194234926],[77.16169007929963,28.632998178558946],[77.1654940301898,28.627957547292915],[77.16777210099868,28.62895537967032],[77.17265584108482,28.629988003270977],[77.17665672713076,28.63010315580085],[77.17754794285614,28.62743527199434],[77.17896309133602,28.625644028136264],[77.18168559778505,28.62366241142305],[77.18630801567276,28.62699642756699],[77.18864239464789,28.629593415614067],[77.19051481192373,28.634130978867308],[77.19489920853395,28.638591730333005],[77.19892423926714,28.64523491482714],[77.20458728073262,28.64241495476481],[77.21827152844325,28.634424940955007],[77.21967083012494,28.635472164283335],[77.22261462697749,28.635295571450232],[77.22363269088436,28.636394548790733],[77.22458603653129,28.635039637999935],[77.23418362571014,28.630433462829917],[77.24382421348106,28.625004858834576],[77.24669634968866,28.62158051672772],[77.24921692721287,28.61418164037466],[77.25283398882748,28.612947657038088],[77.25561521976151,28.613481069366983]]]]}},{"type":"Feature","properties":{"id":"07-147","name":"North","source_name":"North","state_id":"07","source_agency":"Survey of India (SOI)","district_code":"080"},"geometry":{"type":"MultiPolygon","coordinates":[[[[77.20983743192032,28.85793028598112],[77.21359320304805,28.85598166086144],[77.21649751751549,28.853033295127595],[77.21731182013228,28.85137472070742],[77.21664025372242,28.84154519922768],[77.21955188280315,28.83784635572047],[77.22202393585631,28.833960414550454],[77.22298662158104,28.833423550051023],[77.22255581983468,28.830123674636177],[77.22438476118964,28.825361453525105],[77.22187940501175,28.820496889128503],[77.22028111595715,28.81920863902884],[77.2188581870626,28.808291080471594],[77.21560205132573,28.808672425184906],[77.2055876525004,28.811247994291477],[77.20129301615506,28.81298102557647],[77.20028653613957,28.80942578328371],[77.20000090988559,28.802596646110338],[77.19918941734078,28.80022458347315],[77.19991226255317,28.796258235965073],[77.20402486506762,28.790858471353513],[77.20786074802693,28.78823934096757],[77.2026382384113,28.785575040408688],[77.19816610998222,28.783853217892727],[77.19890062548315,28.781687179167868],[77.19528307737163,28.778024382744192],[77.1873271785635,28.771763333801385],[77.18518860974459,28.770855079267342],[77.17919524403112,28.770308722294114],[77.17548860410403,28.7712887560246],[77.17231334349651,28.772703910042033],[77.17143067994026,28.771237819231533],[77.1716090018499,28.767178087011875],[77.1743650230993,28.765621864678742],[77.17513569044569,28.762747545182123],[77.1743446019087,28.760027510334943],[77.17524416473724,28.758988189639606],[77.17948253322604,28.757517582651417],[77.17899012372463,28.755008174901167],[77.18083629493331,28.754976128878848],[77.1826087439656,28.753184681560654],[77.18217968786331,28.750954605293884],[77.17967368118723,28.750578247288217],[77.1778298936675,28.749016438158634],[77.17502761174948,28.744602552317374],[77.17674409749127,28.740450962452854],[77.17894006812791,28.738461855387126],[77.1846346406252,28.735435898993966],[77.18663987114661,28.732894555310338],[77.19009506733333,28.731818211742095],[77.19217287852764,28.729009349395387],[77.19192597475813,28.725690226959795],[77.19540769823438,28.728747565961935],[77.20617693325536,28.727100448910132],[77.21537380002052,28.726618124740636],[77.21520024032108,28.722347625416024],[77.21843300355161,28.719507290443488],[77.2206160329131,28.716708531206052],[77.22202807686567,28.716217761357488],[77.22028972991153,28.712675778920044],[77.21821880058303,28.707014904908053],[77.21498723075133,28.702376466051298],[77.21243102868075,28.700168718781814],[77.20697104485994,28.692216646122723],[77.2026771953471,28.688281333110762],[77.20382869660182,28.68817045358971],[77.20374879133887,28.6851115522644],[77.20064925722677,28.685926065077357],[77.19781462443657,28.68440080925935],[77.19669758092931,28.68499718308802],[77.19368550633398,28.688614922817948],[77.19147084099087,28.690304473335964],[77.18808564443746,28.69144177855203],[77.18897803182288,28.693783190458763],[77.1880375414536,28.69448986259901],[77.18581535968741,28.693039538465335],[77.18221684477851,28.69643978444782],[77.17973602761896,28.69750928124677],[77.17941538369593,28.69897300451388],[77.18182770712212,28.70019416673074],[77.18111902176487,28.70101686392796],[77.17774423884548,28.7000909095508],[77.17624053228533,28.70163436199146],[77.17163964128872,28.698542432710788],[77.17073864859667,28.699841261962217],[77.16818148503144,28.699005945602714],[77.16273784255256,28.702793259910525],[77.15887814182389,28.70429812815908],[77.16213128803831,28.707393866748298],[77.16111547321475,28.70996509000643],[77.16385924362886,28.712366814847602],[77.1640490366787,28.714163443829605],[77.1620987146482,28.717194482741142],[77.16029707035834,28.718690699333116],[77.16227410573089,28.723827083103046],[77.16415387491884,28.727009206203856],[77.16295301201042,28.72768763395991],[77.16004360546158,28.732552142846366],[77.15418080772247,28.72800886640447],[77.15162662664916,28.726712855364617],[77.14995092587704,28.727032001419083],[77.14525905897078,28.729142290117743],[77.14196212168955,28.725965086097048],[77.1390234600544,28.71989449336662],[77.13765338670807,28.719949440077457],[77.13254882909169,28.715809170690115],[77.13048883810343,28.712177046238704],[77.1317981824724,28.710458167966518],[77.12800086542197,28.70738473321232],[77.12569683503717,28.706027194423463],[77.12149420979193,28.707257976109734],[77.12086578885645,28.708996665172087],[77.12155162361844,28.712124141570047],[77.11956652964285,28.713444564206426],[77.12035072485355,28.715032460243318],[77.11969660816156,28.71802931172446],[77.11840272933507,28.72080286120973],[77.1159417235699,28.723454682965475],[77.11206177362378,28.73065972206706],[77.10921750869836,28.73441109348452],[77.1094764803859,28.73589233860892],[77.10635666179984,28.737317327379998],[77.10315026628903,28.737697909762023],[77.10184248912466,28.737215735047698],[77.0958972275143,28.73929125707273],[77.09447178311903,28.737006374972193],[77.09244724832867,28.73754595538963],[77.08921470160709,28.737439158012013],[77.085815875368,28.73412731917503],[77.08185681809918,28.728059373778986],[77.07536912174588,28.731507791794836],[77.07301038101802,28.73356797051506],[77.07072514910239,28.734663223991884],[77.06836498584325,28.73683603802585],[77.0660080702226,28.738071164576535],[77.0642190879124,28.73789966103438],[77.05964753411969,28.74158991062038],[77.05537381638779,28.74304275775213],[77.05042466616545,28.74308392639185],[77.04556983635052,28.745739368597555],[77.03959725720976,28.748110721082796],[77.036064608472,28.748767075549313],[77.03475747237948,28.749589133029737],[77.02913308436487,28.750106776026175],[77.0203994631402,28.752559039699317],[77.01661845029645,28.754934900636606],[77.0152571122924,28.754978455333802],[77.01399377278264,28.760722221277867],[77.01180879886523,28.762868389604733],[77.01176159759417,28.7645243509079],[77.01323405414416,28.76988726288683],[77.01270289188167,28.77584132575827],[77.01344128447519,28.778755381676344],[77.00065992179152,28.78382361714368],[76.99784728384095,28.784555845561258],[76.99165146245406,28.785008226425198],[76.98639195584198,28.78921560505829],[76.9825369303564,28.792904570636022],[76.98051327837074,28.793410404764717],[76.97850196727953,28.79244012554152],[76.97618489375706,28.793365142222846],[76.96929437514137,28.79707200322754],[76.9678736200674,28.79811882061787],[76.96869060832519,28.80033211293002],[76.96657189664708,28.80088412176829],[76.96741010703657,28.804283408552653],[76.96912978002716,28.807167269874068],[76.96676944204299,28.809336582512728],[76.9677178491324,28.81119107607359],[76.96590842605801,28.811923685057057],[76.96584932170354,28.813496415391405],[76.96181632344181,28.81491687388042],[76.96491705092247,28.820214787623136],[76.96377638356559,28.82276109191062],[76.96709837516613,28.828065168162187],[76.97083309104002,28.827475780648886],[76.97360847226825,28.826181106525233],[76.97665857836371,28.82226203017197],[76.98009241133175,28.821495934568848],[76.982802562685,28.824198459055886],[76.9858879058826,28.829442789557593],[76.98699922927744,28.83386227527922],[76.99181236304221,28.838371542613196],[76.99485404453536,28.839547424209886],[76.99829692637263,28.838358888646592],[77.0065159141838,28.840569780734654],[77.01074098454662,28.840614453220134],[77.01101629494617,28.840107520991044],[77.0150006950035,28.840085604352815],[77.02087208507346,28.839337558029165],[77.02332323983367,28.839406102933435],[77.02710023507545,28.83690590708556],[77.03225573643398,28.835444253992158],[77.04003588704681,28.831873626278973],[77.04258117964925,28.83433748156279],[77.04184926670143,28.837776764967415],[77.0450772776786,28.840909886416526],[77.0450285875184,28.845858717989554],[77.04567963490392,28.84749622023491],[77.05100784263513,28.85470621672685],[77.05128533772427,28.856178598922817],[77.05453455217541,28.86301074326426],[77.05805995401478,28.868096301530183],[77.06167226061673,28.87084493912205],[77.06458788870948,28.869142342654015],[77.06923795390158,28.86723359882103],[77.0717655704079,28.868926872610235],[77.07451721497809,28.867543579506595],[77.0759743060188,28.86936909079526],[77.07923058914429,28.87199160179302],[77.07892129506979,28.874507741813556],[77.07765136451548,28.877229828078804],[77.07943770327832,28.878680378187],[77.08217501104654,28.882118611694512],[77.082659655767,28.88357268072876],[77.08681103281987,28.881023963033993],[77.08806563059424,28.877067001739714],[77.08737904073774,28.875692757338484],[77.09382864667374,28.871660510651765],[77.09715401416325,28.870904706711823],[77.10398102381197,28.870538504883992],[77.10679340909786,28.8698931451566],[77.11013303361003,28.869854183268853],[77.11244533644005,28.866583575239044],[77.11572094428266,28.864902975702474],[77.11638513937297,28.863293343797324],[77.11998478817532,28.860167674315253],[77.12085844514895,28.85843954078885],[77.12487690695431,28.857709817927056],[77.12534745152564,28.859768122095232],[77.13008936234291,28.861471766854393],[77.13227886694446,28.86334925334363],[77.13295585563552,28.862857408539256],[77.14037296518863,28.86201073316405],[77.14090357651452,28.86020571568918],[77.14253306066658,28.85963550799103],[77.14193021077635,28.85690338665215],[77.14306648331774,28.8550188107499],[77.14519116319168,28.853898970362323],[77.14523302318679,28.8523063713842],[77.14220900771534,28.847816222998723],[77.14168526359235,28.84266489376884],[77.14240758175129,28.838941519086568],[77.14563781890863,28.837996209084878],[77.15401265035445,28.837491786339132],[77.15769675219488,28.836765232470743],[77.15686666640957,28.839080741833573],[77.15930593745485,28.84090576434313],[77.1660395085011,28.849182254804727],[77.16952957533155,28.850443045384566],[77.17195178359894,28.84999065147707],[77.17300946127023,28.857170591025884],[77.17519392899703,28.85828167604653],[77.17848709973434,28.858237763319007],[77.18140904458801,28.85754646340951],[77.19330728699063,28.8585854576334],[77.19712021363412,28.859257511150027],[77.20983743192032,28.85793028598112]]]]}},{"type":"Feature","properties":{"id":"07-148","name":"North East","source_name":"North East","state_id":"07","source_agency":"Survey of India (SOI)","district_code":"081"},"geometry":{"type":"MultiPolygon","coordinates":[[[[77.29677540163799,28.70451725668054],[77.29827097486593,28.696530681137645],[77.29696569530182,28.69235329558508],[77.29244381215592,28.692893823802144],[77.29035612645716,28.693578765456905],[77.2866159005686,28.695793543682964],[77.28453552443501,28.693442105977393],[77.28192561032255,28.69613313933449],[77.27955981639127,28.696875963628248],[77.27964626928728,28.697949095132106],[77.27513384796117,28.696802357110233],[77.27207841524594,28.696954489159037],[77.27103856179706,28.690146996683172],[77.27059764247676,28.68323403982093],[77.26943854729384,28.680515559858524],[77.27028291892749,28.679973945022542],[77.26959806369706,28.67809070137316],[77.26804088202572,28.676816860182868],[77.2695770721829,28.676150138503992],[77.26822780228765,28.67473348804411],[77.26982542567764,28.672817223440575],[77.26628006874381,28.67118653550347],[77.25858297666646,28.670112425892633],[77.25383540269061,28.67102409294315],[77.24179854358836,28.6667600352494],[77.23890539736492,28.666136747735003],[77.23544805991536,28.671112775087963],[77.23497270003315,28.675909024936463],[77.24150889346974,28.68028801703766],[77.23699297765037,28.680600795460006],[77.23485386014279,28.682581702148727],[77.2347350214005,28.68706466939241],[77.23271474357055,28.689775206826457],[77.23271474371579,28.69384088225581],[77.23152634373078,28.695508807339007],[77.22914954695685,28.70092937520366],[77.23069446560791,28.708225851843366],[77.23556689988959,28.716147162179283],[77.23714336405267,28.724995810811528],[77.2390655732905,28.730400014763216],[77.23946487607353,28.733551266212626],[77.23878035743508,28.73675243941695],[77.23997826422222,28.738503039906156],[77.24073701800985,28.74432754778772],[77.23844311598306,28.74555744357241],[77.23344011139773,28.747339511855206],[77.22827716175865,28.748661661906894],[77.22795290377859,28.745556380192138],[77.22677309865527,28.74502489487776],[77.22338111530463,28.74658918239994],[77.22171257102019,28.744954779560807],[77.22297945082661,28.75060904698348],[77.22201350024085,28.751428259923273],[77.2220118222195,28.758714432446244],[77.21893812028715,28.763759927172213],[77.21791415266283,28.76696101746081],[77.2200325257408,28.77028478749923],[77.22123942410288,28.770358566079754],[77.21764701203571,28.775334088173793],[77.21780752848669,28.7779346375214],[77.21400792620341,28.779310616361947],[77.21051403404604,28.782122920520738],[77.20987229904729,28.78368527995117],[77.21111423110243,28.78663150183855],[77.2150657218271,28.785196443484473],[77.22161371277271,28.78566895814266],[77.22852665145561,28.786572385978946],[77.2341391073429,28.783757757012793],[77.2218594217858,28.77743012402862],[77.22534518758202,28.77690827207306],[77.22777313558437,28.775568953263054],[77.23144113110202,28.774454216571744],[77.23215284489918,28.772868411430316],[77.23178325497672,28.770830491588576],[77.23587330644062,28.770772576609637],[77.23614015484328,28.763619409975433],[77.23453654391143,28.76088149676119],[77.23560860253819,28.760927865666734],[77.24491495573436,28.75676873727274],[77.25026162027626,28.75521953791112],[77.25597691038661,28.756184969631946],[77.2561386202341,28.754395252304555],[77.25882589596289,28.75274158568092],[77.25917372143788,28.75004274121365],[77.25618688925515,28.743915197951683],[77.25454950200312,28.74360276200621],[77.25562102301873,28.73891140184944],[77.2608136448347,28.734203533551366],[77.26174716603221,28.734104876237243],[77.27191971821763,28.735498668487587],[77.27290092334157,28.736308780894333],[77.27643102708316,28.735488455328216],[77.27751125711443,28.734630936944523],[77.28571744487186,28.72625427971706],[77.28629935970801,28.7246042621762],[77.29075918284019,28.72242333291658],[77.28882288867693,28.719606759135175],[77.2890805404735,28.71685947629086],[77.28623280781939,28.714573132074925],[77.28708640597672,28.71329777822872],[77.28735607129458,28.71030416630085],[77.28887992773716,28.708174531741076],[77.29150851825523,28.70619201459356],[77.29446526272729,28.705618376749985],[77.29677540163799,28.70451725668054]]]]}},{"type":"Feature","properties":{"id":"07-149","name":"North West","source_name":"North West","state_id":"07","source_agency":"Survey of India (SOI)","district_code":"082"},"geometry":{"type":"MultiPolygon","coordinates":[[[[76.96181632344181,28.81491687388042],[76.96584932170354,28.813496415391405],[76.96590842605801,28.811923685057057],[76.9677178491324,28.81119107607359],[76.96676944204299,28.809336582512728],[76.96912978002716,28.807167269874068],[76.96741010703657,28.804283408552653],[76.96657189664708,28.80088412176829],[76.96869060832519,28.80033211293002],[76.9678736200674,28.79811882061787],[76.96929437514137,28.79707200322754],[76.97618489375706,28.793365142222846],[76.97850196727953,28.79244012554152],[76.98051327837074,28.793410404764717],[76.9825369303564,28.792904570636022],[76.98639195584198,28.78921560505829],[76.99165146245406,28.785008226425198],[76.99784728384095,28.784555845561258],[77.00065992179152,28.78382361714368],[77.01344128447519,28.778755381676344],[77.01270289188167,28.77584132575827],[77.01323405414416,28.76988726288683],[77.01176159759417,28.7645243509079],[77.01180879886523,28.762868389604733],[77.01399377278264,28.760722221277867],[77.0152571122924,28.754978455333802],[77.01661845029645,28.754934900636606],[77.0203994631402,28.752559039699317],[77.02913308436487,28.750106776026175],[77.03475747237948,28.749589133029737],[77.036064608472,28.748767075549313],[77.03959725720976,28.748110721082796],[77.04556983635052,28.745739368597555],[77.05042466616545,28.74308392639185],[77.05537381638779,28.74304275775213],[77.05964753411969,28.74158991062038],[77.0642190879124,28.73789966103438],[77.0660080702226,28.738071164576535],[77.06836498584325,28.73683603802585],[77.07072514910239,28.734663223991884],[77.07301038101802,28.73356797051506],[77.07536912174588,28.731507791794836],[77.08185681809918,28.728059373778986],[77.085815875368,28.73412731917503],[77.08921470160709,28.737439158012013],[77.09244724832867,28.73754595538963],[77.09447178311903,28.737006374972193],[77.0958972275143,28.73929125707273],[77.10184248912466,28.737215735047698],[77.10315026628903,28.737697909762023],[77.10635666179984,28.737317327379998],[77.1094764803859,28.73589233860892],[77.10921750869836,28.73441109348452],[77.11206177362378,28.73065972206706],[77.1159417235699,28.723454682965475],[77.11840272933507,28.72080286120973],[77.11969660816156,28.71802931172446],[77.12035072485355,28.715032460243318],[77.11956652964285,28.713444564206426],[77.12155162361844,28.712124141570047],[77.12086578885645,28.708996665172087],[77.12149420979193,28.707257976109734],[77.12569683503717,28.706027194423463],[77.12800086542197,28.70738473321232],[77.1317981824724,28.710458167966518],[77.13048883810343,28.712177046238704],[77.13254882909169,28.715809170690115],[77.13765338670807,28.719949440077457],[77.1390234600544,28.71989449336662],[77.14196212168955,28.725965086097048],[77.14525905897078,28.729142290117743],[77.14995092587704,28.727032001419083],[77.15162662664916,28.726712855364617],[77.15418080772247,28.72800886640447],[77.16004360546158,28.732552142846366],[77.16295301201042,28.72768763395991],[77.16415387491884,28.727009206203856],[77.16227410573089,28.723827083103046],[77.16029707035834,28.718690699333116],[77.1620987146482,28.717194482741142],[77.1640490366787,28.714163443829605],[77.16385924362886,28.712366814847602],[77.16111547321475,28.70996509000643],[77.16213128803831,28.707393866748298],[77.15887814182389,28.70429812815908],[77.16273784255256,28.702793259910525],[77.16818148503144,28.699005945602714],[77.17073864859667,28.699841261962217],[77.17163964128872,28.698542432710788],[77.17624053228533,28.70163436199146],[77.17774423884548,28.7000909095508],[77.18111902176487,28.70101686392796],[77.18182770712212,28.70019416673074],[77.17941538369593,28.69897300451388],[77.17973602761896,28.69750928124677],[77.18221684477851,28.69643978444782],[77.18581535968741,28.693039538465335],[77.18536123731609,28.691409564512046],[77.18355800986376,28.689550657523057],[77.17716585512578,28.684137119352794],[77.1758822556058,28.68369849736354],[77.17328032059349,28.68516212806347],[77.16955733683827,28.68908594564351],[77.16858759976373,28.688570011019397],[77.1679628347504,28.683916456980263],[77.17298570835008,28.679321563054646],[77.17473206645565,28.674248174055368],[77.17718933699298,28.67523153982145],[77.17899497502547,28.674320396451446],[77.17778269053053,28.672660487320524],[77.17686616818247,28.66978021006395],[77.1781960523659,28.66760273869109],[77.17528727050303,28.665708867970586],[77.17430472548125,28.664078243610703],[77.17060962500595,28.660460936620588],[77.16791454327937,28.656163414834186],[77.16230663470915,28.658034632993992],[77.15910541780885,28.658077795224102],[77.1638729969564,28.66228943603073],[77.1616360719756,28.66654089746471],[77.16212669814348,28.66681898138531],[77.15979216149158,28.670612754565607],[77.15731376054684,28.67137410865845],[77.15825180714275,28.673293838930057],[77.1559165823645,28.674969607799575],[77.15332732146857,28.67236464232219],[77.14939320820162,28.672868153252846],[77.1485029174674,28.66919688562145],[77.13937099497471,28.67118429544636],[77.13540856324083,28.6743030990346],[77.13266311713028,28.67713294846662],[77.12733138917159,28.67927559833542],[77.12206757650448,28.68231901646782],[77.12076443514874,28.683717731040705],[77.12218206551921,28.68512481732478],[77.12303804626266,28.68738298680512],[77.12130649949741,28.689069189659374],[77.11930446187675,28.689701392094804],[77.11838121920255,28.687220812251343],[77.11480446634539,28.68305676962175],[77.11393584755608,28.6832859701762],[77.10768378764168,28.688527654704266],[77.10365960774047,28.684678305305862],[77.10198674005652,28.686614111720804],[77.09788352774453,28.68929609095903],[77.09501330129243,28.689001746156674],[77.09244495344062,28.685980986584774],[77.08793009882758,28.688790876637956],[77.08366473246139,28.688416215273726],[77.08226634820747,28.686454239456662],[77.07760562436003,28.683163739488005],[77.07532808137397,28.683354114637588],[77.07340883264392,28.686029035092172],[77.06657911305676,28.690276987553958],[77.0645235257147,28.691988439389796],[77.06185071668793,28.690074877157016],[77.05609539335258,28.68683215030703],[77.05410028036748,28.683415453279164],[77.05312166248433,28.683875295692843],[77.04886426464677,28.68823641972178],[77.04659562158724,28.69146858463888],[77.04511789735744,28.69497485903056],[77.04104731180215,28.697481346455344],[77.03741627423078,28.698459281574326],[77.0297607066662,28.696459458590805],[77.02314800792442,28.695493537149897],[77.01269740329485,28.695311771464393],[77.00938249338242,28.688255911983255],[77.00225325700325,28.679751088849628],[77.0002433775029,28.679207913786676],[76.99336407534837,28.683071269190172],[76.99017456729155,28.685696530152228],[76.98301905146756,28.690478499927274],[76.97603356737224,28.698250001846645],[76.97681128068683,28.700439318715734],[76.97432430262637,28.702039456645466],[76.96907288383237,28.699295601967517],[76.96785657885891,28.699489430126974],[76.9594906398858,28.705191678599693],[76.95315347385599,28.709051970884726],[76.94823861572996,28.71281154453716],[76.95290729143572,28.720050098667105],[76.9563145033755,28.72398471825372],[76.95974377570721,28.72949048511748],[76.95988198829127,28.732987511241536],[76.95825112185324,28.735841197214008],[76.95595779947803,28.738140282132107],[76.95861119032514,28.742945727557633],[76.9560484843952,28.745618252518465],[76.95081550869132,28.75004036495999],[76.9446161691618,28.754099035796735],[76.94625729637883,28.758056195134316],[76.9504504054993,28.762825189999656],[76.95579652493794,28.767371616650042],[76.95540222284475,28.768930387337704],[76.95189791849124,28.773146876334085],[76.94979143749622,28.77711019454007],[76.95003977662702,28.78331500375124],[76.95209891470907,28.78827941857016],[76.95384424800005,28.79062704515413],[76.95331168440654,28.791677656338187],[76.94627532444534,28.79795433947935],[76.94211115425364,28.798491124988722],[76.94551965354957,28.804728513652123],[76.94633006615608,28.80694333467283],[76.94566380295298,28.810281178541537],[76.94818519114635,28.81513197203094],[76.95080938304162,28.81830937484165],[76.95702265857051,28.816547593224183],[76.95929027602756,28.815317059606173],[76.96181632344181,28.81491687388042]]]]}},{"type":"Feature","properties":{"id":"07-150","name":"South","source_name":"South","state_id":"07","source_agency":"Survey of India (SOI)","district_code":"083"},"geometry":{"type":"MultiPolygon","coordinates":[[[[77.24875307057894,28.481008711170624],[77.24341192269833,28.478882648500925],[77.23560319611981,28.47116148111266],[77.23292492983963,28.45805552032013],[77.23442250721038,28.45473932224042],[77.24184875988276,28.456203881672835],[77.24575689709532,28.45420449517604],[77.2489379761754,28.44698853440941],[77.24986484084229,28.437844474174042],[77.24896063015007,28.43295157367591],[77.25258977979504,28.432814878109596],[77.2495228784874,28.42449386104697],[77.23861590814286,28.420921394681436],[77.235580101503,28.418508156867574],[77.23396866712686,28.418078803146628],[77.22852489786816,28.413939575059988],[77.22459285209504,28.412696539768277],[77.22195623388755,28.412476245703626],[77.21671740165037,28.409826977225798],[77.21589054764854,28.41144464710466],[77.21030119695754,28.40988671630747],[77.20715228116052,28.409836151086385],[77.20404989108661,28.408868668421718],[77.19931378239015,28.408232881990035],[77.1938374287681,28.408386332017958],[77.19052324990712,28.40723850702346],[77.18437685463583,28.41045858379543],[77.18203749358081,28.40903154978603],[77.17794712967915,28.407701950529745],[77.17449549236616,28.4046263595724],[77.17142695077204,28.406313076691642],[77.17121887577579,28.408849053176745],[77.1684728922053,28.412305800595018],[77.16534684591014,28.41409818603155],[77.16483243779507,28.4150376762063],[77.16556249081908,28.4202446382316],[77.16588525137034,28.42559774274169],[77.16226273445358,28.428967876829244],[77.1566619316273,28.431340324028028],[77.15205574281704,28.434080647842325],[77.15159762279814,28.435047456964824],[77.14844256650218,28.437273368649496],[77.14247076882629,28.43738467656329],[77.14103730965938,28.436741859154715],[77.13228716257017,28.439160953191756],[77.13135720461598,28.4406606170469],[77.12884115185705,28.440707082508627],[77.12381986168366,28.445418954115468],[77.12184975408695,28.458532047885896],[77.11686136023603,28.46290420194626],[77.11093365685355,28.471242344522388],[77.11301008715046,28.471326522157455],[77.11465005313164,28.480755470889388],[77.1154135566469,28.48300961072908],[77.11768005048404,28.485929490621412],[77.11861075253897,28.48801991424616],[77.12748141013115,28.486983034283597],[77.1309247318183,28.4877025132253],[77.13707793145434,28.486761818794683],[77.14439685483386,28.48393221032608],[77.14505331531535,28.48784909759133],[77.14763604759126,28.492114746047072],[77.15001036210553,28.499398654739263],[77.14750736425049,28.499682746115365],[77.14329530008874,28.49757573402617],[77.1408679887689,28.50065152381535],[77.13671223706665,28.504344226947804],[77.13410995016687,28.505488877832402],[77.12936937051413,28.50682451261943],[77.13117686461013,28.51785296865112],[77.13354722703492,28.52113176977626],[77.13418765112735,28.524036635215968],[77.13940236206128,28.523409561746657],[77.1451757497123,28.523621779790926],[77.15018971200088,28.52297666581381],[77.15613717574212,28.521314270572457],[77.15958866955395,28.5258010954346],[77.16402557816723,28.526389678771274],[77.16579181914541,28.528218347924817],[77.16880996261783,28.53257650678528],[77.1702730453925,28.533927477366305],[77.17480111814082,28.536028767062003],[77.17210974048014,28.538938783204124],[77.170066661128,28.540434110570896],[77.1620714399319,28.54418966352879],[77.16054794219578,28.545435113324004],[77.16547726254353,28.54585735486006],[77.16948602404624,28.54792255588013],[77.1752476228892,28.547931925977817],[77.18114161543521,28.548767025262556],[77.18293352428697,28.5516474036585],[77.18370988646934,28.554984844673786],[77.181676292943,28.555194553797826],[77.18402092165657,28.55765193619975],[77.1813931800825,28.558781430778254],[77.18294197981608,28.560691735844948],[77.18552595091707,28.5616620437627],[77.18891578433522,28.56398387095501],[77.1895694031009,28.56544511236318],[77.18998534266642,28.57196826443413],[77.19004476267595,28.57989987324264],[77.19158968128158,28.58235228840606],[77.19531133709125,28.581983008056408],[77.19866262067565,28.581106403900765],[77.21017492506213,28.580174849784168],[77.20874520393271,28.57629998724505],[77.20604856874154,28.565713401393545],[77.20588057069328,28.562093241841374],[77.20912234832325,28.559026826319357],[77.21160699894247,28.56313938661434],[77.21586841977556,28.56620522714494],[77.21909055128607,28.562501470888076],[77.22024130177097,28.563461929132355],[77.22263293465303,28.5614212880672],[77.22393137638556,28.554902586975416],[77.22662154817958,28.553981448124787],[77.2288331613314,28.554197931786852],[77.23153949068133,28.553243081389635],[77.23120353235834,28.549016433697236],[77.23405898761898,28.547262808993807],[77.23443899392542,28.544630011797548],[77.23444250862973,28.539347349545093],[77.2350817352088,28.534206602928293],[77.23674046299965,28.53361776715356],[77.24605026443423,28.527638763268527],[77.24424868856391,28.523470978309703],[77.24384996064761,28.52082906860788],[77.24404471570058,28.517218996968225],[77.24499209319677,28.514311589166237],[77.24220763872411,28.507989515954264],[77.2418587661075,28.505614999279683],[77.24265201512941,28.5024733404682],[77.24281749952576,28.49880712918444],[77.24558471554495,28.495064187795716],[77.24737231539872,28.493976701285185],[77.24922533656903,28.490838344145548],[77.24959970186445,28.483268068468536],[77.24875307057894,28.481008711170624]]],[[[77.23745040717314,28.557685561255415],[77.2465514922425,28.558944212744933],[77.24587699826678,28.556403879299737],[77.24675136501642,28.553650850188998],[77.23786583992884,28.554468560614847],[77.23292270829931,28.55556312084526],[77.23088799765397,28.556416070581754],[77.2312471132093,28.558998499444066],[77.23745040717314,28.557685561255415]]]]}},{"type":"Feature","properties":{"id":"07-151","name":"South West","source_name":"South West","state_id":"07","source_agency":"Survey of India (SOI)","district_code":"084"},"geometry":{"type":"MultiPolygon","coordinates":[[[[76.95371623625529,28.667780710077068],[76.96319414180742,28.661087223095556],[76.96746483397013,28.659384652143622],[76.96792628532606,28.6585649983058],[76.97806716430588,28.656663925722725],[76.97967596725422,28.654293881483454],[76.98396979644393,28.65778331964177],[76.98661632659831,28.658800510610956],[76.98874331528064,28.66082156148911],[76.99297890224491,28.65836933942333],[76.9926996459251,28.656306457872358],[76.99600365000515,28.653839397306083],[77.00214758164914,28.651284539308783],[76.99974972288142,28.649608664456988],[76.99999119994777,28.64555701237031],[77.0016176665484,28.642057193047638],[77.00246699116933,28.63829853243562],[77.00426512228299,28.63479010165134],[77.00492232986959,28.631459597448984],[77.00684704429575,28.627938886343475],[77.00460584639146,28.625218766741973],[77.00779610958206,28.624110688978007],[77.00946680965782,28.625129331090303],[77.01418633494343,28.62541005456331],[77.01593153310957,28.62717283915944],[77.02204808094953,28.62645146629273],[77.0228623141197,28.623477431889786],[77.02251296474714,28.620973830356906],[77.03048733019335,28.6190252034328],[77.03400761371674,28.61659732242042],[77.0326341537835,28.613875860926388],[77.03547316232651,28.60566133341818],[77.03718039988503,28.60388295507772],[77.04480844347229,28.60113122659156],[77.04900112719413,28.599284504999805],[77.05304198958135,28.596672054185433],[77.05540445476879,28.59621732791583],[77.0584597121471,28.598254479098348],[77.06132488856393,28.598767421742],[77.06194046717651,28.599628697954056],[77.05968633259327,28.601839021123237],[77.05676618549994,28.60335521802116],[77.0523289330002,28.60744869335575],[77.05489484834372,28.61168032954947],[77.05182793113696,28.616299639260575],[77.05312032620871,28.61831305085895],[77.05666060089311,28.61757664207761],[77.06119428090248,28.61776437009367],[77.06408964851983,28.621234869318425],[77.06885979154359,28.61876821918562],[77.07391543374668,28.615303982420212],[77.07956203450489,28.612008462147692],[77.08049731814562,28.613782119623814],[77.08369330568966,28.61420334731424],[77.08638386212067,28.615454789104916],[77.08776461560983,28.617213381295006],[77.08953996825134,28.6180685437726],[77.09558658899864,28.61649850582146],[77.10394190385026,28.612761009874777],[77.10277048784724,28.606259741647882],[77.09882581523618,28.601019862024653],[77.10033064403238,28.599887748555457],[77.09969606893068,28.598764592816707],[77.10324097027495,28.597421792403352],[77.09803409266252,28.591188624724662],[77.09623589338797,28.59142624790502],[77.09609279130132,28.588077819059507],[77.0940945837135,28.58605101820405],[77.08114473175165,28.5711766042977],[77.07570719187538,28.573459304549115],[77.0694607467184,28.57492791220847],[77.06782153902768,28.57375987730452],[77.06558494504034,28.569775611610492],[77.06350338663432,28.570002009843265],[77.05876563944649,28.57146051203348],[77.05740058004538,28.569908241622986],[77.05269722575576,28.56179055904358],[77.05066600009586,28.558952074958054],[77.06117693840348,28.552609470500226],[77.07110024114408,28.547532705826136],[77.07129737869614,28.54384317247412],[77.07567413887793,28.542511775360097],[77.0791882649419,28.54064259775145],[77.08891602095346,28.53852818728731],[77.0867467412931,28.535323220527275],[77.08557886546878,28.53176226494694],[77.08688367663422,28.53127567296766],[77.09523801975872,28.52502921110614],[77.1035438899708,28.518191991579233],[77.10094343272223,28.514156408271507],[77.0997967889678,28.51126918977278],[77.09468479058816,28.513826924082757],[77.09119691505525,28.514564236106605],[77.08049923084566,28.518040724732856],[77.07535941012847,28.51853948155878],[77.07224436048615,28.520255124407203],[77.07118777368149,28.517264672168142],[77.06733584623025,28.512152012229837],[77.06393867483202,28.51261596532684],[77.05994975570215,28.512323994484696],[77.0513880855483,28.515530524683847],[77.0465734082359,28.51664454973882],[77.04835320619964,28.520893765903296],[77.04409334246013,28.523291933238525],[77.04371067906962,28.524456395016752],[77.031952741138,28.53130488639729],[77.02438300190937,28.53278036581299],[77.02185302323545,28.534824611364428],[77.01768751296295,28.537407108466677],[77.01707338122033,28.538770509144342],[77.01345048151374,28.54049701992202],[77.0092171765196,28.540088761195705],[77.00663865747532,28.541359791401042],[77.00481363312153,28.54019414006308],[77.00451117541327,28.538366962136738],[77.00215453042841,28.53420823652869],[77.00041601337605,28.533526762188608],[77.00047451934223,28.532079625848034],[77.0059978956892,28.528084634571467],[77.01009833008995,28.525597719588383],[77.01502076191042,28.52385966775232],[77.01703475447162,28.52095113095002],[77.01012827371602,28.514713177198793],[77.00087168526963,28.51779753582551],[76.99655893668579,28.519763981124058],[76.99525778886654,28.516922790437],[76.99402600672609,28.517051949189916],[76.99052069068954,28.51353695803453],[76.98274859576588,28.517140686470295],[76.97809657746082,28.521337569289475],[76.9758953367362,28.518724434789593],[76.97073963052902,28.515220206643807],[76.96488518759851,28.512585643140238],[76.95602009954402,28.50617040035133],[76.9516679772903,28.50425214474272],[76.94367263103898,28.504133547772142],[76.94186259344623,28.504535202962927],[76.93347481659849,28.509720798210427],[76.92735972002949,28.51042709553947],[76.92364540532897,28.50810025403317],[76.92068254332669,28.507030177868902],[76.91890640202001,28.509122350247157],[76.91219589791847,28.512374786929016],[76.91017671811775,28.51215694629739],[76.90798415296143,28.513752314652276],[76.90460671214979,28.51134528570402],[76.90238937403664,28.508953698727872],[76.9000344802634,28.509377203071036],[76.89698445393815,28.507865868397317],[76.89143180793688,28.500883513856024],[76.8854396553067,28.501174175441378],[76.87961000776296,28.504765163250248],[76.88040194816011,28.505936615060975],[76.88145028287418,28.50990728140656],[76.8839788374797,28.513677445041317],[76.8852811204898,28.517263034386744],[76.88711462656303,28.520588276198065],[76.88284828955886,28.52252359194311],[76.87899190653691,28.52343456229666],[76.87700886653047,28.524418829100462],[76.87455927190491,28.527017993165202],[76.87288106929569,28.530958088443533],[76.87323518162906,28.53257761218539],[76.87140580684948,28.533021164609856],[76.867420396349,28.535326277092782],[76.86775178739481,28.535885599085642],[76.86640112667175,28.540318301684884],[76.86472990182008,28.5433454341638],[76.86185840625856,28.545137802202383],[76.85624725165866,28.54699085332292],[76.8466705232514,28.549503990899748],[76.84535466652494,28.550377154202103],[76.84518390762406,28.551988613958507],[76.84248198869653,28.556190153677527],[76.84209877177982,28.56074489120725],[76.84249795497011,28.56303279050215],[76.84069048528298,28.56924060215298],[76.84069308887524,28.571490805346723],[76.83903895873772,28.57278153434544],[76.83966407001903,28.58254496594809],[76.8452658275738,28.584385741662],[76.85504318364382,28.585081197902127],[76.85778405229246,28.584701773602312],[76.86312426195809,28.58518393795199],[76.86603268771675,28.587736575784824],[76.86784155829385,28.590409784213357],[76.87030660821988,28.597371158582703],[76.87135286002595,28.601855045432092],[76.8739402940328,28.605414251770835],[76.87728571926736,28.608806115092047],[76.88018307172682,28.614940714902332],[76.88233116019103,28.622771545333016],[76.88514913163802,28.628569509833277],[76.88826747283065,28.631932945327776],[76.89272639502998,28.631799591612133],[76.89869363546944,28.628099209305844],[76.90637568910145,28.623826846121588],[76.91006258475977,28.628558124345613],[76.91434922597172,28.632322063443144],[76.91912287260645,28.631760586212533],[76.92096525528842,28.631053029567745],[76.92421971321754,28.628115861348654],[76.92741574301299,28.623539927649915],[76.93463663542627,28.618303628114315],[76.93723249050696,28.62141186990962],[76.93946336420741,28.62314855270026],[76.94375190143514,28.628343566589955],[76.94515744286174,28.63304791591291],[76.9403827838997,28.634820013254835],[76.93645301278907,28.637804713354207],[76.93099639093467,28.643068910689095],[76.92827157426174,28.646972697662896],[76.92506528991512,28.650018126722866],[76.93071271148615,28.65834674791468],[76.93263826045802,28.66197286723115],[76.93370573944362,28.665919595840872],[76.93501622974016,28.667532297099903],[76.94282473653914,28.66811277179113],[76.944505542916,28.66910135755349],[76.94865527825557,28.669809808574193],[76.9521199129007,28.66955044989308],[76.95371623625529,28.667780710077068]]]]}},{"type":"Feature","properties":{"id":"07-152","name":"West","source_name":"West","state_id":"07","source_agency":"Survey of India (SOI)","district_code":"085"},"geometry":{"type":"MultiPolygon","coordinates":[[[[77.16791454327937,28.656163414834186],[77.16856207125323,28.65342295145397],[77.1708255931167,28.652869769089946],[77.17293852144113,28.653390683054187],[77.17836109010112,28.652320684683083],[77.18023538076415,28.652855658791584],[77.17994751302945,28.65081404072555],[77.18119250975937,28.65031251766389],[77.17824365351991,28.646259401420664],[77.17871340383195,28.64585201642579],[77.17578594326996,28.642228107044716],[77.17588114370567,28.639787348560365],[77.17526646340549,28.63333682393979],[77.17665672713076,28.63010315580085],[77.17265584108482,28.629988003270977],[77.16777210099868,28.62895537967032],[77.1654940301898,28.627957547292915],[77.16169007929963,28.632998178558946],[77.15322623389234,28.63949194234926],[77.14968038754456,28.637253174935577],[77.14708316617833,28.640205481812067],[77.14562496660331,28.638196690712345],[77.13859787119117,28.64061671869758],[77.13390166300974,28.640973742167418],[77.12955850525356,28.639407450573078],[77.12539533079712,28.638953674605148],[77.122008138573,28.631813066881687],[77.12195601714883,28.62770879392117],[77.11942176942236,28.628049211922875],[77.11805308961662,28.627006794304155],[77.1157510876725,28.620550503526093],[77.11530633747496,28.618184821592184],[77.11042939992373,28.615531400320354],[77.10394190385026,28.612761009874777],[77.09558658899864,28.61649850582146],[77.08953996825134,28.6180685437726],[77.08776461560983,28.617213381295006],[77.08638386212067,28.615454789104916],[77.08369330568966,28.61420334731424],[77.08049731814562,28.613782119623814],[77.07956203450489,28.612008462147692],[77.07391543374668,28.615303982420212],[77.06885979154359,28.61876821918562],[77.06408964851983,28.621234869318425],[77.06119428090248,28.61776437009367],[77.05666060089311,28.61757664207761],[77.05312032620871,28.61831305085895],[77.05182793113696,28.616299639260575],[77.05489484834372,28.61168032954947],[77.0523289330002,28.60744869335575],[77.05676618549994,28.60335521802116],[77.05968633259327,28.601839021123237],[77.06194046717651,28.599628697954056],[77.06132488856393,28.598767421742],[77.0584597121471,28.598254479098348],[77.05540445476879,28.59621732791583],[77.05304198958135,28.596672054185433],[77.04900112719413,28.599284504999805],[77.04480844347229,28.60113122659156],[77.03718039988503,28.60388295507772],[77.03547316232651,28.60566133341818],[77.0326341537835,28.613875860926388],[77.03400761371674,28.61659732242042],[77.03048733019335,28.6190252034328],[77.02251296474714,28.620973830356906],[77.0228623141197,28.623477431889786],[77.02204808094953,28.62645146629273],[77.01593153310957,28.62717283915944],[77.01418633494343,28.62541005456331],[77.00946680965782,28.625129331090303],[77.00779610958206,28.624110688978007],[77.00460584639146,28.625218766741973],[77.00684704429575,28.627938886343475],[77.00492232986959,28.631459597448984],[77.00426512228299,28.63479010165134],[77.00246699116933,28.63829853243562],[77.0016176665484,28.642057193047638],[76.99999119994777,28.64555701237031],[76.99974972288142,28.649608664456988],[77.00214758164914,28.651284539308783],[76.99600365000515,28.653839397306083],[76.9926996459251,28.656306457872358],[76.99297890224491,28.65836933942333],[76.98874331528064,28.66082156148911],[76.98661632659831,28.658800510610956],[76.98396979644393,28.65778331964177],[76.97967596725422,28.654293881483454],[76.97806716430588,28.656663925722725],[76.96792628532606,28.6585649983058],[76.96746483397013,28.659384652143622],[76.96319414180742,28.661087223095556],[76.95371623625529,28.667780710077068],[76.9558910777437,28.671246005143576],[76.95604553831667,28.677010798236218],[76.95742540383023,28.68331612015584],[76.95851132875343,28.68569887168621],[76.9632994831963,28.692430276510883],[76.96332763342639,28.694000338121345],[76.96600654145111,28.697830472805034],[76.96785657885891,28.699489430126974],[76.96907288383237,28.699295601967517],[76.97432430262637,28.702039456645466],[76.97681128068683,28.700439318715734],[76.97603356737224,28.698250001846645],[76.98301905146756,28.690478499927274],[76.99017456729155,28.685696530152228],[76.99336407534837,28.683071269190172],[77.0002433775029,28.679207913786676],[77.00225325700325,28.679751088849628],[77.00938249338242,28.688255911983255],[77.01269740329485,28.695311771464393],[77.02314800792442,28.695493537149897],[77.0297607066662,28.696459458590805],[77.03741627423078,28.698459281574326],[77.04104731180215,28.697481346455344],[77.04511789735744,28.69497485903056],[77.04659562158724,28.69146858463888],[77.04886426464677,28.68823641972178],[77.05312166248433,28.683875295692843],[77.05410028036748,28.683415453279164],[77.05609539335258,28.68683215030703],[77.06185071668793,28.690074877157016],[77.0645235257147,28.691988439389796],[77.06657911305676,28.690276987553958],[77.07340883264392,28.686029035092172],[77.07532808137397,28.683354114637588],[77.07760562436003,28.683163739488005],[77.08226634820747,28.686454239456662],[77.08366473246139,28.688416215273726],[77.08793009882758,28.688790876637956],[77.09244495344062,28.685980986584774],[77.09501330129243,28.689001746156674],[77.09788352774453,28.68929609095903],[77.10198674005652,28.686614111720804],[77.10365960774047,28.684678305305862],[77.10768378764168,28.688527654704266],[77.11393584755608,28.6832859701762],[77.11480446634539,28.68305676962175],[77.11838121920255,28.687220812251343],[77.11930446187675,28.689701392094804],[77.12130649949741,28.689069189659374],[77.12303804626266,28.68738298680512],[77.12218206551921,28.68512481732478],[77.12076443514874,28.683717731040705],[77.12206757650448,28.68231901646782],[77.12733138917159,28.67927559833542],[77.13266311713028,28.67713294846662],[77.13540856324083,28.6743030990346],[77.13937099497471,28.67118429544636],[77.1485029174674,28.66919688562145],[77.14939320820162,28.672868153252846],[77.15332732146857,28.67236464232219],[77.1559165823645,28.674969607799575],[77.15825180714275,28.673293838930057],[77.15731376054684,28.67137410865845],[77.15979216149158,28.670612754565607],[77.16212669814348,28.66681898138531],[77.1616360719756,28.66654089746471],[77.1638729969564,28.66228943603073],[77.15910541780885,28.658077795224102],[77.16230663470915,28.658034632993992],[77.16791454327937,28.656163414834186]]]]}},{"type":"Feature","properties":{"id":"07-153","name":"South East","source_name":"South East","state_id":"07","source_agency":"Survey of India (SOI)","district_code":"670"},"geometry":{"type":"MultiPolygon","coordinates":[[[[77.29849783818099,28.571229881701434],[77.29708643455477,28.566007365508575],[77.2975420637585,28.565125165815257],[77.30122592478065,28.56273334712844],[77.30143721437828,28.56089744640032],[77.29996476858142,28.5597945434339],[77.30209812038493,28.556536981198754],[77.30439560263108,28.551933489641023],[77.31007109668144,28.54823097596424],[77.31363919200433,28.54491023024497],[77.31801427037576,28.54294475368524],[77.3207764222853,28.541014332487585],[77.32226926986783,28.537862318598556],[77.32471621949087,28.534953678426106],[77.33015960375916,28.532319938921923],[77.33398449059739,28.52545228693422],[77.33759252384495,28.523148215672197],[77.3416318385294,28.521983324992185],[77.3466331325152,28.521038990257278],[77.34757025261915,28.51899453934206],[77.34599713638626,28.515789487350876],[77.34543766970125,28.513260686555547],[77.34326675314433,28.5110922776406],[77.33611610842955,28.505220203638444],[77.33495874563486,28.50176676187439],[77.33013076350286,28.495658843713255],[77.32683292051179,28.490133684395303],[77.32260556290872,28.488553681554006],[77.31962426562406,28.48791643804054],[77.31672239575506,28.486496264868176],[77.31584291212575,28.4846673761304],[77.31382453646441,28.483745294711415],[77.31003311218181,28.4871497295052],[77.3065283802223,28.48941426500413],[77.30074698748061,28.489977155185162],[77.30054995354436,28.494173436639365],[77.29838144252393,28.4943092692093],[77.29542890995526,28.495909607376277],[77.29026465694594,28.496566275743398],[77.28701634817091,28.496053054214165],[77.28300102262426,28.49454194456082],[77.27665898750635,28.493350239085306],[77.27206623331453,28.490824999425353],[77.26998139532938,28.488342265591683],[77.26936280904715,28.48665013592596],[77.26579470311516,28.4861657463524],[77.26197626508852,28.48506798380489],[77.24954991975322,28.480853582925093],[77.24875307057894,28.481008711170624],[77.24959970186445,28.483268068468536],[77.24922533656903,28.490838344145548],[77.24737231539872,28.493976701285185],[77.24558471554495,28.495064187795716],[77.24281749952576,28.49880712918444],[77.24265201512941,28.5024733404682],[77.2418587661075,28.505614999279683],[77.24220763872411,28.507989515954264],[77.24499209319677,28.514311589166237],[77.24404471570058,28.517218996968225],[77.24384996064761,28.52082906860788],[77.24424868856391,28.523470978309703],[77.24605026443423,28.527638763268527],[77.23674046299965,28.53361776715356],[77.2350817352088,28.534206602928293],[77.23444250862973,28.539347349545093],[77.23443899392542,28.544630011797548],[77.23405898761898,28.547262808993807],[77.23120353235834,28.549016433697236],[77.23153949068133,28.553243081389635],[77.2288331613314,28.554197931786852],[77.22662154817958,28.553981448124787],[77.22393137638556,28.554902586975416],[77.22263293465303,28.5614212880672],[77.22024130177097,28.563461929132355],[77.21909055128607,28.562501470888076],[77.21586841977556,28.56620522714494],[77.21160699894247,28.56313938661434],[77.20912234832325,28.559026826319357],[77.20588057069328,28.562093241841374],[77.20604856874154,28.565713401393545],[77.20874520393271,28.57629998724505],[77.21017492506213,28.580174849784168],[77.21221768613361,28.588066353471536],[77.21208989728046,28.589370100733777],[77.21406131930254,28.589421307571964],[77.23550557339998,28.59209783445612],[77.23336799431968,28.595163453211942],[77.23351060975958,28.60190561967909],[77.23314741880651,28.60249808456107],[77.24258703348838,28.608175424878418],[77.24554148709657,28.60551443132476],[77.25038755476245,28.607654598510408],[77.25598361309541,28.60878291757912],[77.25952147223114,28.601747457421137],[77.26141687980788,28.598952655715152],[77.26345635675521,28.59417946060698],[77.26512655170175,28.591755428668673],[77.26715964633591,28.592044843385953],[77.26544758916488,28.595807655661865],[77.27392383468245,28.601969504565744],[77.27672975516167,28.600563674542578],[77.27926366404834,28.59854942310133],[77.28039016103901,28.595262837752458],[77.2808073188901,28.589777667371802],[77.27837185373474,28.58801772787594],[77.27818688454143,28.585141896380467],[77.28487120750341,28.58675571814114],[77.28792315230807,28.585487193402273],[77.29185228968609,28.580241430907353],[77.29217694121046,28.577430083942915],[77.29694054744597,28.573318649546852],[77.29849783818099,28.571229881701434]],[[77.23745040717314,28.557685561255415],[77.2465514922425,28.558944212744933],[77.24587699826678,28.556403879299737],[77.24675136501642,28.553650850188998],[77.23786583992884,28.554468560614847],[77.23292270829931,28.55556312084526],[77.23088799765397,28.556416070581754],[77.2312471132093,28.558998499444066],[77.23745040717314,28.557685561255415]]]]}},{"type":"Feature","properties":{"id":"07-154","name":"Shahdara","source_name":"Shahdara","state_id":"07","source_agency":"Survey of India (SOI)","district_code":"671"},"geometry":{"type":"MultiPolygon","coordinates":[[[[77.31628402679321,28.641265161958593],[77.3153535887815,28.640020476702265],[77.31122936887235,28.64112800420247],[77.30812412756505,28.642482229984914],[77.3018793115361,28.64370277041619],[77.29683711014347,28.648359512710503],[77.29335494906628,28.65379284872861],[77.28920810607617,28.657847124472784],[77.28083275886198,28.655447848267467],[77.27748238676284,28.65384990374511],[77.27746788723107,28.652484303525053],[77.27249763361539,28.65108050160832],[77.27136151322557,28.65035005373765],[77.26374953714853,28.649396520879524],[77.26112310962696,28.65675320744011],[77.2593538243726,28.65943037448589],[77.25651018177724,28.66097216858118],[77.25286092512644,28.661930293913546],[77.25121111072488,28.663542073471266],[77.2472538978273,28.663347390522635],[77.2435401524009,28.66392091106404],[77.23890539736492,28.666136747735003],[77.24179854358836,28.6667600352494],[77.25383540269061,28.67102409294315],[77.25858297666646,28.670112425892633],[77.26628006874381,28.67118653550347],[77.26982542567764,28.672817223440575],[77.26822780228765,28.67473348804411],[77.2695770721829,28.676150138503992],[77.26804088202572,28.676816860182868],[77.26959806369706,28.67809070137316],[77.27028291892749,28.679973945022542],[77.26943854729384,28.680515559858524],[77.27059764247676,28.68323403982093],[77.27103856179706,28.690146996683172],[77.27207841524594,28.696954489159037],[77.27513384796117,28.696802357110233],[77.27964626928728,28.697949095132106],[77.27955981639127,28.696875963628248],[77.28192561032255,28.69613313933449],[77.28453552443501,28.693442105977393],[77.2866159005686,28.695793543682964],[77.29035612645716,28.693578765456905],[77.29244381215592,28.692893823802144],[77.29696569530182,28.69235329558508],[77.29827097486593,28.696530681137645],[77.29677540163799,28.70451725668054],[77.29922050171677,28.709070617065876],[77.29902691988526,28.709886851912202],[77.30328289090772,28.711411272490874],[77.30477672597468,28.71293870333163],[77.30969754245108,28.71322441144333],[77.31664853657472,28.712958713145426],[77.31784107928905,28.713980467556595],[77.32205555538518,28.71214134936798],[77.32308626089095,28.713078196731807],[77.32623017785507,28.712747816550845],[77.32714507445964,28.71343440957761],[77.33112023628715,28.713055396565586],[77.32598975141707,28.709900401654185],[77.32444785508423,28.70709998461664],[77.32576584073243,28.704317230309496],[77.32473839123116,28.700372347100583],[77.32326261249162,28.69861405088601],[77.32537121380693,28.695622449747653],[77.32839007544372,28.692866170565075],[77.33029416226947,28.69042599908632],[77.33271196128312,28.681738653228127],[77.33008749771732,28.678259650709983],[77.32389479067814,28.677234187960426],[77.32332553627441,28.67184164995724],[77.32369813275565,28.668952600724626],[77.32190942584185,28.666798952102525],[77.32074750883436,28.663527671986323],[77.31996966364574,28.65546990671615],[77.31985695439208,28.651083954817565],[77.31628402679321,28.641265161958593]]]]}},{"type":"Feature","properties":{"id":"07-144","name":"Central","source_name":"Central","state_id":"07","source_agency":"Survey of India (SOI)","district_code":"077"},"geometry":{"type":"MultiPolygon","coordinates":[[[[77.23890539736492,28.666136747735003],[77.2435401524009,28.66392091106404],[77.2472538978273,28.663347390522635],[77.25121111072488,28.663542073471266],[77.25286092512644,28.661930293913546],[77.25651018177724,28.66097216858118],[77.2593538243726,28.65943037448589],[77.26112310962696,28.65675320744011],[77.26374953714853,28.649396520879524],[77.26440315678299,28.64517267789001],[77.26196693990967,28.639488474987893],[77.25661914529162,28.63328243117011],[77.25376698916904,28.62937087293683],[77.2525191707443,28.624833279774823],[77.25257859096166,28.622173221209472],[77.25412350891118,28.620295490484565],[77.25489596806462,28.61434912827711],[77.25561521976151,28.613481069366983],[77.25283398882748,28.612947657038088],[77.24921692721287,28.61418164037466],[77.24669634968866,28.62158051672772],[77.24382421348106,28.625004858834576],[77.23418362571014,28.630433462829917],[77.22458603653129,28.635039637999935],[77.22363269088436,28.636394548790733],[77.22261462697749,28.635295571450232],[77.21967083012494,28.635472164283335],[77.21827152844325,28.634424940955007],[77.20458728073262,28.64241495476481],[77.19892423926714,28.64523491482714],[77.19489920853395,28.638591730333005],[77.19051481192373,28.634130978867308],[77.18864239464789,28.629593415614067],[77.18630801567276,28.62699642756699],[77.18168559778505,28.62366241142305],[77.17896309133602,28.625644028136264],[77.17754794285614,28.62743527199434],[77.17665672713076,28.63010315580085],[77.17526646340549,28.63333682393979],[77.17588114370567,28.639787348560365],[77.17578594326996,28.642228107044716],[77.17871340383195,28.64585201642579],[77.17824365351991,28.646259401420664],[77.18119250975937,28.65031251766389],[77.17994751302945,28.65081404072555],[77.18023538076415,28.652855658791584],[77.17836109010112,28.652320684683083],[77.17293852144113,28.653390683054187],[77.1708255931167,28.652869769089946],[77.16856207125323,28.65342295145397],[77.16791454327937,28.656163414834186],[77.17060962500595,28.660460936620588],[77.17430472548125,28.664078243610703],[77.17528727050303,28.665708867970586],[77.1781960523659,28.66760273869109],[77.17686616818247,28.66978021006395],[77.17778269053053,28.672660487320524],[77.17899497502547,28.674320396451446],[77.17718933699298,28.67523153982145],[77.17473206645565,28.674248174055368],[77.17298570835008,28.679321563054646],[77.1679628347504,28.683916456980263],[77.16858759976373,28.688570011019397],[77.16955733683827,28.68908594564351],[77.17328032059349,28.68516212806347],[77.1758822556058,28.68369849736354],[77.17716585512578,28.684137119352794],[77.18355800986376,28.689550657523057],[77.18536123731609,28.691409564512046],[77.18581535968741,28.693039538465335],[77.1880375414536,28.69448986259901],[77.18897803182288,28.693783190458763],[77.18808564443746,28.69144177855203],[77.19147084099087,28.690304473335964],[77.19368550633398,28.688614922817948],[77.19669758092931,28.68499718308802],[77.19781462443657,28.68440080925935],[77.20064925722677,28.685926065077357],[77.20374879133887,28.6851115522644],[77.20382869660182,28.68817045358971],[77.2026771953471,28.688281333110762],[77.20697104485994,28.692216646122723],[77.21243102868075,28.700168718781814],[77.21498723075133,28.702376466051298],[77.21821880058303,28.707014904908053],[77.22028972991153,28.712675778920044],[77.22202807686567,28.716217761357488],[77.2206160329131,28.716708531206052],[77.21843300355161,28.719507290443488],[77.21520024032108,28.722347625416024],[77.21537380002052,28.726618124740636],[77.20617693325536,28.727100448910132],[77.19540769823438,28.728747565961935],[77.19192597475813,28.725690226959795],[77.19217287852764,28.729009349395387],[77.19009506733333,28.731818211742095],[77.18663987114661,28.732894555310338],[77.1846346406252,28.735435898993966],[77.17894006812791,28.738461855387126],[77.17674409749127,28.740450962452854],[77.17502761174948,28.744602552317374],[77.1778298936675,28.749016438158634],[77.17967368118723,28.750578247288217],[77.18217968786331,28.750954605293884],[77.1826087439656,28.753184681560654],[77.18083629493331,28.754976128878848],[77.17899012372463,28.755008174901167],[77.17948253322604,28.757517582651417],[77.17524416473724,28.758988189639606],[77.1743446019087,28.760027510334943],[77.17513569044569,28.762747545182123],[77.1743650230993,28.765621864678742],[77.1716090018499,28.767178087011875],[77.17143067994026,28.771237819231533],[77.17231334349651,28.772703910042033],[77.17548860410403,28.7712887560246],[77.17919524403112,28.770308722294114],[77.18518860974459,28.770855079267342],[77.1873271785635,28.771763333801385],[77.19528307737163,28.778024382744192],[77.19890062548315,28.781687179167868],[77.19816610998222,28.783853217892727],[77.2026382384113,28.785575040408688],[77.20786074802693,28.78823934096757],[77.21111423110243,28.78663150183855],[77.20987229904729,28.78368527995117],[77.21051403404604,28.782122920520738],[77.21400792620341,28.779310616361947],[77.21780752848669,28.7779346375214],[77.21764701203571,28.775334088173793],[77.22123942410288,28.770358566079754],[77.2200325257408,28.77028478749923],[77.21791415266283,28.76696101746081],[77.21893812028715,28.763759927172213],[77.2220118222195,28.758714432446244],[77.22201350024085,28.751428259923273],[77.22297945082661,28.75060904698348],[77.22171257102019,28.744954779560807],[77.22338111530463,28.74658918239994],[77.22677309865527,28.74502489487776],[77.22795290377859,28.745556380192138],[77.22827716175865,28.748661661906894],[77.23344011139773,28.747339511855206],[77.23844311598306,28.74555744357241],[77.24073701800985,28.74432754778772],[77.23997826422222,28.738503039906156],[77.23878035743508,28.73675243941695],[77.23946487607353,28.733551266212626],[77.2390655732905,28.730400014763216],[77.23714336405267,28.724995810811528],[77.23556689988959,28.716147162179283],[77.23069446560791,28.708225851843366],[77.22914954695685,28.70092937520366],[77.23152634373078,28.695508807339007],[77.23271474371579,28.69384088225581],[77.23271474357055,28.689775206826457],[77.2347350214005,28.68706466939241],[77.23485386014279,28.682581702148727],[77.23699297765037,28.680600795460006],[77.24150889346974,28.68028801703766],[77.23497270003315,28.675909024936463],[77.23544805991536,28.671112775087963],[77.23890539736492,28.666136747735003]]]]}},{"type":"Feature","properties":{"id":"07-145","name":"East","source_name":"East","state_id":"07","source_agency":"Survey of India (SOI)","district_code":"078"},"geometry":{"type":"MultiPolygon","coordinates":[[[[77.31628402679321,28.641265161958593],[77.32158138134025,28.63658327855463],[77.32368972989882,28.6343559302329],[77.32464435741934,28.634688407828992],[77.32693398268741,28.63289665820292],[77.33186004288143,28.63058477928165],[77.33498466454762,28.627421663680973],[77.33976087733853,28.624131625703004],[77.34035807809748,28.622562055142325],[77.34253197355123,28.62201739476428],[77.34150825364561,28.617602366857135],[77.34217068177864,28.609593342287848],[77.34166853329505,28.60609438345345],[77.34010236762789,28.604228958479975],[77.33675926487068,28.601852259125927],[77.33456005033061,28.6018843638189],[77.32841307674673,28.600153367314796],[77.3262650384127,28.598493534393047],[77.32317591689534,28.597714008683823],[77.31976788596974,28.59779287848738],[77.31886644227286,28.597176850749573],[77.31322654476352,28.5964041166199],[77.31024606874047,28.59058953331411],[77.30480192406714,28.58569729292836],[77.30141941407388,28.5819567398101],[77.29843816023279,28.580087534493114],[77.29974559706162,28.57850876298806],[77.29995491410743,28.576637622754788],[77.29849783818099,28.571229881701434],[77.29694054744597,28.573318649546852],[77.29217694121046,28.577430083942915],[77.29185228968609,28.580241430907353],[77.28792315230807,28.585487193402273],[77.28487120750341,28.58675571814114],[77.27818688454143,28.585141896380467],[77.27837185373474,28.58801772787594],[77.2808073188901,28.589777667371802],[77.28039016103901,28.595262837752458],[77.27926366404834,28.59854942310133],[77.27672975516167,28.600563674542578],[77.27392383468245,28.601969504565744],[77.26544758916488,28.595807655661865],[77.26715964633591,28.592044843385953],[77.26512655170175,28.591755428668673],[77.26345635675521,28.59417946060698],[77.26141687980788,28.598952655715152],[77.25952147223114,28.601747457421137],[77.25598361309541,28.60878291757912],[77.25561521976151,28.613481069366983],[77.25489596806462,28.61434912827711],[77.25412350891118,28.620295490484565],[77.25257859096166,28.622173221209472],[77.2525191707443,28.624833279774823],[77.25376698916904,28.62937087293683],[77.25661914529162,28.63328243117011],[77.26196693990967,28.639488474987893],[77.26440315678299,28.64517267789001],[77.26374953714853,28.649396520879524],[77.27136151322557,28.65035005373765],[77.27249763361539,28.65108050160832],[77.27746788723107,28.652484303525053],[77.27748238676284,28.65384990374511],[77.28083275886198,28.655447848267467],[77.28920810607617,28.657847124472784],[77.29335494906628,28.65379284872861],[77.29683711014347,28.648359512710503],[77.3018793115361,28.64370277041619],[77.30812412756505,28.642482229984914],[77.31122936887235,28.64112800420247],[77.3153535887815,28.640020476702265],[77.31628402679321,28.641265161958593]]]]}}]}
