{"type":"FeatureCollection","features":[{"type":"Feature","properties":{"id":"11-538","name":"Gangtok","source_name":"Gangtok","state_id":"11","source_agency":"Survey of India (SOI)","district_code":"225"},"geometry":{"type":"MultiPolygon","coordinates":[[[[88.74789033632723,27.14379516113617],[88.74513096195044,27.14225676039462],[88.73914111604918,27.13645272843135],[88.73475293055203,27.134784718782853],[88.7267633120424,27.134693592767658],[88.72452477100715,27.13530805987636],[88.71655811962788,27.141423972789678],[88.71682630770505,27.144903788257086],[88.71637923228216,27.15336104650845],[88.71507192535914,27.156713791871166],[88.71053012385369,27.160924707916553],[88.70678391254681,27.16612862628214],[88.70032644261762,27.167689959600892],[88.69749120225933,27.169723900007686],[88.69127597039198,27.172535679682433],[88.68976832667848,27.17425786865704],[88.68583329362923,27.176012784248897],[88.68221985108052,27.176760061993583],[88.67785054995883,27.176646914815645],[88.67241438630101,27.17475044403027],[88.66481833931746,27.16796888422562],[88.66288930453348,27.165068928398625],[88.6586737539178,27.160371426891682],[88.65735313333028,27.15964844271299],[88.65311218685946,27.159776938711538],[88.64853248788751,27.16160027839552],[88.6473971567103,27.162624792317903],[88.64289728461597,27.16324228175641],[88.63749059923924,27.162402789178966],[88.63520286554343,27.163451718532645],[88.63359744516687,27.165472570452213],[88.63225425390975,27.17142673395672],[88.62660429704472,27.17357944546317],[88.6235057444736,27.176301008208938],[88.62256987586065,27.179359151911232],[88.62076707232764,27.179499273091103],[88.61943356908334,27.180847501093062],[88.61419904656537,27.181681981448953],[88.6100741258912,27.18090419951134],[88.6069443990771,27.180978760303653],[88.60204616860635,27.18379693711992],[88.5994101478509,27.18394102466496],[88.59730335290077,27.185879111609307],[88.59715587136442,27.188165861265492],[88.5958032247133,27.18923869875154],[88.59376631599551,27.18926249084146],[88.59195007304346,27.187994461871313],[88.58908555616686,27.18924185076913],[88.58739232649758,27.188040712635544],[88.5859850091863,27.185295623475746],[88.58436551935043,27.185476054122184],[88.58403624530105,27.18804429790603],[88.58292445523357,27.188197012480376],[88.57963830144136,27.18628168196067],[88.57788661922945,27.18746818406954],[88.57282092464098,27.186027193642605],[88.56710640183056,27.185790625932786],[88.56261244539476,27.18412484273057],[88.56024696080053,27.183705750170724],[88.55794435638708,27.184286734121507],[88.55309467789574,27.183367361785518],[88.54794006856298,27.180913080018602],[88.54322493289123,27.181896491318074],[88.54130304186006,27.181645906980926],[88.53871478810466,27.17816402131747],[88.53700213513856,27.17689436465249],[88.53311485974363,27.176649499087134],[88.53126240807443,27.174834961263947],[88.53095060922885,27.17175380751048],[88.52980652029768,27.17032292196981],[88.52509997689238,27.175044606473836],[88.52539038930048,27.178191348377513],[88.50368027916898,27.185134053461802],[88.49675704134818,27.19329203560818],[88.49100916073601,27.202325283518967],[88.49221197799422,27.218467883664694],[88.4945037172828,27.230523815236715],[88.49070384129496,27.23952965612017],[88.48078664874114,27.246724599642143],[88.4752506201644,27.247413951576263],[88.46464527493866,27.25052521409099],[88.45887094327794,27.255944648715303],[88.44691664919338,27.26122601053694],[88.44342841219557,27.266499104805224],[88.44151611056448,27.27391988997923],[88.44253530549044,27.281197261446277],[88.44821559349218,27.295970747233866],[88.44694296815983,27.30087626953071],[88.45178963050938,27.305913763282575],[88.45444107929978,27.315310080656488],[88.46169146905478,27.317611072562592],[88.46699797497989,27.321882348983944],[88.47392071970756,27.323751547441326],[88.48261258991418,27.328718229609883],[88.4862335727105,27.33362848180901],[88.48823292819438,27.34247704109594],[88.48171231805642,27.352617343076584],[88.48025050591849,27.360437054667496],[88.48100844213687,27.366319432129316],[88.48596547073986,27.37834967507277],[88.49118290254393,27.37865782993529],[88.5012423183721,27.382487695971076],[88.51375085562054,27.389502911304586],[88.51912406305365,27.394532779691648],[88.52318183304409,27.39711614343819],[88.52892613787631,27.396133583634757],[88.53374945319261,27.396622750669398],[88.54377689631157,27.394027046021456],[88.55479547759136,27.392361808528182],[88.58193615673162,27.39446262466602],[88.59068852601798,27.39630551112145],[88.5936676388467,27.39236924137173],[88.59966159700589,27.390749115746456],[88.61575415643908,27.387748738215162],[88.62676188064357,27.387293993128146],[88.63747406437125,27.38853916852803],[88.64081265297598,27.390901389793253],[88.64897525423774,27.391880527475085],[88.65873018729287,27.39110649135721],[88.66377905413198,27.393308066868816],[88.6748743733715,27.399998051786007],[88.67895693665221,27.400057134832092],[88.68647637128963,27.398196487827978],[88.69452604728846,27.398384206273203],[88.70017809026182,27.40173250335298],[88.71185454956631,27.411855951789498],[88.7184604225032,27.416538714594697],[88.73164410954331,27.419278105830823],[88.75321615398343,27.414820959178602],[88.76744905842854,27.41383073978667],[88.77332700969845,27.416598717660992],[88.78175866554052,27.42260639742203],[88.78241741233619,27.422842543723398],[88.78730249978827,27.421704021719517],[88.79711297422169,27.41649206376289],[88.80477373142378,27.415229508517978],[88.80682675835392,27.41314146426365],[88.80740118661058,27.409902528963375],[88.80617888420485,27.407358802312036],[88.80695315048104,27.406182025807144],[88.80952836049926,27.40497059260789],[88.8125819678297,27.401248933099446],[88.81736588088471,27.40225381680617],[88.82095602872955,27.39857616540581],[88.82330993488347,27.3905823635105],[88.82988544249622,27.39036363463038],[88.83114163655539,27.389262218336626],[88.83139321391764,27.385826495247144],[88.83594558518516,27.382295767439423],[88.83745140338442,27.379374014890345],[88.83912716411353,27.379736249202647],[88.84230345573675,27.382074755078353],[88.84376315632264,27.38379223042515],[88.8471825149618,27.38499524719466],[88.85003079695666,27.38391911286545],[88.85333770945886,27.38478508641531],[88.85662799624028,27.384397242715412],[88.85950091856212,27.385233839403448],[88.86055971718459,27.386521534078703],[88.86216227899345,27.384013853749423],[88.86220207739817,27.381416476940192],[88.86419224427391,27.379234872526528],[88.86304585879424,27.375051575551886],[88.8634145388437,27.372870300896366],[88.86280733402036,27.369815550096884],[88.86675471522581,27.36581388536611],[88.86931461413182,27.364554202606612],[88.87190838787437,27.36427695276694],[88.87461592827403,27.36270813922352],[88.87608685186682,27.360276807468022],[88.88099198175084,27.36046945677923],[88.8816019971639,27.35874230496106],[88.88063371998736,27.352544318087947],[88.88193689996349,27.350977544214764],[88.8853655607921,27.35114584619934],[88.8821657507947,27.346727282313914],[88.88222797200577,27.34476329905528],[88.88488900504598,27.341940293422926],[88.88971247458088,27.33998663790747],[88.89205743529466,27.338414735462536],[88.89485056844849,27.332296887135843],[88.89794051395863,27.33303100525928],[88.90312393926757,27.33120885203117],[88.90489543716066,27.329025007140554],[88.90741707662448,27.328630275422643],[88.91326788665606,27.329694825633585],[88.91540021068725,27.330705797103725],[88.91920237664542,27.327966081107956],[88.91926028830878,27.320618831870963],[88.91828527975493,27.317775163535618],[88.9160700403414,27.316021120338714],[88.91469252722372,27.31340442508325],[88.91366642055065,27.309921485825296],[88.9120306374417,27.307405054734215],[88.90863508147542,27.303418912806464],[88.90941861744962,27.299157230424683],[88.91156687969512,27.295774530758685],[88.91356479975519,27.290090803770884],[88.90843424941804,27.282054153210996],[88.9082708302683,27.278117569304047],[88.90691966662507,27.275807592275818],[88.90328924020953,27.27258612858203],[88.89985612435478,27.274246950860142],[88.89767798198119,27.270192957514265],[88.89599108753555,27.270154685233194],[88.89239992004693,27.268875377448705],[88.88774230713344,27.268482286853082],[88.88165621728933,27.26496048113102],[88.87910881169677,27.261138606266965],[88.8665856574363,27.264631976359016],[88.8574735804911,27.26438452218865],[88.8321349249537,27.262330317017884],[88.83142830967371,27.262184877625987],[88.82815989354833,27.25723638274394],[88.82306820722366,27.255150046008104],[88.81062288406692,27.25083337551121],[88.8030960829166,27.247836216699454],[88.80338233567558,27.243195756583194],[88.80423244285699,27.239009173567812],[88.80420019330221,27.236477353742167],[88.80273703001863,27.23295376191488],[88.80204885609025,27.22776856456548],[88.80326808090068,27.219997903118617],[88.80143779692452,27.216052010983347],[88.8001482094284,27.21101960640758],[88.79880671489366,27.20758327843065],[88.79647115013462,27.205769195752634],[88.7890926337069,27.19382529387706],[88.78922724776062,27.189102043128255],[88.78820039524676,27.184576525856908],[88.78676036892723,27.18198600680557],[88.78389819440766,27.181890102147502],[88.77885036226472,27.183529514565684],[88.77336506704415,27.182167259226127],[88.76874401447213,27.18012235076791],[88.76460813883635,27.17701750159764],[88.76240190027292,27.172585481284997],[88.76035480414866,27.17027354621446],[88.75719102379693,27.16538701146021],[88.75810216543722,27.161220294317193],[88.75721204754244,27.158665671905208],[88.75945699527432,27.156079079859705],[88.76039993592113,27.152701513499053],[88.75688487305861,27.148195131642094],[88.74929863867297,27.147440675660615],[88.74614742213302,27.144214904568155],[88.74789033632723,27.14379516113617]]]]}},{"type":"Feature","properties":{"id":"11-539","name":"Mangan","source_name":"Mangan","state_id":"11","source_agency":"Survey of India (SOI)","district_code":"226"},"geometry":{"type":"MultiPolygon","coordinates":[[[[88.80477373142378,27.415229508517978],[88.79711297422169,27.41649206376289],[88.78730249978827,27.421704021719517],[88.78241741233619,27.422842543723398],[88.78175866554052,27.42260639742203],[88.77332700969845,27.416598717660992],[88.76744905842854,27.41383073978667],[88.75321615398343,27.414820959178602],[88.73164410954331,27.419278105830823],[88.7184604225032,27.416538714594697],[88.71185454956631,27.411855951789498],[88.70017809026182,27.40173250335298],[88.69452604728846,27.398384206273203],[88.68647637128963,27.398196487827978],[88.67895693665221,27.400057134832092],[88.6748743733715,27.399998051786007],[88.66377905413198,27.393308066868816],[88.65873018729287,27.39110649135721],[88.64897525423774,27.391880527475085],[88.64081265297598,27.390901389793253],[88.63747406437125,27.38853916852803],[88.62676188064357,27.387293993128146],[88.61575415643908,27.387748738215162],[88.59966159700589,27.390749115746456],[88.5936676388467,27.39236924137173],[88.59068852601798,27.39630551112145],[88.58193615673162,27.39446262466602],[88.55479547759136,27.392361808528182],[88.54377689631157,27.394027046021456],[88.53374945319261,27.396622750669398],[88.52892613787631,27.396133583634757],[88.52318183304409,27.39711614343819],[88.51912406305365,27.394532779691648],[88.51375085562054,27.389502911304586],[88.5012423183721,27.382487695971076],[88.49118290254393,27.37865782993529],[88.48596547073986,27.37834967507277],[88.47848112614689,27.38103972526344],[88.47041717853479,27.385536911997583],[88.46390070590034,27.387451635521],[88.4536719620812,27.388525111245325],[88.44345821264149,27.3935042462324],[88.43657391477666,27.399855398619398],[88.43248121997568,27.404535549369026],[88.42692239178258,27.412784958257472],[88.4198558856146,27.418327387110637],[88.41655333631171,27.423831777161556],[88.41457344500122,27.42955085204242],[88.41423382715146,27.439377324216867],[88.41590264160956,27.446710053224997],[88.40886247004042,27.458197363401958],[88.4071585005258,27.46311643391432],[88.40729936109858,27.469867380592692],[88.40564855058703,27.475424096622202],[88.39837679350863,27.479203365960412],[88.37553532452102,27.497575835638056],[88.36501194654612,27.50992184106964],[88.36108137131917,27.517273548453975],[88.35519371556389,27.521468447026734],[88.34286867640782,27.526218951671108],[88.3285827052973,27.528016622892416],[88.31869358950163,27.526897950233142],[88.29121927946879,27.51886265117587],[88.2816318620992,27.512882750678877],[88.26347043477949,27.52565746943839],[88.24842224258575,27.531287144960213],[88.2417833958046,27.53465934516149],[88.23764305431077,27.54064368576377],[88.23194927845547,27.5571882791759],[88.21819877417275,27.57328792756676],[88.20940750681689,27.581429682182254],[88.16403485306307,27.59992980001442],[88.12739251905573,27.61122706521016],[88.11511317382788,27.61784579949467],[88.11697370883903,27.620169301004438],[88.1166132276465,27.624043437365458],[88.11983757254319,27.627560120755422],[88.11698386485503,27.62980585602044],[88.11844269864633,27.6328152315551],[88.11858000283847,27.634729951708053],[88.12062663067204,27.638431911965707],[88.12007573769738,27.640973029299115],[88.12067433647731,27.642333940441958],[88.12021197500191,27.64524778266357],[88.12177832419232,27.64626142791409],[88.12451919691694,27.64999772030335],[88.12871132671698,27.652160235816844],[88.13214553114797,27.656197954880607],[88.13602353825684,27.656629611932445],[88.13850236660014,27.658333932743815],[88.13915425890958,27.660367558695928],[88.14204181292035,27.66316733990496],[88.14370362230193,27.66373203933471],[88.14462669797834,27.66524899597298],[88.14520960187025,27.669023561707903],[88.14720995825604,27.674673777494778],[88.14667374561228,27.676740145378655],[88.14693765806369,27.67934236016621],[88.1491637655749,27.68389606348474],[88.15041039453125,27.68463467607146],[88.15100574724838,27.686658537305124],[88.15281452465084,27.688981444445155],[88.15415140044084,27.69180005120677],[88.15085909497569,27.69673249649656],[88.1508371854511,27.698533489390524],[88.14965341237252,27.69918460564624],[88.14872149182871,27.70178377165835],[88.14756873720088,27.702798814335132],[88.1490920177273,27.704875968470237],[88.1490265711651,27.70814609183179],[88.15280284757912,27.711715487080095],[88.15448702550364,27.716291462832196],[88.15537306830316,27.717353577286413],[88.15451088036346,27.72054305890572],[88.15439278184088,27.725702139722568],[88.15467846241314,27.730039445300857],[88.15555708347453,27.732109339798047],[88.156174471368,27.736110256620524],[88.15795439678524,27.73793559737959],[88.15848338043881,27.74057368645132],[88.16285474656198,27.739772070364726],[88.16593922950534,27.741039906218997],[88.16991000416195,27.741139602056382],[88.1744154521199,27.74310977587551],[88.1759193497761,27.74560534185516],[88.1783697132478,27.746184625672896],[88.17891724426345,27.749954664236473],[88.17742333841495,27.757097923116923],[88.17787577873885,27.758824076018453],[88.18107731125731,27.76125815492395],[88.18269590857386,27.763400173736233],[88.18365982045111,27.766699025996093],[88.18179207157644,27.769406074952922],[88.18220296283711,27.775773513960196],[88.18546445789941,27.777141673956233],[88.18725848061918,27.778700805319552],[88.18865299342029,27.78121637584532],[88.19529366458522,27.786260543021747],[88.19717192786814,27.791172327236026],[88.19397201896722,27.796412225762285],[88.19197344720385,27.796924357193607],[88.18869287573966,27.799416920003363],[88.18681212795778,27.802293717272352],[88.18626353828203,27.80466122234679],[88.18653865642794,27.807421212470647],[88.18548743441373,27.808587249309518],[88.1856589118087,27.81046253972183],[88.18106492840421,27.813714109649638],[88.18014905295455,27.814879630249198],[88.17408963367512,27.817374877788364],[88.17359118700568,27.82059546994953],[88.17536008321248,27.821533515252707],[88.1828440592563,27.823116666024696],[88.18800598510923,27.825456115527103],[88.1914432230469,27.829477266576614],[88.19254817574017,27.832961625469174],[88.19563321189722,27.835302403041617],[88.19796070178006,27.836146361866227],[88.19953494635055,27.83585978812493],[88.201821001691,27.836717395508238],[88.20279523033027,27.838797658735224],[88.20200592950982,27.84222436443005],[88.19860302201752,27.84532610265425],[88.19737585196104,27.848791355523268],[88.19762263629673,27.85133918108249],[88.19639332604865,27.85378726896008],[88.19415677105279,27.854834292391324],[88.18901002436864,27.854383918126462],[88.1855608193324,27.85653136592259],[88.1832064258729,27.857000508539624],[88.17895098877396,27.856481525767542],[88.17470362498531,27.861988402260376],[88.17250010927971,27.86362411304707],[88.16897954024896,27.864888563119827],[88.16659895449888,27.86700226267823],[88.16303441083235,27.86925167401016],[88.15780926494267,27.870659435968165],[88.15474704615237,27.870721412876772],[88.15312117528191,27.873034314787066],[88.14937463939724,27.875539169083776],[88.14899379717427,27.876405333973832],[88.14407902629144,27.877948762801335],[88.14006521647838,27.8774137004075],[88.13668526692231,27.881231508708957],[88.13501398393507,27.881619917395867],[88.13624297003261,27.884540222786402],[88.13793646774869,27.885644431468794],[88.1399027080313,27.889147967760536],[88.13725906173657,27.892316729007693],[88.13483342423704,27.896432731603763],[88.13166801359198,27.898166448378543],[88.1234068575281,27.907138017591443],[88.12190674852349,27.91170327833913],[88.119580894438,27.91600455584753],[88.11975140549438,27.918287403133334],[88.12124792320137,27.921969400588996],[88.12548589848645,27.92453446428392],[88.12934255305443,27.925021235459837],[88.13065354028905,27.925752036463297],[88.13049159289122,27.929366764102607],[88.13128694235614,27.931519288190476],[88.13344417900348,27.934472330648436],[88.1378625683617,27.937154476599744],[88.13559984759578,27.943990749233784],[88.1327469759677,27.947179705735667],[88.12939210069392,27.94931406316918],[88.13434062251625,27.951323441669786],[88.13775668228077,27.95507555470444],[88.14230665839652,27.96093818685484],[88.1452140294013,27.964084734857423],[88.14656123186137,27.962581308573835],[88.1531749364835,27.95782680630357],[88.1542972467132,27.95740319288553],[88.16389188492731,27.957684417179088],[88.16511235703457,27.955971911953647],[88.16807715909111,27.95386645746268],[88.17239384719126,27.951570404551394],[88.17907239942684,27.949188272532602],[88.18381629084985,27.9444322694113],[88.18793818895115,27.94293962215867],[88.19141278782031,27.9430284261692],[88.19533811382493,27.944159313527884],[88.20059041770615,27.941689603206054],[88.20640127013299,27.94166837395125],[88.20518642561346,27.946422100255912],[88.20493264028286,27.949413729214715],[88.20574156064086,27.95246437752338],[88.20556167334547,27.955710293172427],[88.20646017430285,27.959683461017544],[88.20796034982548,27.96165979576804],[88.21083503596711,27.96367586088978],[88.21274572108823,27.964274966788697],[88.21476223280804,27.9630554851446],[88.21817731113819,27.96199112353542],[88.22505343817798,27.9604237291819],[88.22915444907213,27.965897183963836],[88.23145853030698,27.967036807127343],[88.23717377025731,27.970847933131477],[88.2384154054696,27.965520108472102],[88.24049637893974,27.961232859487215],[88.24150510311799,27.957149729670565],[88.24257211376354,27.95526403778666],[88.24738886478346,27.94978887157214],[88.24877141163759,27.94543059664582],[88.25135364914931,27.94248547971745],[88.25321594848776,27.944805091356248],[88.25752938949277,27.946344115070183],[88.25994201811605,27.9464820565529],[88.26159953578163,27.94768320708052],[88.26470165235831,27.956075049208483],[88.26623608071269,27.95729979382052],[88.26818539925411,27.9571258093854],[88.27032412626792,27.95581622871379],[88.2739413605656,27.954502075631233],[88.2788016775337,27.95576241571224],[88.28055677938914,27.95705200481972],[88.28376702139232,27.963259799865433],[88.28603915957679,27.966262024502473],[88.290409406412,27.965700175073902],[88.29334022948285,27.965821698721193],[88.29753370952248,27.967226836017677],[88.30232153495831,27.966756985283414],[88.30346903572179,27.965807470321504],[88.30820631076979,27.967109164042398],[88.30957435721484,27.967934453641018],[88.31116654453011,27.970293930121617],[88.31320408391086,27.970842414592358],[88.31541375228046,27.976512839888123],[88.31693922822834,27.978390107854104],[88.31870745548967,27.97882602971161],[88.32596618837965,27.97623933464],[88.32928481665107,27.973410706329155],[88.33039713697816,27.97318263715365],[88.33192689882395,27.974775357899507],[88.33500994670807,27.98148371847531],[88.33672166507763,27.984150559804164],[88.3392072256087,27.984419291665898],[88.34133527941829,27.98555916187873],[88.3456563860925,27.98501700381765],[88.35013922120754,27.988699381785796],[88.35226590726548,27.98994847131394],[88.35524731803889,27.990025556760738],[88.35994778274045,27.988808937429955],[88.36751184813153,27.989024255105424],[88.37114790475037,27.98987407443538],[88.37177179017851,27.99108437070421],[88.37459604791336,27.990065330368964],[88.37701431305915,27.989873201053186],[88.37900170547559,27.98523465102144],[88.38090516503149,27.983067585871574],[88.38430172887759,27.981638928644912],[88.38617795727833,27.98141881966243],[88.38750330014032,27.97939514076076],[88.3891481429541,27.978738209126174],[88.3956273306197,27.978940219721533],[88.39906563415798,27.978036793869755],[88.40060325797442,27.980919791725842],[88.40378098252462,27.982835952224868],[88.40749161431286,27.98184776431677],[88.41077464145056,27.98328354956206],[88.41148131204145,27.985676091156705],[88.4108322565881,27.988075879623846],[88.41255062271685,27.995796116426025],[88.41470229832376,27.998882455470454],[88.41823211012803,28.000820627008444],[88.42379047428555,28.001184276728395],[88.42593736318854,28.00270645680614],[88.42881751280986,28.0066837834747],[88.4313965760137,28.008304752529327],[88.4347634248979,28.007991515089827],[88.44375112309766,28.009378231948915],[88.44583857784023,28.010621946770566],[88.45249482254495,28.012856130458506],[88.45638071982553,28.0149213846062],[88.46079074644047,28.014548669364626],[88.46238204724912,28.016153458437522],[88.46709541093031,28.01663888984936],[88.47262790898623,28.02660926993824],[88.47405878195275,28.0329592499872],[88.47852997010101,28.038468002394097],[88.47968825198251,28.04163878149375],[88.482473749268,28.043726835197486],[88.48805029051458,28.04448223749956],[88.4919470441679,28.048867707672414],[88.49448849083436,28.05311705129485],[88.49654578072594,28.05389926815039],[88.49796698922931,28.052366730077622],[88.50530334186885,28.04705871125645],[88.50962080229084,28.041194326005165],[88.51967518293368,28.04355382923859],[88.52184871756232,28.036289904376904],[88.52351398077063,28.034985787529585],[88.5250284231703,28.03546962947392],[88.52719306583214,28.037692635418598],[88.52930263201952,28.03669114341549],[88.53270667865674,28.03331653414958],[88.53959251657679,28.033058293703732],[88.5436395627879,28.033254575660997],[88.54587033527743,28.034057734887604],[88.55108727302452,28.037986337729954],[88.55107024473932,28.039349583014896],[88.54897472785589,28.0430783396906],[88.54872244702864,28.04688568327232],[88.5493134340981,28.049273801732443],[88.55174152615427,28.05478631251946],[88.55191902995723,28.05726677659454],[88.55322686632843,28.061511813258857],[88.55361859358392,28.066046072985333],[88.55514081143166,28.07108846619121],[88.55601876314529,28.07258826198025],[88.55598764173199,28.07508747827442],[88.55254617553238,28.081416115699597],[88.5597046340982,28.083928929473267],[88.56160516986463,28.085623285793464],[88.5639817189666,28.088969642456483],[88.5662709026961,28.090326877498025],[88.57070962543679,28.08879359849772],[88.57414846520568,28.085219680515017],[88.57701397454872,28.083983419796443],[88.58147773223025,28.082989719099768],[88.58400381657523,28.083312240975946],[88.58787860472812,28.08728326735539],[88.59032418082944,28.08896826175938],[88.5921780978054,28.089270010311278],[88.5974227222002,28.088595719358214],[88.60258817870285,28.08917023214073],[88.60244743512325,28.092875506662427],[88.60520650003002,28.097561808787592],[88.60773024400599,28.098364671227042],[88.61263844797759,28.099064205929],[88.61934447823002,28.09807624983819],[88.61933693380716,28.101399320122763],[88.61865787698343,28.103281747449724],[88.61771288015952,28.11000434396835],[88.61744473870056,28.11502909538664],[88.61770033554444,28.11777233599066],[88.61579249971892,28.11925977292743],[88.6092250994252,28.121938817476586],[88.60842649031804,28.12308158135158],[88.60996104639744,28.12869131545954],[88.62402355480764,28.126181779028723],[88.62873785832448,28.124422144024347],[88.63435337917977,28.119574840847598],[88.6376577097453,28.11508941248889],[88.6444181425709,28.101291218150195],[88.64595326800739,28.098749069115303],[88.65081222190784,28.096819612740326],[88.65440865020895,28.094651254240095],[88.65640436897591,28.09241141992935],[88.65686417425226,28.090043957967527],[88.66135261736997,28.0896445344887],[88.66433854955095,28.087414282063246],[88.6655426227487,28.084624661325517],[88.6651585063929,28.082643490326753],[88.66639588851592,28.07978197571211],[88.66668232886168,28.076103441344056],[88.67206385429179,28.072340963688106],[88.67843749590145,28.071459917681516],[88.68024502674496,28.07566249969008],[88.68357436757663,28.077727715144565],[88.68681082750368,28.077944247369707],[88.69343870931706,28.07762781222979],[88.69578249233213,28.076176119230695],[88.70325214231589,28.07625645453267],[88.70847729570495,28.07765928641394],[88.71178531146406,28.07729846830813],[88.71494063525263,28.076304631083424],[88.71843962336085,28.074580313598815],[88.72042078120734,28.074331174367902],[88.73485236429323,28.07434606881398],[88.74341077943072,28.075155653213535],[88.74709703877814,28.07604151658912],[88.7562864411224,28.075973173058255],[88.75852281103339,28.074295791177086],[88.76565219812281,28.070465626110558],[88.76955542578504,28.067266920140984],[88.77415273088776,28.062304130593432],[88.77760442444941,28.054122929039895],[88.78296564512394,28.054145963170303],[88.7846728030668,28.053502879504798],[88.78827268016724,28.049914510220095],[88.79288149410297,28.04863987608891],[88.79385371734304,28.04340071582382],[88.79546472814476,28.042916319790983],[88.79757549737779,28.040943263954336],[88.8016908670093,28.034915420669012],[88.80307391748599,28.03180549861397],[88.80587947650288,28.02915943792356],[88.80777314674235,28.028428405649795],[88.81359480892395,28.022436593855737],[88.81687511328934,28.02067620622947],[88.82015481651949,28.02147149349807],[88.82350296071107,28.020548340201504],[88.83029150412622,28.01711932264916],[88.83468836355303,28.015797123028158],[88.8362783274119,28.0148145262901],[88.83779385341609,28.00853884334488],[88.8379764031987,28.000488434653498],[88.83927801224368,27.997739343620317],[88.84290221255382,27.994601378899144],[88.84370558061855,27.9932506261491],[88.84370892470605,27.987799766008173],[88.84317253934705,27.985375443610636],[88.84154385149904,27.982625877102944],[88.8418581651897,27.97921303847317],[88.84299306632579,27.97526380587766],[88.84094848630852,27.965702879546825],[88.84239570112234,27.963633384689956],[88.84234275239785,27.958724802843502],[88.84292385338756,27.956648481436947],[88.84288598583967,27.952780439453427],[88.84177188411617,27.94955985981637],[88.8416883099148,27.94517121031749],[88.84068674724173,27.943444315459047],[88.83893399712986,27.942978132167077],[88.83921196109218,27.940650606036563],[88.83764760503418,27.936634761020205],[88.83762146622976,27.931613192920413],[88.83693675606715,27.92878043494606],[88.84202875966453,27.928911051804086],[88.84690079980052,27.928112396156482],[88.85265375231108,27.92578236843903],[88.86040736888877,27.927154489046032],[88.86301490359634,27.923533016274106],[88.86331138254504,27.921861508624186],[88.86529347207163,27.919682762886538],[88.87001863436221,27.9156024601324],[88.86935032416531,27.913629471696918],[88.87014804355346,27.910152262028532],[88.86917996763529,27.90758886834209],[88.86953185722811,27.90544275020245],[88.87217022735729,27.90118796321346],[88.87181426992146,27.89851616284478],[88.88173247074918,27.891738205080944],[88.88263280223487,27.890772409866873],[88.88221897812973,27.888801377619075],[88.88066163781725,27.88661807452565],[88.88077983774865,27.882276029054122],[88.87929068414893,27.880952761340023],[88.8780435322947,27.87829676580564],[88.87937284949415,27.867155390279155],[88.88287333794746,27.86311044313526],[88.88505179534279,27.861543580432407],[88.88732538584833,27.85800947023583],[88.88754332242144,27.855773935888905],[88.88467901227703,27.85265111922668],[88.88182037450319,27.850865056596852],[88.88129664397125,27.849752692942705],[88.88175623416917,27.84695129671704],[88.88050656007208,27.844589299669035],[88.87993312729537,27.840716883575205],[88.88207489071996,27.837634204246836],[88.88269251342317,27.83426847839987],[88.88028084153596,27.831038051243098],[88.8804513645202,27.829184476176664],[88.87505591739713,27.826677683731894],[88.87170786542235,27.82558887610962],[88.86393311454759,27.81972401099622],[88.8558058550183,27.815207594848903],[88.85756053524182,27.812699032428153],[88.85881536168837,27.80927042790176],[88.85810197492667,27.80419783656381],[88.8602256837411,27.802947546471696],[88.85979266167278,27.80041065310106],[88.86123305155601,27.798793112297705],[88.86145425972965,27.796985153544824],[88.85982334291438,27.794687798643896],[88.85957905020331,27.79106654475582],[88.85742858827986,27.78729475256781],[88.85566894010367,27.78517730662275],[88.85446260375437,27.78111872572626],[88.8546762720888,27.777500995616478],[88.85591243012742,27.77076947779819],[88.85386241368472,27.769758167104776],[88.85327863487989,27.764482827841874],[88.85448892513263,27.76295400449782],[88.85420448352848,27.758269138851958],[88.85484725016649,27.754971399560674],[88.8562750651485,27.751996463922996],[88.85839196559785,27.75393575808029],[88.85989255872677,27.753902163720298],[88.86161006480035,27.75249031555327],[88.86409005960239,27.746661202278204],[88.86360074874987,27.744250101900217],[88.86514115695459,27.742248033755878],[88.86321201749168,27.740596769863057],[88.86086991855187,27.739587382777565],[88.85885159565929,27.736949720850408],[88.8586633479017,27.73378006896699],[88.8566858803423,27.731672039860815],[88.85742613157736,27.72651694828039],[88.85579452347132,27.725214036997222],[88.85559206889069,27.722427479043272],[88.85423565093878,27.720119688162356],[88.85582576397887,27.718581522562925],[88.85630406405797,27.716548355560967],[88.8546971274054,27.716347025002506],[88.852629151683,27.714489961607143],[88.84980132832571,27.7143891787837],[88.84670437251472,27.712901594305485],[88.83979055758981,27.71122650581838],[88.83798351635505,27.70628731405739],[88.83791492453152,27.70430421813269],[88.83889596115567,27.70343083718751],[88.84197317978906,27.703313516275877],[88.84359553827665,27.700163640211237],[88.84603813304388,27.698074407569422],[88.84768118231435,27.692816193679487],[88.84513584772881,27.68924016085207],[88.84234026529366,27.684183032471974],[88.84242911810831,27.68058046344284],[88.84438258644103,27.679651754673852],[88.84456710375581,27.677088427659633],[88.8475880376231,27.675444267345622],[88.84781304123993,27.67056821453218],[88.84838624642671,27.668007915923127],[88.84657894469677,27.664909681337555],[88.84249957173539,27.659275920780296],[88.83912945512378,27.656983468690367],[88.83824869465971,27.654930942009084],[88.83571716048979,27.65362061304844],[88.83550743994338,27.650344245799282],[88.83384982927889,27.649514661399657],[88.83152829220933,27.64666387621982],[88.82928930564205,27.646158250617717],[88.82794784807787,27.644259325478167],[88.82205101480565,27.643787281813502],[88.81946251880977,27.646394275044596],[88.81602717567169,27.647121903304303],[88.8141310759271,27.642448976306568],[88.81157116942857,27.63877769572709],[88.81118763390671,27.636540179262276],[88.80868251981681,27.634442809243478],[88.80852215625481,27.631121350676995],[88.80651571690966,27.628650333930125],[88.80490778240507,27.623507505302914],[88.80801443562386,27.62203789841864],[88.81143559847081,27.619170309728364],[88.81148505686294,27.61778598884206],[88.80822648365238,27.613400830080913],[88.80632931001298,27.608916512640533],[88.80744459131603,27.605227710437067],[88.80907516972373,27.60295928377663],[88.80753575335336,27.601499103149123],[88.80666725292294,27.598344909881675],[88.80472989821784,27.594363743755363],[88.80249251908674,27.593810488776388],[88.79468745862373,27.590253251392227],[88.79142375872966,27.586497023058755],[88.78836708706034,27.584929704726935],[88.79082572865968,27.581157640072938],[88.7914355220092,27.576851027828887],[88.79118942814782,27.57503936895493],[88.78801336740763,27.57479286492467],[88.78356623346951,27.57282054096009],[88.78138920318511,27.569922788127688],[88.77813294236736,27.570603829787572],[88.7700031658299,27.57125975746674],[88.76714307029972,27.569536264807805],[88.76431539897465,27.566428212374255],[88.76416186812241,27.564255341936768],[88.76731092275186,27.562015837029737],[88.76874398067854,27.560076595300536],[88.77117834260835,27.558617810541186],[88.77393054880451,27.553794103906768],[88.77301042465103,27.548955398737547],[88.7735444005415,27.546866946670868],[88.77517564970671,27.544520139168373],[88.77309672995112,27.540757531772847],[88.77420904438517,27.539067310051564],[88.77645290482467,27.53384584467263],[88.7782755991887,27.53173662836759],[88.78331556744753,27.529182021134606],[88.78481858765825,27.53062649189291],[88.7867967976107,27.530454842846897],[88.79095192053674,27.531558416487766],[88.7924327599996,27.53004418649454],[88.79291383923693,27.527907998864563],[88.79220843716938,27.526488747379705],[88.79278668263464,27.52484622025349],[88.79153000048376,27.52347466869817],[88.7883842789465,27.522142590485927],[88.78902964056134,27.51778891503454],[88.79058582146959,27.515803221281864],[88.78976613631262,27.513152721361873],[88.78752435879464,27.51148186455395],[88.78563439409388,27.50654067455142],[88.78703477257466,27.50425471878358],[88.78651765198966,27.50307019401731],[88.78341653328171,27.500904311080117],[88.78331585188418,27.495494081937572],[88.78498034541788,27.492860557104684],[88.78656846648569,27.48816734061824],[88.78289713878094,27.48294027871147],[88.78063559641826,27.48076438988037],[88.78342277109363,27.477050750919464],[88.78371544731574,27.474754445655716],[88.78065744852387,27.47283340298705],[88.77797176663837,27.47035977574723],[88.7770423347776,27.468140439942648],[88.77815849640858,27.466526462408474],[88.77976890767877,27.462029534584243],[88.78289945973805,27.459310132163235],[88.78442078115812,27.458647293236776],[88.78318966451802,27.45607685045123],[88.78350615141929,27.451492846264426],[88.78253518622623,27.449747091229987],[88.78431979501902,27.448416417042456],[88.78929445565664,27.446812503408513],[88.79254553102845,27.446545169513],[88.79634040259526,27.447208520477755],[88.79450334232918,27.44553313728997],[88.79429297001423,27.440477559841835],[88.79165785596422,27.438432727965306],[88.79472152234842,27.4318275208864],[88.79515618563981,27.428852489357297],[88.79641512124955,27.427237522027355],[88.80006139212945,27.426172549190095],[88.8005157608078,27.423096797752443],[88.80220195779599,27.422430323614673],[88.80787897766172,27.42368927186876],[88.80904198727144,27.423402959623214],[88.80738362596438,27.42134867051075],[88.80628145891957,27.417849618858813],[88.80477373142378,27.415229508517978]]]]}},{"type":"Feature","properties":{"id":"11-540","name":"Namchi","source_name":"Namchi","state_id":"11","source_agency":"Survey of India (SOI)","district_code":"227"},"geometry":{"type":"MultiPolygon","coordinates":[[[[88.48596547073986,27.37834967507277],[88.48100844213687,27.366319432129316],[88.48025050591849,27.360437054667496],[88.48171231805642,27.352617343076584],[88.48823292819438,27.34247704109594],[88.4862335727105,27.33362848180901],[88.48261258991418,27.328718229609883],[88.47392071970756,27.323751547441326],[88.46699797497989,27.321882348983944],[88.46169146905478,27.317611072562592],[88.45444107929978,27.315310080656488],[88.45178963050938,27.305913763282575],[88.44694296815983,27.30087626953071],[88.44821559349218,27.295970747233866],[88.44253530549044,27.281197261446277],[88.44151611056448,27.27391988997923],[88.44342841219557,27.266499104805224],[88.44691664919338,27.26122601053694],[88.45887094327794,27.255944648715303],[88.46464527493866,27.25052521409099],[88.4752506201644,27.247413951576263],[88.48078664874114,27.246724599642143],[88.49070384129496,27.23952965612017],[88.4945037172828,27.230523815236715],[88.49221197799422,27.218467883664694],[88.49100916073601,27.202325283518967],[88.49675704134818,27.19329203560818],[88.50368027916898,27.185134053461802],[88.52539038930048,27.178191348377513],[88.52509997689238,27.175044606473836],[88.52980652029768,27.17032292196981],[88.5256533039315,27.170218018608228],[88.52531194956481,27.168141983534188],[88.52721444003438,27.1662159390986],[88.53198767394915,27.16450247724321],[88.5334255855341,27.163241412283064],[88.532758946253,27.162366094489517],[88.52807034411066,27.159250622999675],[88.52692737476171,27.157420571028556],[88.52691309696334,27.155690450037337],[88.53048051616872,27.154149388461583],[88.5304424337887,27.14916484486181],[88.52915455202881,27.147700717500907],[88.52450629665857,27.148360826384852],[88.51860857094545,27.146721431215973],[88.51540703201286,27.143990160401575],[88.51421068926132,27.139905461899705],[88.51135326751164,27.138014873585746],[88.50929052461802,27.13597230478045],[88.50449688979253,27.134427410199358],[88.50219530740542,27.13145728641329],[88.49820199728194,27.130437182561977],[88.49698616280405,27.129456158961567],[88.49667451179157,27.126985119396085],[88.49810200390182,27.123950314397664],[88.49613306174868,27.122158672168926],[88.49257570221583,27.122302531938814],[88.48956563642129,27.12357980447311],[88.48619502320452,27.123791940484793],[88.48496431551324,27.122710207999226],[88.48427731498013,27.118891937195034],[88.48299154596715,27.118262501039915],[88.47929510508054,27.121062619608995],[88.47729342054984,27.12132754450883],[88.47500090936222,27.120516567224282],[88.47087793801161,27.116070351594225],[88.46631763751269,27.112198726868012],[88.46465920687824,27.108061118289505],[88.46436038097536,27.100864378922704],[88.45973070019679,27.09537101390425],[88.45873047478783,27.089592032983052],[88.45624033509935,27.08735971436334],[88.45429734350773,27.08676445625454],[88.45127140857959,27.084811398723936],[88.44525736223513,27.08242110216883],[88.43711356021504,27.082310538080897],[88.43200983379842,27.080054576122542],[88.4306880412792,27.07936365344557],[88.42300099565661,27.081465234961016],[88.41294605394347,27.08623432740894],[88.40718410247358,27.08736659004399],[88.39709455338183,27.088545688552962],[88.38923506399547,27.091239394897148],[88.3819179871817,27.09435950937443],[88.37367736836424,27.094347461726652],[88.36913382677675,27.094860976548453],[88.36289235465561,27.09428159535866],[88.35665100065735,27.095253316408648],[88.3555046943441,27.096736690269708],[88.35506304939082,27.099305837182573],[88.35010151535377,27.09956939580547],[88.3458948754213,27.103618126982244],[88.34372485737718,27.107742794665846],[88.34192022106598,27.10965904969394],[88.34011603688887,27.110028744176464],[88.33679929634245,27.109113633948247],[88.33364432484301,27.10601370601451],[88.32898719669056,27.1063375136384],[88.32689152641747,27.105449584726134],[88.3244497411343,27.10539473638322],[88.32309978790246,27.109563119746323],[88.32172740630348,27.111914370591208],[88.3215424440956,27.116822016590397],[88.31747331869425,27.119859052698864],[88.31678331387822,27.12171841570385],[88.31662495979063,27.125552043766465],[88.31353991333476,27.126502514345464],[88.30876060873322,27.126045958788975],[88.30204202862019,27.12885882623967],[88.29843437712707,27.12813779187858],[88.29523278135464,27.12584860642883],[88.29024607552027,27.127386603257985],[88.28503627101183,27.127021294131254],[88.28322892618588,27.12738807147213],[88.28293338757734,27.13077989359894],[88.280052506064,27.142533635758742],[88.281489157376,27.14450630422746],[88.28215823842646,27.148811704883546],[88.2845738266092,27.150723671942153],[88.28697815854436,27.15105729641523],[88.29038425078984,27.15417823988315],[88.29412643295358,27.16325591540657],[88.29641228743606,27.164286147635544],[88.30001438663635,27.169044339855876],[88.30080718489499,27.17365150217663],[88.3044020711991,27.17642143695877],[88.30948306175695,27.17807723278082],[88.31210397877096,27.181680917980874],[88.31961455246098,27.185592320001962],[88.32859807297018,27.187565870440032],[88.3306280581834,27.1888393218756],[88.3288783058815,27.191877742096956],[88.33432810213122,27.19451296649452],[88.33171117615991,27.198747170102486],[88.33178984408792,27.201256137387357],[88.32900709819134,27.204478068983835],[88.32301467321501,27.220504253998037],[88.3199085560662,27.223204588672647],[88.31040527067697,27.224778985561088],[88.3076699716615,27.226083240603543],[88.30322883396425,27.23695876809324],[88.30553684902924,27.24610200529574],[88.30564931288136,27.256539191926237],[88.30397717978839,27.26093062467836],[88.29656392922912,27.266282800907142],[88.28936366680017,27.27315596689997],[88.28395563675673,27.275580586879958],[88.28107257558862,27.27820289795688],[88.27844065290161,27.281954051538037],[88.27907946492402,27.28606763773738],[88.28054182764554,27.28835932552197],[88.29029104387101,27.294684476983036],[88.29630182961724,27.29716860214963],[88.30608401560362,27.299415374628612],[88.30935582584137,27.302634345734706],[88.31099521407164,27.3058602051417],[88.3106660396539,27.315377553556498],[88.30874249030666,27.318666594453802],[88.30530102002372,27.3212474412187],[88.30024624329164,27.3232986107206],[88.29680900036024,27.326748135669348],[88.29806987487852,27.33093870120067],[88.30036250834311,27.334131418480407],[88.30494605397675,27.337599222571892],[88.3196497254859,27.34594943521729],[88.32272236661414,27.349312353299183],[88.32794574272206,27.36490406880525],[88.33063249279974,27.368733616266763],[88.33919848139091,27.372058863276255],[88.34930854929958,27.374022523500216],[88.35826214807668,27.378278810788697],[88.35738246378882,27.384349355156566],[88.35831642391868,27.389941746804425],[88.35758163191728,27.399276421482305],[88.35498197545888,27.402902397246553],[88.35096461515242,27.411462810669768],[88.34758364072036,27.41389981773259],[88.34331455702417,27.411271394160106],[88.33921881920458,27.406546863204998],[88.33862216851374,27.40649495085985],[88.3339535639744,27.410302617726266],[88.33164487481255,27.41664462726929],[88.33105939188029,27.41709544458767],[88.3251358184591,27.41741022876797],[88.31586776977703,27.415377609477016],[88.3062128479059,27.41676837283109],[88.30027091651003,27.414458860513196],[88.29568396701558,27.410565228003396],[88.28398983379441,27.405174559939233],[88.27895407458918,27.406093275784944],[88.27504247963975,27.411501250053238],[88.27452524727333,27.420027065529766],[88.26667874923731,27.46114047724024],[88.26654754493762,27.46248490618363],[88.2660869754661,27.4895105671434],[88.2682286153673,27.49769069271884],[88.27162934977015,27.503709300916693],[88.27617878913453,27.508909339935247],[88.2816318620992,27.512882750678877],[88.29121927946879,27.51886265117587],[88.31869358950163,27.526897950233142],[88.3285827052973,27.528016622892416],[88.34286867640782,27.526218951671108],[88.35519371556389,27.521468447026734],[88.36108137131917,27.517273548453975],[88.36501194654612,27.50992184106964],[88.37553532452102,27.497575835638056],[88.39837679350863,27.479203365960412],[88.40564855058703,27.475424096622202],[88.40729936109858,27.469867380592692],[88.4071585005258,27.46311643391432],[88.40886247004042,27.458197363401958],[88.41590264160956,27.446710053224997],[88.41423382715146,27.439377324216867],[88.41457344500122,27.42955085204242],[88.41655333631171,27.423831777161556],[88.4198558856146,27.418327387110637],[88.42692239178258,27.412784958257472],[88.43248121997568,27.404535549369026],[88.43657391477666,27.399855398619398],[88.44345821264149,27.3935042462324],[88.4536719620812,27.388525111245325],[88.46390070590034,27.387451635521],[88.47041717853479,27.385536911997583],[88.47848112614689,27.38103972526344],[88.48596547073986,27.37834967507277]]]]}},{"type":"Feature","properties":{"id":"11-541","name":"Gyalshing","source_name":"Gyalshing","state_id":"11","source_agency":"Survey of India (SOI)","district_code":"228"},"geometry":{"type":"MultiPolygon","coordinates":[[[[88.2816318620992,27.512882750678877],[88.27617878913453,27.508909339935247],[88.27162934977015,27.503709300916693],[88.2682286153673,27.49769069271884],[88.2660869754661,27.4895105671434],[88.26654754493762,27.46248490618363],[88.26667874923731,27.46114047724024],[88.27452524727333,27.420027065529766],[88.27504247963975,27.411501250053238],[88.27895407458918,27.406093275784944],[88.28398983379441,27.405174559939233],[88.29568396701558,27.410565228003396],[88.30027091651003,27.414458860513196],[88.3062128479059,27.41676837283109],[88.31586776977703,27.415377609477016],[88.3251358184591,27.41741022876797],[88.33105939188029,27.41709544458767],[88.33164487481255,27.41664462726929],[88.3339535639744,27.410302617726266],[88.33862216851374,27.40649495085985],[88.33921881920458,27.406546863204998],[88.34331455702417,27.411271394160106],[88.34758364072036,27.41389981773259],[88.35096461515242,27.411462810669768],[88.35498197545888,27.402902397246553],[88.35758163191728,27.399276421482305],[88.35831642391868,27.389941746804425],[88.35738246378882,27.384349355156566],[88.35826214807668,27.378278810788697],[88.34930854929958,27.374022523500216],[88.33919848139091,27.372058863276255],[88.33063249279974,27.368733616266763],[88.32794574272206,27.36490406880525],[88.32272236661414,27.349312353299183],[88.3196497254859,27.34594943521729],[88.30494605397675,27.337599222571892],[88.30036250834311,27.334131418480407],[88.29806987487852,27.33093870120067],[88.29680900036024,27.326748135669348],[88.30024624329164,27.3232986107206],[88.30530102002372,27.3212474412187],[88.30874249030666,27.318666594453802],[88.3106660396539,27.315377553556498],[88.31099521407164,27.3058602051417],[88.30935582584137,27.302634345734706],[88.30608401560362,27.299415374628612],[88.29630182961724,27.29716860214963],[88.29029104387101,27.294684476983036],[88.28054182764554,27.28835932552197],[88.27907946492402,27.28606763773738],[88.27844065290161,27.281954051538037],[88.28107257558862,27.27820289795688],[88.28395563675673,27.275580586879958],[88.28936366680017,27.27315596689997],[88.29656392922912,27.266282800907142],[88.30397717978839,27.26093062467836],[88.30564931288136,27.256539191926237],[88.30553684902924,27.24610200529574],[88.30322883396425,27.23695876809324],[88.3076699716615,27.226083240603543],[88.31040527067697,27.224778985561088],[88.3199085560662,27.223204588672647],[88.32301467321501,27.220504253998037],[88.32900709819134,27.204478068983835],[88.33178984408792,27.201256137387357],[88.33171117615991,27.198747170102486],[88.33432810213122,27.19451296649452],[88.3288783058815,27.191877742096956],[88.3306280581834,27.1888393218756],[88.32859807297018,27.187565870440032],[88.31961455246098,27.185592320001962],[88.31210397877096,27.181680917980874],[88.30948306175695,27.17807723278082],[88.3044020711991,27.17642143695877],[88.30080718489499,27.17365150217663],[88.30001438663635,27.169044339855876],[88.29641228743606,27.164286147635544],[88.29412643295358,27.16325591540657],[88.29038425078984,27.15417823988315],[88.28697815854436,27.15105729641523],[88.2845738266092,27.150723671942153],[88.28215823842646,27.148811704883546],[88.281489157376,27.14450630422746],[88.280052506064,27.142533635758742],[88.28293338757734,27.13077989359894],[88.28322892618588,27.12738807147213],[88.27875380803609,27.130449992180445],[88.27577323758273,27.129874955922254],[88.27066912977426,27.127315848912428],[88.26735622509605,27.12712767282405],[88.26533939266317,27.125871160453585],[88.25483195889895,27.12387289508867],[88.25119342739788,27.124243343656616],[88.24852402821361,27.125036998874094],[88.24263953500679,27.120332773685185],[88.23877998254642,27.118896314508916],[88.23224145167949,27.118419361714935],[88.2277006394622,27.12056724484429],[88.22466075529968,27.123722815092925],[88.2221397885596,27.124034143281538],[88.21857396941998,27.12859335595214],[88.2156088895181,27.131482423997284],[88.2140003812624,27.13174594777143],[88.21061279319507,27.129736415000032],[88.20951641098497,27.131068662470735],[88.20498103436323,27.133312193958147],[88.19978318431261,27.133127558767747],[88.19257256567386,27.133319171419252],[88.19067653171366,27.132327025441512],[88.18173156041141,27.13242893512879],[88.1789426839014,27.13020348739419],[88.17365519708915,27.128476086730558],[88.17214603055933,27.127099989184206],[88.17103307184222,27.124060058144142],[88.16513314464045,27.11764159649942],[88.16416430926584,27.115233924565086],[88.16239412046103,27.11348109337609],[88.15934393940552,27.112763746548218],[88.1588560561599,27.111753647305676],[88.1562143626323,27.110163018982266],[88.15365140109584,27.109689631921093],[88.15189113724944,27.11078433175395],[88.15128939588939,27.112454168292526],[88.14700068204567,27.11318732477149],[88.14469411982179,27.115221608724436],[88.13929796911403,27.115137344272252],[88.13730309061349,27.115788315989093],[88.13585586283536,27.120139263479462],[88.13371960989086,27.12170886260432],[88.12922985829155,27.121485305167592],[88.1237563194091,27.12331466794617],[88.12104216141495,27.123823060029757],[88.11147758922755,27.12994582582628],[88.1092531183497,27.130152578878317],[88.10180052025767,27.132814981576896],[88.0981462747527,27.13270858129217],[88.09619222135096,27.133361499811823],[88.08977270789302,27.141700464049713],[88.08843552914307,27.14459065551885],[88.08827297015813,27.146785269809246],[88.08895806345458,27.155926736906125],[88.08829660363477,27.159623418316666],[88.08666886447318,27.164504868669294],[88.0839927469546,27.16766710428486],[88.07822818273729,27.172495773760165],[88.07873845471484,27.176998415595953],[88.07795014395158,27.18059198122378],[88.07440046490179,27.18550545118597],[88.07363180408193,27.19101253766873],[88.07435851287927,27.192793197290666],[88.0785320137709,27.19579894924951],[88.07982731604508,27.19748008491781],[88.07984688363197,27.19942029188971],[88.07859070170745,27.201345579954634],[88.07362238156874,27.20439235097949],[88.06917116909696,27.20782074647449],[88.06763599265369,27.21040899291604],[88.06495289074704,27.21325365442468],[88.06179592783059,27.214386839243886],[88.05849878936768,27.214943441325676],[88.05303900339455,27.214979207416985],[88.0402137292733,27.220460260741632],[88.03660937552812,27.220974439011314],[88.0288268390252,27.220630006483034],[88.02528631879821,27.219441128927922],[88.01860534538488,27.21616485755729],[88.01644561483964,27.21418087547257],[88.01481515037922,27.211533536308057],[88.012746698718,27.21569799066057],[88.01263251139885,27.216909596782063],[88.0141673070453,27.219089859662787],[88.01452672724382,27.22109173484868],[88.01676306730207,27.223140299611135],[88.01715270063607,27.22549567054003],[88.01889943909262,27.22497907033149],[88.0187022177414,27.226319792795895],[88.01974770224169,27.231388040992474],[88.0192805904226,27.235675537343607],[88.02161935536523,27.23752392223152],[88.02463490344361,27.237623133007453],[88.02430695560011,27.24207517131972],[88.02678071694604,27.246037821211424],[88.02782605830244,27.249467228521144],[88.03074892173365,27.249921227929637],[88.03105040185865,27.251957852750316],[88.03029611312716,27.255252435807403],[88.03102062947401,27.258088843065668],[88.03080334366393,27.263640608475825],[88.0318821065136,27.264904106096864],[88.03119914910042,27.267930713717377],[88.0316052685453,27.269241564937698],[88.03043261474323,27.27194273178775],[88.03112335056807,27.276197435829257],[88.03280855786768,27.280376372307323],[88.03204663594303,27.286390214359827],[88.03418545935946,27.28758092431357],[88.03502639683298,27.28918031679795],[88.03679435133041,27.28974934923421],[88.03861561835765,27.291922513754493],[88.04123582346386,27.291135523805423],[88.0431490686565,27.291497457600713],[88.04475244474753,27.293694248378852],[88.04205519744666,27.30010772154895],[88.04086743505097,27.301368269500646],[88.04154443812467,27.30407841829824],[88.04488699227208,27.30964478847382],[88.04879443094799,27.312813928660557],[88.04894465512112,27.315034154007577],[88.04982302998368,27.315293931336964],[88.04937737754865,27.31828597965535],[88.0524702243891,27.323466347715975],[88.05230340145698,27.32422047132748],[88.05974352469802,27.32834355983809],[88.06006302499082,27.330054471192526],[88.06226192517666,27.333023665829312],[88.06464221644877,27.335067784087745],[88.06692781440972,27.335774756289496],[88.06575232418058,27.33753011724867],[88.06485825312164,27.34113874023229],[88.06368262460576,27.340804684329218],[88.06098184738474,27.34563700456915],[88.06148911633268,27.34726514398985],[88.05898300517069,27.351350170338957],[88.05762050248725,27.35621422833222],[88.05325463661481,27.35836126417474],[88.05072746885773,27.35843242697781],[88.04716034906505,27.362360697230503],[88.04725655723115,27.363499740717167],[88.0447177972464,27.366075617959687],[88.04446662407781,27.367433321971735],[88.04182848418147,27.370287286764096],[88.04171938755917,27.373510420157686],[88.04406205133094,27.3789937350473],[88.04484062991219,27.37986760836928],[88.04405901642279,27.38476611672737],[88.04511494716243,27.388266966817895],[88.04471707269438,27.389639024255764],[88.04564302851419,27.392110327339484],[88.04575536340344,27.395795753720982],[88.04842272407319,27.401030035005128],[88.04680413413644,27.405932286081693],[88.0496310596236,27.407245726001666],[88.05071357269907,27.412984658979635],[88.05286154748153,27.414671420388363],[88.05506746920925,27.41790656515236],[88.05690639291569,27.418860153057054],[88.05818548314627,27.418449867488103],[88.06100720462771,27.42131064368082],[88.06317370729478,27.422101172547837],[88.06778750462395,27.42533206840297],[88.07408930554121,27.42680783458461],[88.07314843343075,27.43078054970328],[88.0750568937654,27.433222687137924],[88.07332555103356,27.43384228242545],[88.06782075929293,27.438343750341616],[88.07009242908204,27.442133874346453],[88.07244146310028,27.44515845018843],[88.07067916451919,27.447475803264595],[88.06724970631298,27.44947554225377],[88.06702809617292,27.45153112157789],[88.0643505279311,27.453652876445584],[88.06580612183195,27.454535528839834],[88.06686076026142,27.457873004507128],[88.06556316541898,27.458885343653122],[88.06341176285201,27.4589585114666],[88.06052472004166,27.460772678010848],[88.0595301805191,27.46317652322414],[88.05713622768329,27.466906853189887],[88.05370456551105,27.4687829717636],[88.05157622467371,27.471393377449207],[88.04859267302744,27.472419673898997],[88.04782350611084,27.474090155390286],[88.04620916606504,27.47511837975703],[88.04413969217245,27.478100400549867],[88.04554038357914,27.481520963893974],[88.04416124114732,27.48417708578992],[88.04407642724769,27.4894123454087],[88.04508403497005,27.493493712894793],[88.04407637867841,27.49568511982802],[88.04662157082352,27.500949727767626],[88.04909108016157,27.501992749872695],[88.05058047996586,27.5039273890052],[88.05514625367817,27.50444262120908],[88.05732398315897,27.506748742843936],[88.05785567434786,27.50920081709029],[88.06149463609607,27.51156063622409],[88.06169631867769,27.51297295191247],[88.05809827084408,27.515716440701073],[88.0584166171838,27.520422348669634],[88.0593989158239,27.52067626931442],[88.06101223778141,27.524896425544235],[88.06626674522951,27.527223913551406],[88.06550028090588,27.529468076826493],[88.06098587027803,27.530477270367342],[88.05953585653045,27.531901663411688],[88.05865288202155,27.53482109958872],[88.05951553596948,27.53544053647873],[88.06120003043794,27.54029446596645],[88.06426249142791,27.54200792551336],[88.06501457778819,27.54425298379815],[88.0671577480847,27.54462540364587],[88.06880340728095,27.546255061627893],[88.06839733659362,27.552534456994014],[88.06963818705313,27.55545701580572],[88.07505836667193,27.55745935500354],[88.07861812543602,27.560408417537115],[88.08105384002991,27.565046607063877],[88.07918805035162,27.568402424118446],[88.07770848113081,27.568872507966596],[88.07548439629309,27.571567125981524],[88.07746733680877,27.575245455904387],[88.08055092395004,27.577618665808675],[88.07910711130366,27.579085885915564],[88.08060182837588,27.580340286997235],[88.08096581984437,27.582471618943448],[88.08439067195734,27.588345910277575],[88.08756446075975,27.591675375669823],[88.0902809795609,27.59564815623099],[88.09302078241656,27.59788251426331],[88.09986255312708,27.600065431280537],[88.10316132462073,27.60176312198552],[88.10623174030216,27.60262072564819],[88.10902220537916,27.60638973654929],[88.11281886087374,27.609002970587028],[88.11404125754557,27.611050092896992],[88.11256376987265,27.613982607239976],[88.11288737392621,27.615370513415268],[88.11511317382788,27.61784579949467],[88.12739251905573,27.61122706521016],[88.16403485306307,27.59992980001442],[88.20940750681689,27.581429682182254],[88.21819877417275,27.57328792756676],[88.23194927845547,27.5571882791759],[88.23764305431077,27.54064368576377],[88.2417833958046,27.53465934516149],[88.24842224258575,27.531287144960213],[88.26347043477949,27.52565746943839],[88.2816318620992,27.512882750678877]]]]}}]}
