{"type":"FeatureCollection","features":[{"type":"Feature","properties":{"id":"30-156","name":"North Goa","source_name":"North Goa","state_id":"30","source_agency":"Survey of India (SOI)","district_code":"551"},"geometry":{"type":"MultiPolygon","coordinates":[[[[74.11827029542644,15.652078149994368],[74.11958882640756,15.652444719268956],[74.12430754730683,15.65135942427162],[74.12727746332835,15.651194061026745],[74.135529386555,15.648442157598549],[74.13811094261955,15.650082308741728],[74.14110190305801,15.651168052346616],[74.14533900260473,15.651236767516076],[74.14908017011557,15.652043813003127],[74.15107264658126,15.651931760112797],[74.15428343478382,15.650026594428002],[74.1574508467854,15.654745257696927],[74.16440146111047,15.653568545525268],[74.16556810537563,15.65444320824728],[74.1649979639884,15.657977048679744],[74.16566348435906,15.6649615351056],[74.16650217171917,15.668763486632646],[74.16875696217343,15.672982871060393],[74.171597209027,15.67388980842882],[74.17442534703524,15.677120914579172],[74.17633586553347,15.680117824207473],[74.18095398000101,15.68221496764346],[74.18326883113544,15.682088935289027],[74.18578084132534,15.681086942041118],[74.19025238341904,15.680393916713292],[74.19090136893274,15.676470699616123],[74.18978718591372,15.675502112974256],[74.18608910113504,15.674569971187164],[74.18686813725667,15.667507638353719],[74.20257622202666,15.663209852740634],[74.20399498505542,15.663591278444137],[74.20173876371886,15.656408353090704],[74.20511288254487,15.651101431898269],[74.21407133229471,15.652557079766432],[74.21743860830223,15.652806432797373],[74.22206590950033,15.655689362396847],[74.22220444797834,15.656919387057364],[74.21782131899491,15.658381898415962],[74.2151321801127,15.662939483411535],[74.21756237937824,15.662380582979269],[74.21798343028259,15.66428494091971],[74.22376257988536,15.669047838745369],[74.2246201404517,15.666316949418981],[74.22654826490651,15.665967544359987],[74.22840288672607,15.664520827329067],[74.22977342448694,15.666446228650338],[74.23147809067947,15.666257122257292],[74.23333139412946,15.66803972374069],[74.2363481008063,15.668624343891569],[74.23708145326977,15.666346880871343],[74.23938564312029,15.664679519323668],[74.2385930832392,15.663417578528158],[74.24297447489751,15.662495247003037],[74.2448718794922,15.658259125811778],[74.25032192456082,15.657329774268996],[74.25034285689793,15.655931036637687],[74.25195954959798,15.654376110775765],[74.24767292364142,15.640283937284256],[74.24414207450035,15.626173227007754],[74.24823919722714,15.622967129086476],[74.25369327660601,15.626787185178522],[74.25839358074616,15.623518045667263],[74.25858711646453,15.620928979839906],[74.26119208089172,15.619366050803237],[74.26426931001859,15.615532978991665],[74.26184106544392,15.608442392568834],[74.25998682795127,15.606724192380016],[74.26078345643599,15.600730339895724],[74.25957640809409,15.596387566984435],[74.26023185232218,15.592700444368305],[74.24874613127761,15.580406741390934],[74.2505184452188,15.577433420359476],[74.24986307850949,15.576487769185736],[74.24528933277165,15.56726450569363],[74.24527743994004,15.56668027382581],[74.24919466324837,15.567904518559152],[74.25028776087143,15.56735668288822],[74.25517551339425,15.563288278585052],[74.25753054130226,15.561921368387297],[74.25946912566212,15.562003530656913],[74.26096858340993,15.564715396457961],[74.2631947284304,15.56391998977135],[74.26523038096488,15.558508613151051],[74.27165897393903,15.552491354374746],[74.2729926821337,15.550278617715795],[74.27720941762617,15.546975014184612],[74.2787067309971,15.544271557381682],[74.27962361890569,15.54004506669891],[74.28216833170586,15.533974438116555],[74.28263315947432,15.5314818955593],[74.2822336727711,15.52742725336551],[74.28081716326093,15.52521394004298],[74.27824690771787,15.522880645806186],[74.2784523602264,15.517540482235116],[74.27550511197555,15.513780939059352],[74.27384772489181,15.512310122318299],[74.2703315085309,15.510342036395608],[74.26311663819037,15.507347508293593],[74.26028264848617,15.506528609132557],[74.257022530484,15.504594434407249],[74.25379530636879,15.501784615813996],[74.25226249915077,15.499341619827437],[74.25088988670906,15.491764157197315],[74.25105929468997,15.491434886346989],[74.24770582814827,15.491368746961086],[74.24541520188014,15.488402364823415],[74.24414141446084,15.488632631635035],[74.24035300051105,15.48780452272864],[74.2378073654937,15.486405090324594],[74.23525276657355,15.485809990411875],[74.2312111268888,15.483968584342772],[74.23010078018126,15.482768010944602],[74.23004555540514,15.480837001621916],[74.22904498042675,15.482077892354141],[74.2257936158513,15.480089492673851],[74.2220722211074,15.475581051069895],[74.21905651539973,15.474267558863597],[74.21449802269429,15.473111664385419],[74.2115992754358,15.471125724012298],[74.20546675498481,15.469863077277639],[74.20301485356023,15.468133263278354],[74.20015807902115,15.467009250367521],[74.19784560416022,15.464226174597323],[74.19594411504241,15.463440574643576],[74.1916305549591,15.457136733326884],[74.18939319605477,15.455414304881122],[74.18953170985019,15.451502956335428],[74.18850519979087,15.448412192424934],[74.1889006109464,15.446993069232297],[74.18727798019496,15.44438153988678],[74.18543259298062,15.443121280661359],[74.18232937304758,15.442060182734158],[74.1806328577622,15.440352495608163],[74.17867505689168,15.437230688790592],[74.17037355414965,15.439525247501269],[74.16843055323099,15.443177833744846],[74.16317816841823,15.441253343298554],[74.16022868336769,15.442092857853721],[74.1577379478476,15.441319653086332],[74.15545014294202,15.439690726545061],[74.15152621036019,15.441796134735112],[74.15097114598203,15.439563648057105],[74.14796736243922,15.438484921801606],[74.14382079442483,15.439111537485557],[74.14013604125309,15.438326800374906],[74.13822722560622,15.438859822754964],[74.13690159002648,15.436356611090753],[74.13245761555302,15.434648585968787],[74.1304470883161,15.435807410794595],[74.12745359954843,15.436330119151796],[74.12414252122653,15.437803658989559],[74.12032113365414,15.434342128337716],[74.1190489114263,15.432236260388539],[74.11362498643966,15.430230575385929],[74.11068006440993,15.427831154260499],[74.1093242740065,15.418860039683098],[74.10379656664648,15.427163181401163],[74.09834643154097,15.424704255822366],[74.08817086053355,15.420781734990076],[74.08430879192665,15.420093908996183],[74.08251987284837,15.417677242642617],[74.07200824727448,15.412979634441626],[74.07137723161007,15.41250289128779],[74.07357530398639,15.410721591024554],[74.07419994375265,15.40863389333391],[74.0716521591506,15.404584542426415],[74.07391680957606,15.40106896830547],[74.07635044657425,15.400554794875532],[74.07708191322092,15.39942441609944],[74.07498020152205,15.395711044785918],[74.07607197301108,15.39159652636453],[74.07830616826823,15.392085522086404],[74.079951123073,15.395421723104683],[74.08084482901069,15.393622228821823],[74.08303451780574,15.391498357287627],[74.08370332857544,15.39004874661842],[74.08530319960119,15.390093109568447],[74.08685099905205,15.39147625516788],[74.08829376600433,15.390911120987742],[74.089537862798,15.384399293745448],[74.09055898675675,15.381737546944084],[74.0915757833169,15.383535191146416],[74.09578304272767,15.382616160799149],[74.09848386351237,15.378639837673534],[74.09788535802437,15.377503335073316],[74.09548164161446,15.379374683410578],[74.09439649850857,15.3792341186077],[74.09315746008204,15.375487855840507],[74.09390273451936,15.374177428138433],[74.09521166971801,15.375795160608163],[74.09712840106913,15.375431232725804],[74.09766637985159,15.374204529943453],[74.10074986871831,15.37332325452582],[74.10074670379707,15.370932150190287],[74.10193750938393,15.36939172025617],[74.10131333324225,15.365993495260906],[74.10426106833337,15.364978327455335],[74.10427894440066,15.362726144663867],[74.10221452353616,15.361910424651763],[74.10091695695692,15.358460399448331],[74.10396264282741,15.355279804222537],[74.10300660020545,15.35400741901642],[74.10004352222255,15.355103723263671],[74.0984766118172,15.35095478694322],[74.0993359196565,15.349982047071641],[74.1029635727924,15.349431536044548],[74.10483788206037,15.34669466058378],[74.10342507434919,15.345894065832468],[74.10200740245504,15.346696047408923],[74.0980756448248,15.34633058310554],[74.09578235783204,15.344890384895777],[74.09654492108294,15.343899707796593],[74.09581538675572,15.340768828609237],[74.09449961442172,15.338702580305686],[74.09518574685968,15.337878767559841],[74.09301374118729,15.335804612566777],[74.09270551326007,15.3338319524959],[74.0908965147124,15.33186255057238],[74.08909067847404,15.331529253212063],[74.08559756227795,15.328312355403535],[74.08357992400452,15.327430246658976],[74.08257449840308,15.32310457988867],[74.08320186535381,15.320716366687904],[74.08458893543731,15.318490822488886],[74.08765193188654,15.317103998429582],[74.08636798849584,15.314939065796983],[74.0870716213735,15.31212200206444],[74.08642495084138,15.31144581287658],[74.09048224832033,15.304290664368082],[74.0883793355565,15.302507769892182],[74.0879895724293,15.299756252327679],[74.09097997387558,15.298707490873822],[74.09116568560354,15.296698551654032],[74.09266681549703,15.295734522129933],[74.09521279100248,15.295744279485604],[74.09651029620872,15.293992389764488],[74.09978169266428,15.291225544078088],[74.10212736599362,15.28989276376418],[74.10513394300213,15.287168203594348],[74.10447365128535,15.285048685963487],[74.10581423605241,15.282689904083119],[74.10505585611867,15.282192734656396],[74.10161866904232,15.274898592845057],[74.10147035545047,15.272218810622272],[74.09935822554296,15.271097788924653],[74.0994184739331,15.269407297026993],[74.09532267656584,15.269103876576134],[74.09193838404926,15.268258015985868],[74.0900845389064,15.26914919956622],[74.08811170674902,15.272745084907703],[74.08668174090373,15.273576142651061],[74.08336406681514,15.277507956348119],[74.08183798883643,15.277500492535012],[74.07547777301006,15.27418567421644],[74.07361561671377,15.2756567061387],[74.07221001162915,15.279465042749816],[74.06952600511988,15.283242081131021],[74.06893831979457,15.286622157196756],[74.07043758215553,15.290312411668502],[74.07045082393212,15.292083874281358],[74.06836512991708,15.294487344959565],[74.06553021210345,15.296517650468738],[74.06139247152807,15.298292191503187],[74.05372249864128,15.299857342515448],[74.04494364991116,15.299293181912883],[74.04279769109088,15.300440026929532],[74.04153101278762,15.302073082005096],[74.03998138440069,15.306001718758852],[74.03882660144143,15.307092492683726],[74.03577894782232,15.306117063617647],[74.02882375806999,15.3025523551717],[74.02533855275938,15.301863541730123],[74.019402620972,15.302016032068659],[74.01546772358854,15.302501086532871],[74.01219448857569,15.304508430362192],[74.01136481984243,15.30633815543021],[74.01176289936873,15.309222683391575],[74.00935261943296,15.314819170039245],[74.00788087762065,15.322423993778616],[74.00458241421032,15.335676598489002],[74.00442008513839,15.337877389428911],[74.00591019243991,15.343161358260433],[74.00569358360917,15.346347315089155],[74.00486632611698,15.347717238950116],[74.00137899254933,15.34966477853485],[73.99892627416595,15.35218967994657],[73.99693151457667,15.352369664838136],[73.98978953809653,15.355037436570978],[73.98690550966721,15.357141682090575],[73.97992786183855,15.36495208587042],[73.9770257763517,15.367549879031978],[73.97377630561557,15.368595168711165],[73.97121258681632,15.368809602957235],[73.9650175389465,15.368463404404364],[73.95968093926193,15.370898767681782],[73.95689337356387,15.374614612605036],[73.95655229620547,15.377590552309549],[73.95454584828303,15.388883813216133],[73.9497416161314,15.40101109869124],[73.94649588124165,15.403486206134547],[73.94120589861451,15.404549405990169],[73.93635029827227,15.40479178606028],[73.92758835045063,15.406180417069697],[73.91731149818604,15.409289144038752],[73.9091893984873,15.410894451469124],[73.90704764092747,15.4110741932942],[73.90223365843413,15.41057068274832],[73.89802932251794,15.410551021679298],[73.8894257422582,15.412459779883898],[73.88441493512249,15.413913422285242],[73.87431273323553,15.417447031753571],[73.86389517634649,15.41779517060182],[73.86132330697474,15.418446122731163],[73.8574535302511,15.42041820693448],[73.85364944168441,15.422915369950198],[73.84582676091739,15.426234630093656],[73.83851392354262,15.428292316657092],[73.82576734992352,15.42973994719077],[73.81964066619737,15.429913919000668],[73.80881724347974,15.430797890888405],[73.80121143894446,15.432785511073435],[73.79490470611587,15.434780208414457],[73.78608679128037,15.438033105438253],[73.78863281631831,15.460141073129142],[73.78721689239914,15.46363963228502],[73.78881618140106,15.465081217973816],[73.79744069607302,15.462471027069201],[73.80001665600632,15.46303983973928],[73.80111905477442,15.464807358954674],[73.80279982947393,15.469467002528091],[73.80369596619029,15.473175595636189],[73.80511346033295,15.48103568017559],[73.80550116559385,15.485525583677463],[73.807087960365,15.489027328378777],[73.80510263648168,15.491702550062193],[73.8030072940392,15.493563113481718],[73.79670689076424,15.496849950623007],[73.79236291319873,15.498729018887472],[73.79009884952055,15.499091039249237],[73.78638328461813,15.497555616215823],[73.7872219038001,15.494723852569624],[73.78531907790206,15.492348322341355],[73.78202906066858,15.49186335719206],[73.77812269109397,15.491925434685143],[73.77614700484392,15.491152533302325],[73.77499160348437,15.489780343783927],[73.77052724058218,15.489879198773671],[73.76884832515553,15.490380684068105],[73.76523125515409,15.494469523851718],[73.76474114213919,15.497430849599057],[73.76742001023058,15.498348805415173],[73.7668148711469,15.502465457486561],[73.75909483368237,15.528594753485882],[73.74994832430393,15.55893132279451],[73.74783947740188,15.560698457468758],[73.74532406538906,15.559808215431698],[73.74185272556932,15.562444437905565],[73.74067457600196,15.567361178658448],[73.74127697359998,15.568507272091042],[73.74079777372053,15.570609317752679],[73.73801793048003,15.57878227416585],[73.7372238538081,15.57992846257765],[73.73523241117891,15.586458147100354],[73.7330172465686,15.58731662790038],[73.73212358526838,15.589518147025373],[73.73415810863033,15.592108408249274],[73.73418592187815,15.593575026509292],[73.73242450627953,15.597667334938668],[73.73289780174599,15.60095110998569],[73.7316911875141,15.606123584696359],[73.73288099822379,15.607514614656377],[73.73853804120363,15.607783751745481],[73.74123750396247,15.605251586070702],[73.74466965451386,15.60569049275192],[73.74259852279634,15.606998864705215],[73.74022404859753,15.612015402427419],[73.73650068064691,15.611445520684144],[73.73548278600384,15.611799427015413],[73.73265981556266,15.614884470278433],[73.72840263542298,15.622956710845834],[73.72646095072342,15.627717097584593],[73.72266398802562,15.629857066867554],[73.72143664931279,15.63140140497895],[73.71990831588863,15.63554840287038],[73.71811314703699,15.639290019912526],[73.7141845873414,15.650021314533046],[73.71304905495117,15.654103239352203],[73.71219415474009,15.659803891266822],[73.70977609735786,15.666010741104825],[73.70618626860144,15.671937395723393],[73.70455631061084,15.676457108501374],[73.70366390968562,15.682959727426525],[73.7007734552717,15.69026194806227],[73.69909625713154,15.690525692524341],[73.69725575795883,15.696837155878743],[73.69429692787415,15.699519512063416],[73.69363521244638,15.702662463652604],[73.69408912419972,15.704703268779445],[73.68937333781658,15.718005554490484],[73.68955765076389,15.719372201600784],[73.6917720583981,15.719981058882407],[73.6936843487762,15.717956980390678],[73.6991604898353,15.718000907616952],[73.70075769785063,15.718571972835834],[73.701214042521,15.720460864944817],[73.70395211307174,15.720900141309674],[73.71048719580368,15.724075709820324],[73.71330148278679,15.723442425690322],[73.71669554983099,15.724403324288765],[73.71994700848484,15.723771877413608],[73.72214316932302,15.720916613539279],[73.72459602371102,15.719681149196022],[73.7232840313921,15.717814213164964],[73.72493828204895,15.716770917150972],[73.72630731811337,15.717045469235636],[73.73185134117595,15.720495701990993],[73.73314459088323,15.725330225133845],[73.73484667538331,15.729515230351357],[73.73947540320638,15.734424659557659],[73.74242398418494,15.735651075154172],[73.74893444907416,15.73546299359888],[73.75415236395986,15.734544400540063],[73.75876506801033,15.734600952068158],[73.76554999846749,15.732943761714743],[73.7722585327726,15.729292610735218],[73.77341128566135,15.728185507496919],[73.77756084302797,15.728026855350706],[73.78024503130098,15.727369636192329],[73.78395580873806,15.725594665374446],[73.7853849586985,15.725495589537472],[73.78773538905929,15.727410208643256],[73.78916792128578,15.73036668875676],[73.78902251039436,15.734320318153845],[73.79251918696166,15.736073818006945],[73.79420286494634,15.736371820251172],[73.79728845487391,15.734604706984511],[73.80076487184068,15.735093865649828],[73.80260238928442,15.736501141040177],[73.80581002332686,15.737713363577383],[73.80830911707353,15.741863379938824],[73.81019231577774,15.742843418902245],[73.81693098581317,15.739267165130245],[73.82304318019021,15.7399022931933],[73.8251549704906,15.741587981343173],[73.82713183143592,15.747755041643655],[73.82970593922036,15.750740057359506],[73.83073476032459,15.752673442512956],[73.83097104474331,15.758325063243436],[73.82939771991832,15.763589339392752],[73.83099626167115,15.765497244442944],[73.8367028192613,15.766314563093662],[73.83847986574989,15.768859185635284],[73.83960265558018,15.774809406289393],[73.84199895502793,15.779668132372073],[73.84320104827911,15.78116903293908],[73.84449168001228,15.781279634547657],[73.84925769519562,15.78005757837542],[73.85081459517514,15.780149712372246],[73.85151687366931,15.781687915543332],[73.84674923428089,15.785801744202256],[73.84727776447123,15.787120429569137],[73.85004287185077,15.789201516888406],[73.85260380266811,15.79727721088677],[73.85610634697652,15.800825094090653],[73.85942216969966,15.79979355649865],[73.85930871632667,15.799004704219575],[73.86283555581505,15.798623347415745],[73.8671764365366,15.796570826140885],[73.86488112499545,15.790946869036734],[73.86565632490631,15.784728136582531],[73.8689219261293,15.783489765403727],[73.87336084455809,15.777127533498405],[73.87617300674893,15.77492864460981],[73.87951388744216,15.774077778665534],[73.87693472002714,15.76813973017459],[73.87518124844101,15.76795824944369],[73.8747031428892,15.766479222904463],[73.87633718701102,15.765156603094587],[73.87384180983935,15.761906904383473],[73.87198538319076,15.758733280188448],[73.87215617560398,15.755744891261172],[73.87367804819988,15.752307568437667],[73.87515505633596,15.75073549359183],[73.87775136169162,15.749251907773068],[73.88238247065718,15.749275228171042],[73.8844854647728,15.74990866505459],[73.89269334704505,15.748297948708016],[73.8940952049054,15.747018898425],[73.89652342526584,15.746843147732633],[73.89902242931858,15.744904487971032],[73.90137836944834,15.74594474431493],[73.90593153132198,15.74623619318046],[73.90685479018663,15.74824133671808],[73.90867786779404,15.747990166161683],[73.91265822657923,15.745911950419309],[73.91468818243546,15.744401433946765],[73.91721951553458,15.744922727389923],[73.92331659435693,15.744085120837756],[73.9284846838734,15.744430450811478],[73.93386808456731,15.744160026069919],[73.93861140972061,15.742712410651862],[73.93915085604897,15.740011224343277],[73.94053258565044,15.737651144264703],[73.94079716889145,15.733692750041767],[73.94145717536432,15.73239696652772],[73.94144143459933,15.728470492239001],[73.94294132109951,15.725425446033976],[73.94398501433515,15.724923928885135],[73.94576412874494,15.720255476671797],[73.94737371314248,15.719661950599292],[73.95040492904357,15.716447996682152],[73.95165275441812,15.716392500737262],[73.95171152370958,15.713523187607056],[73.94923678207468,15.710092996693147],[73.9472528145918,15.70958669587595],[73.94833266575762,15.707918784841235],[73.94985885550608,15.708214092785035],[73.94920029931589,15.70379271529266],[73.94816949580964,15.70155586709249],[73.94593541005572,15.699455704282123],[73.9436092595931,15.698495830809147],[73.94546562527096,15.697930530874373],[73.94668942908599,15.69854093391229],[73.95112254105467,15.697321935467476],[73.95259412913741,15.698969134574769],[73.95705967657554,15.699842000550088],[73.95795017672998,15.69842070660068],[73.9591898261818,15.699200448857784],[73.95930921754969,15.696996641354644],[73.96040995695235,15.694759662895699],[73.9626826655964,15.693212072778518],[73.96380912275394,15.691003250441687],[73.96371067629451,15.684859857961857],[73.96317650294388,15.680076371838235],[73.96328929445957,15.675659501912364],[73.96276694988134,15.67345576110602],[73.9631753160722,15.67108172664342],[73.9648682170954,15.670568953374998],[73.965679519329,15.666768061541719],[73.96768543477613,15.660021332446142],[73.96708581215039,15.65844465941283],[73.96239985653109,15.651457315023322],[73.96096821441712,15.64769045218691],[73.96081256533624,15.645185208072911],[73.96132408099201,15.641497354022176],[73.96720980073827,15.634980909263863],[73.96676327436231,15.63229514434713],[73.96754656140642,15.630251333784111],[73.96985830410792,15.628835858029236],[73.970663802844,15.627256212363273],[73.97324915692204,15.62757657250264],[73.97766956952469,15.62664897045102],[73.97886367493277,15.626975809439344],[73.98164302245875,15.623040822616169],[73.98547964714759,15.619477436420956],[73.99018573445868,15.61332692963278],[73.99068510763729,15.611638625023867],[73.99593096482764,15.610523474681711],[74.0035750897932,15.611586572878906],[74.02049705079163,15.606209723169316],[74.02155176068878,15.60643173690693],[74.02435656821294,15.609484322492813],[74.02640463346896,15.609885703679968],[74.02761633318337,15.616498752828916],[74.02970165862969,15.619722057299995],[74.03084052831349,15.622641233227787],[74.03214043047059,15.622474976535342],[74.03770065396898,15.623752562960522],[74.0490084687458,15.624179947533522],[74.0590917884237,15.62661736699263],[74.0610660047087,15.627978790313842],[74.06382043017828,15.628032342920871],[74.06704269548506,15.629488525916491],[74.06956377982566,15.62943532712611],[74.0700214026403,15.628352911215403],[74.07719534695042,15.631392852247227],[74.07867558463046,15.630977001414283],[74.08372179605767,15.634166406706017],[74.08373704092898,15.635531624326635],[74.08592201898804,15.637023391835324],[74.09187348588001,15.63978651208229],[74.09468825504965,15.641723691407417],[74.09820015941693,15.6404232340742],[74.10210207201334,15.642863324363361],[74.10393233891386,15.645032752631533],[74.10997955482752,15.647005662116925],[74.11304727750142,15.64617652129007],[74.11388147383336,15.648491674179123],[74.11577126626774,15.64907957359032],[74.11827029542644,15.652078149994368]]],[[[73.69666871103688,15.722788659532597],[73.69575438101192,15.721695714299392],[73.6917233332594,15.721768926474903],[73.68786341415156,15.723580916171493],[73.68702678126182,15.721238136310948],[73.68312542220949,15.720367252478674],[73.6833189775008,15.722061772782494],[73.67936398706483,15.722171592363818],[73.68107528095494,15.724642481701522],[73.67928792939006,15.725777250023013],[73.67507674476592,15.726806879483233],[73.67668192425121,15.72768922075948],[73.6767788561329,15.729140849658238],[73.68223848714138,15.729788539179864],[73.68829552709701,15.729296860161199],[73.69253491903915,15.727763904437257],[73.6937162247281,15.723009604896456],[73.69666871103688,15.722788659532597]]]]}},{"type":"Feature","properties":{"id":"30-157","name":"South Goa","source_name":"South Goa","state_id":"30","source_agency":"Survey of India (SOI)","district_code":"552"},"geometry":{"type":"MultiPolygon","coordinates":[[[[74.25105929468997,15.491434886346989],[74.25827343324254,15.482122839067067],[74.26452424100273,15.471389326843914],[74.26745450647714,15.464237376513825],[74.27203920534832,15.456259385602243],[74.27543017149581,15.449252350465791],[74.27627640665644,15.442980397902657],[74.27734453420727,15.440558879395176],[74.27674480002534,15.437933247619958],[74.27510244477867,15.436479301451856],[74.27687157015168,15.435275942009714],[74.26988679342124,15.426059068106724],[74.26879100150438,15.419111582183312],[74.27039476106158,15.41602652124028],[74.27430471972707,15.41365171868025],[74.27621719782118,15.408456065325598],[74.27827752255807,15.405759464916933],[74.27585195386636,15.391655030082267],[74.28292673575658,15.383044284321654],[74.29870179854989,15.381990463219708],[74.3004370645509,15.380451067369863],[74.30857606852874,15.37451657038823],[74.32317950523871,15.367743235570622],[74.31624105857026,15.362959285995712],[74.31601775420737,15.360036819873514],[74.31771407502782,15.354809332779055],[74.32181917811738,15.343658678489243],[74.3172216397121,15.33517422918064],[74.31768284839833,15.33398232213944],[74.31700222266831,15.329184364613562],[74.32440694957961,15.309977905281588],[74.33641578474449,15.295009757852727],[74.33071577013048,15.287573169742647],[74.32634218147875,15.283801091447918],[74.32054362588732,15.284768134999059],[74.31960479235154,15.283508588348939],[74.30793336071598,15.28339816050942],[74.29635188864934,15.288901268702027],[74.29430548031864,15.289251217771355],[74.29326411371255,15.284567119569482],[74.28763029400035,15.283949579639193],[74.28176412909004,15.2804819775642],[74.27630252277855,15.283596836166861],[74.27146454605159,15.281192679675954],[74.26999584574847,15.27689145128513],[74.2651322394834,15.268957326891481],[74.26248462153828,15.261879394626481],[74.26100076394106,15.260253375299209],[74.25109195265719,15.258918782588996],[74.25467258711811,15.254138898996398],[74.25220183987534,15.251069038350424],[74.25527921423213,15.247579885497538],[74.25589560208523,15.245094278817906],[74.2595676131879,15.241082544404083],[74.26857870468706,15.238938036220262],[74.28113267207156,15.236320808920498],[74.2866864758953,15.232881154154446],[74.29148659538674,15.233866469035652],[74.29698493287626,15.228155484244716],[74.30158959856365,15.224408598874984],[74.29983318079663,15.219994848170673],[74.30139026362393,15.217232375784585],[74.30262159145595,15.21795956204314],[74.30449570520915,15.216784594108463],[74.30424338341491,15.214094456354259],[74.3054680074252,15.212675831234723],[74.30557660781471,15.20987853080432],[74.30786835811948,15.20852196444096],[74.30991594983615,15.205261433764214],[74.30859619566081,15.201862540186747],[74.30913303428201,15.198477859624765],[74.31036801343276,15.194745507961219],[74.31303638451945,15.190272478036338],[74.31605722317602,15.18790996435127],[74.31693736158314,15.18632856712925],[74.31713200574715,15.183557989938107],[74.3141521785994,15.18054711659383],[74.31422063559427,15.17758170894007],[74.31153511177159,15.17540636937573],[74.30461605770695,15.163670207234508],[74.30146703647996,15.158982740261845],[74.29916471675266,15.156548046189839],[74.29563908547459,15.151307101160768],[74.29131829835455,15.148977124336142],[74.28825064314229,15.149518820679823],[74.2851099761153,15.14909712702267],[74.28450508518453,15.145472872908508],[74.28359931271825,15.145368190488876],[74.28355371191572,15.142941515063209],[74.28488583533324,15.139417418332597],[74.28516079813137,15.136791240040331],[74.28416962932513,15.132861103811877],[74.28446414655647,15.129146378986777],[74.2841435001884,15.125863292918806],[74.2847497793345,15.113931588830456],[74.28285041728088,15.113098426043486],[74.28253745681901,15.106780978690288],[74.27652440474469,15.105443694945246],[74.27450789965039,15.103351841607445],[74.27261728881719,15.097562286459516],[74.27513049974954,15.096062402800877],[74.27966379882763,15.08814201336864],[74.28038944150504,15.080883226415242],[74.28035489232103,15.074956035843025],[74.2806998320963,15.068882063652127],[74.28370074575207,15.066199541793667],[74.2860494822675,15.066015410866523],[74.28948197084671,15.064887972785206],[74.29010662392099,15.061485188739232],[74.28972187812315,15.058068935502314],[74.29022573303952,15.053677122053601],[74.29288235738318,15.050144898218914],[74.29458472929673,15.049237375072375],[74.29646606789363,15.041272049796607],[74.29353253100363,15.039160693312184],[74.28821369821895,15.036804160665543],[74.28323384557567,15.031572993516852],[74.28359211077768,15.024037394524612],[74.28335868048671,15.023573668178631],[74.2724234098758,15.014312456455464],[74.26906762786223,15.009177156614554],[74.26644430414338,15.006864647509436],[74.2666074386097,15.004183582762897],[74.2679219831017,15.002037294693286],[74.26439153562559,15.000825097988956],[74.2610261222823,15.0002106316108],[74.2594730618296,15.000573550171678],[74.25357542293519,14.998210651988524],[74.25183453551783,14.993590608357689],[74.2524678245453,14.992113209141054],[74.25542687591434,14.989105203878925],[74.25815255436324,14.987701455343451],[74.26429039108054,14.978589646270661],[74.26095851620413,14.976538307272271],[74.25901815317283,14.970131111722521],[74.25524170582098,14.970485455306848],[74.25452050258704,14.968822848373938],[74.25343048767948,14.963720864666636],[74.25371484823678,14.961183825360925],[74.2525621715011,14.959161018457415],[74.25017560044134,14.959928870325589],[74.2493107544349,14.959196185784728],[74.24751589466987,14.961988502550666],[74.24591683476315,14.961853793035356],[74.24424896618977,14.963404671965137],[74.24136763244104,14.964382184232491],[74.24048519937787,14.965819635519965],[74.23736224657773,14.96718594791253],[74.23492993934015,14.964661110431079],[74.23283332989081,14.964187580126437],[74.23218509129511,14.959994380644465],[74.23142191878813,14.9581646396538],[74.23171701263628,14.953433209629711],[74.2297727521296,14.950564661962574],[74.22726718330556,14.949869834175427],[74.22593355708551,14.950521144520115],[74.22398412524903,14.948984387106009],[74.21997375710686,14.948088083203192],[74.21751879768182,14.946019454184361],[74.21363386986171,14.947756275224542],[74.21160575633347,14.943608694570852],[74.21260364915737,14.940336685536792],[74.20909842001859,14.93812820174049],[74.20881443483893,14.93698960185939],[74.20626144400818,14.933095274889622],[74.20411794027355,14.928337941410236],[74.20151367777154,14.925789826626415],[74.19996632321782,14.926477243643552],[74.19167171841704,14.933072784855318],[74.19460292821606,14.937120798108028],[74.19472834803743,14.940008458142028],[74.19327449918974,14.942806054211783],[74.19122552314373,14.94507516062604],[74.18807940380266,14.946585307201428],[74.18524434181249,14.947363367875955],[74.18214468067423,14.949176169251004],[74.17832985898983,14.953741203600387],[74.17942764580742,14.957116570747427],[74.17385027949949,14.958649739066155],[74.17134462390833,14.957258426757704],[74.1668641494397,14.95859231775611],[74.16357787181659,14.958547734040991],[74.16269451945202,14.957269020668353],[74.15943118026894,14.954897165735],[74.15811289050824,14.953072315546054],[74.15830552879532,14.949375293947845],[74.15530255305652,14.946546900372766],[74.15499080460907,14.944156453731644],[74.15413085788805,14.943404632626269],[74.15544139486745,14.942267471723081],[74.1542048002225,14.94078543266915],[74.15446189654982,14.93949704532398],[74.15620774477323,14.938931584680876],[74.15620282270451,14.937301158364265],[74.15808452773894,14.932872366165029],[74.15851627563609,14.930292050732646],[74.15951075252885,14.928478169831235],[74.16254509008678,14.926951920995606],[74.16352050253839,14.923558110852067],[74.16588046027974,14.918659195550896],[74.16616353044721,14.916616624482504],[74.16208716460166,14.91220688780761],[74.1533882541141,14.916356514479233],[74.1533883726284,14.91720605960783],[74.14569268297036,14.91901441229819],[74.14368990288115,14.921518061367417],[74.14011628474262,14.923294238749417],[74.13501337803483,14.922160270747185],[74.12979445415895,14.925536045346426],[74.12419434173708,14.925391530289293],[74.12041008833606,14.919906342560422],[74.1215686460753,14.918039242953226],[74.11994675584556,14.916963739321691],[74.11458375779945,14.918423166785058],[74.10958808018972,14.917040158090655],[74.10844127435806,14.91402028632907],[74.10729260095317,14.914242780149063],[74.10476464855027,14.912968219435431],[74.10159962189815,14.915855500071968],[74.0944946779192,14.911055658312675],[74.09025047940231,14.903476839803991],[74.08815731635072,14.903499160538315],[74.0853145417978,14.900378148418799],[74.0835930083493,14.900770160509461],[74.08426427050505,14.902275276090506],[74.0834553004465,14.903761938365635],[74.08372454033545,14.905836383714778],[74.08110719893779,14.909076297137274],[74.07857412985724,14.909166230999032],[74.07498611177388,14.908388154350252],[74.0713288771821,14.906114036369345],[74.0701338613243,14.9081655736487],[74.06838628593482,14.908332330800764],[74.06760138244015,14.906167354828034],[74.06489581444009,14.908259129837084],[74.06087049834701,14.909143838344404],[74.05970337597275,14.911168204590151],[74.05711071981713,14.91339796565338],[74.05469692953871,14.913128149700965],[74.04797568330845,14.91410214379551],[74.04454478954013,14.916066904551496],[74.0427024214632,14.920798042891928],[74.04288769739941,14.922483783005022],[74.04606198441735,14.923488196227844],[74.04470382524447,14.925886212333756],[74.04570293247757,14.926773737933377],[74.04511169166135,14.929114526990642],[74.04718488551887,14.9290248488115],[74.04763522245506,14.930389836470397],[74.04635910722823,14.931972357850574],[74.0478250338055,14.932753549873674],[74.04624888026939,14.936120053525649],[74.04522680716632,14.939479648962212],[74.04349458104038,14.941868929275667],[74.04490669673726,14.943614929117478],[74.04453355113634,14.945873035253722],[74.04267142152868,14.946537182711628],[74.04284044178043,14.948352654089978],[74.04696032508997,14.95057171642204],[74.0477864020099,14.95433648821931],[74.0493860805906,14.957410492246197],[74.04804815127076,14.959779756704892],[74.04312191515348,14.972471124152026],[74.0400384236734,14.981496581499702],[74.03443979874629,14.981767505498842],[74.03499070862165,14.983357719570032],[74.03763594346735,14.984055381423177],[74.03788377215214,14.98528551999228],[74.03471586867612,14.992510544410958],[74.03342300682456,14.996557117535113],[74.03074902675542,14.998135133620506],[74.02758186596286,14.99679875387535],[74.02639907668289,14.998317578492784],[74.02918425336097,14.999879414446644],[74.02838872184746,15.00105247257237],[74.02531382543306,15.000443349129304],[74.02401765438918,15.001716322639687],[74.02433986051145,15.002808167996276],[74.02652809861921,15.003351839514073],[74.02604707677337,15.00638229731269],[74.02322587453642,15.009184224512966],[74.01940746036962,15.010690685415135],[74.01548844496752,15.010467762503342],[74.01476978693012,15.008931513785088],[74.01475648983966,15.006398622539715],[74.012279670879,15.006296273056382],[74.01096225385398,15.008050630587045],[74.0122139286954,15.010634724662435],[74.01145187545264,15.011961258295642],[74.00796919446069,15.01383000522436],[74.00671876559784,15.016170128291444],[74.00336175309481,15.015038315012468],[74.00151895619454,15.018385956107903],[73.99961636381066,15.017395873630342],[73.99772109250334,15.01995017271583],[73.9938604887368,15.016540459018577],[73.99266103212662,15.016676619734628],[73.98955203145506,15.018842800166261],[73.98986007138406,15.021120171187512],[73.98900610715572,15.023813854317517],[73.98608694881413,15.024823023125332],[73.98794255811335,15.02541620852811],[73.9865719934244,15.027864122673977],[73.99042673417289,15.028770456284823],[73.99112115386333,15.0316350861568],[73.98619934797226,15.04445346502429],[73.9840956084076,15.0486567320955],[73.98338294244142,15.048392530987897],[73.9814082883085,15.050963762585635],[73.97885121673838,15.051280672390519],[73.97492104410284,15.049027318426678],[73.97216225769388,15.051093666905023],[73.97217997433668,15.054234479814141],[73.97035439739395,15.05883559981821],[73.96888574560612,15.060829159279132],[73.96724452931312,15.061543739848059],[73.96758515560428,15.064458423036786],[73.96635777682822,15.065023782169883],[73.96341865868055,15.064713054491452],[73.96158726376066,15.06695064031315],[73.95989461050648,15.067141056215524],[73.95744923536336,15.069116725702335],[73.9546868375705,15.069162817463345],[73.95505048473065,15.07169628451544],[73.95400078377507,15.072979199937881],[73.94920744242897,15.074708902704659],[73.9437664936462,15.074240399797842],[73.94034782789268,15.074569999851573],[73.93650096677372,15.077062599592582],[73.93252469043523,15.077293918703289],[73.93143686243938,15.079228396032493],[73.93167002952444,15.082405309833817],[73.92731712044551,15.083599125971947],[73.92645055570583,15.085111310602311],[73.92377435055727,15.085585438502466],[73.92119365535497,15.084994753498469],[73.91867720092553,15.082959342552497],[73.91720637979259,15.082535772491564],[73.91604839400125,15.08345207759928],[73.91209944665987,15.082924398844725],[73.91286501730256,15.085248241192254],[73.91578671042875,15.086578726748192],[73.91672838382684,15.08770215828156],[73.9220521049102,15.090820315458972],[73.924439491477,15.092970905120273],[73.92642088026618,15.095878913868253],[73.92629484449284,15.098717719112862],[73.92519998710155,15.103481045792078],[73.92292096799378,15.106286428655906],[73.9185717606957,15.106020395070852],[73.91797935547153,15.107034783218477],[73.91935255461486,15.107794734050831],[73.92581372754783,15.10955340803738],[73.92970472646688,15.111405136228145],[73.93301887698802,15.112267634726104],[73.93559502349665,15.111960317802167],[73.93647301471513,15.112774046931765],[73.93678942501731,15.115243707117177],[73.93791028276515,15.116922120399522],[73.94058045759292,15.117210737915107],[73.94105118199262,15.119921252351595],[73.93966310352214,15.127057685714833],[73.9391223210373,15.128265721403913],[73.93617159525742,15.131076945834275],[73.93585923276507,15.13210115257188],[73.94220808336519,15.13549097824302],[73.94585726904246,15.141232492380091],[73.94948174447104,15.140815809901289],[73.95130963192457,15.139560818395548],[73.95413263356403,15.13664039621475],[73.95630942205001,15.135270220503447],[73.9531987517032,15.140364637653526],[73.94947475641189,15.143051948205395],[73.94682183882168,15.149117584980642],[73.93137499240594,15.210627216617278],[73.9121348063747,15.276619934839669],[73.89659002537194,15.323817928438041],[73.89558374277779,15.32571193483385],[73.88714934257428,15.34666821102154],[73.88415453737873,15.353262365630886],[73.88137567823625,15.357636985980951],[73.87917982570178,15.361898899017184],[73.87759297879253,15.363265571285979],[73.87479817994303,15.36724472273321],[73.87078245450986,15.369827180556843],[73.8635102823176,15.368602510487133],[73.86246954925974,15.365462490004761],[73.85478720419607,15.365481369586693],[73.85316161768016,15.364839187278907],[73.85244889247954,15.361682475394835],[73.84971119913378,15.360106344916867],[73.84338870943127,15.359838239967115],[73.84037273241626,15.360168913280232],[73.83829496192543,15.361471380584296],[73.83326749644048,15.368352514460415],[73.83123127259216,15.368953983536317],[73.82986233875269,15.367863768083991],[73.82413332423518,15.369110759571214],[73.81995721322988,15.372602401180327],[73.81662851350657,15.37303395823186],[73.8131092738969,15.37506271011208],[73.81039103126676,15.375061470634698],[73.80904680416448,15.376036173336395],[73.8071880260562,15.378710690040121],[73.80765969973082,15.380563878363333],[73.80775209275947,15.384583982040903],[73.8065328632124,15.390600145625493],[73.80324111508381,15.394594962851631],[73.79987592420919,15.393877857534967],[73.7918339355189,15.39330472535278],[73.7900340003481,15.394946717013397],[73.78982497518348,15.398493953877605],[73.78584482495252,15.405433730230257],[73.78437172271738,15.406632139955196],[73.78317970204878,15.409528572778513],[73.78415632163191,15.41260751672336],[73.78679241332699,15.41286692035142],[73.78919634964832,15.41198865797064],[73.79035773992801,15.412983187673543],[73.79177156586121,15.417469736904714],[73.79190097122788,15.419170584599057],[73.78599932643678,15.437273510989295],[73.78608679128037,15.438033105438253],[73.79490470611587,15.434780208414457],[73.80121143894446,15.432785511073435],[73.80881724347974,15.430797890888405],[73.81964066619737,15.429913919000668],[73.82576734992352,15.42973994719077],[73.83851392354262,15.428292316657092],[73.84582676091739,15.426234630093656],[73.85364944168441,15.422915369950198],[73.8574535302511,15.42041820693448],[73.86132330697474,15.418446122731163],[73.86389517634649,15.41779517060182],[73.87431273323553,15.417447031753571],[73.88441493512249,15.413913422285242],[73.8894257422582,15.412459779883898],[73.89802932251794,15.410551021679298],[73.90223365843413,15.41057068274832],[73.90704764092747,15.4110741932942],[73.9091893984873,15.410894451469124],[73.91731149818604,15.409289144038752],[73.92758835045063,15.406180417069697],[73.93635029827227,15.40479178606028],[73.94120589861451,15.404549405990169],[73.94649588124165,15.403486206134547],[73.9497416161314,15.40101109869124],[73.95454584828303,15.388883813216133],[73.95655229620547,15.377590552309549],[73.95689337356387,15.374614612605036],[73.95968093926193,15.370898767681782],[73.9650175389465,15.368463404404364],[73.97121258681632,15.368809602957235],[73.97377630561557,15.368595168711165],[73.9770257763517,15.367549879031978],[73.97992786183855,15.36495208587042],[73.98690550966721,15.357141682090575],[73.98978953809653,15.355037436570978],[73.99693151457667,15.352369664838136],[73.99892627416595,15.35218967994657],[74.00137899254933,15.34966477853485],[74.00486632611698,15.347717238950116],[74.00569358360917,15.346347315089155],[74.00591019243991,15.343161358260433],[74.00442008513839,15.337877389428911],[74.00458241421032,15.335676598489002],[74.00788087762065,15.322423993778616],[74.00935261943296,15.314819170039245],[74.01176289936873,15.309222683391575],[74.01136481984243,15.30633815543021],[74.01219448857569,15.304508430362192],[74.01546772358854,15.302501086532871],[74.019402620972,15.302016032068659],[74.02533855275938,15.301863541730123],[74.02882375806999,15.3025523551717],[74.03577894782232,15.306117063617647],[74.03882660144143,15.307092492683726],[74.03998138440069,15.306001718758852],[74.04153101278762,15.302073082005096],[74.04279769109088,15.300440026929532],[74.04494364991116,15.299293181912883],[74.05372249864128,15.299857342515448],[74.06139247152807,15.298292191503187],[74.06553021210345,15.296517650468738],[74.06836512991708,15.294487344959565],[74.07045082393212,15.292083874281358],[74.07043758215553,15.290312411668502],[74.06893831979457,15.286622157196756],[74.06952600511988,15.283242081131021],[74.07221001162915,15.279465042749816],[74.07361561671377,15.2756567061387],[74.07547777301006,15.27418567421644],[74.08183798883643,15.277500492535012],[74.08336406681514,15.277507956348119],[74.08668174090373,15.273576142651061],[74.08811170674902,15.272745084907703],[74.0900845389064,15.26914919956622],[74.09193838404926,15.268258015985868],[74.09532267656584,15.269103876576134],[74.0994184739331,15.269407297026993],[74.09935822554296,15.271097788924653],[74.10147035545047,15.272218810622272],[74.10161866904232,15.274898592845057],[74.10505585611867,15.282192734656396],[74.10581423605241,15.282689904083119],[74.10447365128535,15.285048685963487],[74.10513394300213,15.287168203594348],[74.10212736599362,15.28989276376418],[74.09978169266428,15.291225544078088],[74.09651029620872,15.293992389764488],[74.09521279100248,15.295744279485604],[74.09266681549703,15.295734522129933],[74.09116568560354,15.296698551654032],[74.09097997387558,15.298707490873822],[74.0879895724293,15.299756252327679],[74.0883793355565,15.302507769892182],[74.09048224832033,15.304290664368082],[74.08642495084138,15.31144581287658],[74.0870716213735,15.31212200206444],[74.08636798849584,15.314939065796983],[74.08765193188654,15.317103998429582],[74.08458893543731,15.318490822488886],[74.08320186535381,15.320716366687904],[74.08257449840308,15.32310457988867],[74.08357992400452,15.327430246658976],[74.08559756227795,15.328312355403535],[74.08909067847404,15.331529253212063],[74.0908965147124,15.33186255057238],[74.09270551326007,15.3338319524959],[74.09301374118729,15.335804612566777],[74.09518574685968,15.337878767559841],[74.09449961442172,15.338702580305686],[74.09581538675572,15.340768828609237],[74.09654492108294,15.343899707796593],[74.09578235783204,15.344890384895777],[74.0980756448248,15.34633058310554],[74.10200740245504,15.346696047408923],[74.10342507434919,15.345894065832468],[74.10483788206037,15.34669466058378],[74.1029635727924,15.349431536044548],[74.0993359196565,15.349982047071641],[74.0984766118172,15.35095478694322],[74.10004352222255,15.355103723263671],[74.10300660020545,15.35400741901642],[74.10396264282741,15.355279804222537],[74.10091695695692,15.358460399448331],[74.10221452353616,15.361910424651763],[74.10427894440066,15.362726144663867],[74.10426106833337,15.364978327455335],[74.10131333324225,15.365993495260906],[74.10193750938393,15.36939172025617],[74.10074670379707,15.370932150190287],[74.10074986871831,15.37332325452582],[74.09766637985159,15.374204529943453],[74.09712840106913,15.375431232725804],[74.09521166971801,15.375795160608163],[74.09390273451936,15.374177428138433],[74.09315746008204,15.375487855840507],[74.09439649850857,15.3792341186077],[74.09548164161446,15.379374683410578],[74.09788535802437,15.377503335073316],[74.09848386351237,15.378639837673534],[74.09578304272767,15.382616160799149],[74.0915757833169,15.383535191146416],[74.09055898675675,15.381737546944084],[74.089537862798,15.384399293745448],[74.08829376600433,15.390911120987742],[74.08685099905205,15.39147625516788],[74.08530319960119,15.390093109568447],[74.08370332857544,15.39004874661842],[74.08303451780574,15.391498357287627],[74.08084482901069,15.393622228821823],[74.079951123073,15.395421723104683],[74.07830616826823,15.392085522086404],[74.07607197301108,15.39159652636453],[74.07498020152205,15.395711044785918],[74.07708191322092,15.39942441609944],[74.07635044657425,15.400554794875532],[74.07391680957606,15.40106896830547],[74.0716521591506,15.404584542426415],[74.07419994375265,15.40863389333391],[74.07357530398639,15.410721591024554],[74.07137723161007,15.41250289128779],[74.07200824727448,15.412979634441626],[74.08251987284837,15.417677242642617],[74.08430879192665,15.420093908996183],[74.08817086053355,15.420781734990076],[74.09834643154097,15.424704255822366],[74.10379656664648,15.427163181401163],[74.1093242740065,15.418860039683098],[74.11068006440993,15.427831154260499],[74.11362498643966,15.430230575385929],[74.1190489114263,15.432236260388539],[74.12032113365414,15.434342128337716],[74.12414252122653,15.437803658989559],[74.12745359954843,15.436330119151796],[74.1304470883161,15.435807410794595],[74.13245761555302,15.434648585968787],[74.13690159002648,15.436356611090753],[74.13822722560622,15.438859822754964],[74.14013604125309,15.438326800374906],[74.14382079442483,15.439111537485557],[74.14796736243922,15.438484921801606],[74.15097114598203,15.439563648057105],[74.15152621036019,15.441796134735112],[74.15545014294202,15.439690726545061],[74.1577379478476,15.441319653086332],[74.16022868336769,15.442092857853721],[74.16317816841823,15.441253343298554],[74.16843055323099,15.443177833744846],[74.17037355414965,15.439525247501269],[74.17867505689168,15.437230688790592],[74.1806328577622,15.440352495608163],[74.18232937304758,15.442060182734158],[74.18543259298062,15.443121280661359],[74.18727798019496,15.44438153988678],[74.1889006109464,15.446993069232297],[74.18850519979087,15.448412192424934],[74.18953170985019,15.451502956335428],[74.18939319605477,15.455414304881122],[74.1916305549591,15.457136733326884],[74.19594411504241,15.463440574643576],[74.19784560416022,15.464226174597323],[74.20015807902115,15.467009250367521],[74.20301485356023,15.468133263278354],[74.20546675498481,15.469863077277639],[74.2115992754358,15.471125724012298],[74.21449802269429,15.473111664385419],[74.21905651539973,15.474267558863597],[74.2220722211074,15.475581051069895],[74.2257936158513,15.480089492673851],[74.22904498042675,15.482077892354141],[74.23004555540514,15.480837001621916],[74.23010078018126,15.482768010944602],[74.2312111268888,15.483968584342772],[74.23525276657355,15.485809990411875],[74.2378073654937,15.486405090324594],[74.24035300051105,15.48780452272864],[74.24414141446084,15.488632631635035],[74.24541520188014,15.488402364823415],[74.24770582814827,15.491368746961086],[74.25105929468997,15.491434886346989]]],[[[74.11613778246614,14.75566536399572],[74.1190617149012,14.75517988831911],[74.11952469186588,14.752909240635251],[74.11604105080943,14.754243443496769],[74.11082058668028,14.75524483875901],[74.1094275208308,14.754499124040363],[74.11049085848501,14.75644234334506],[74.10816878814258,14.757752674615048],[74.10785764987696,14.758751291076138],[74.10930167687872,14.761503482080062],[74.1115168310318,14.761363512360193],[74.11121504014189,14.760129833396958],[74.11362538675785,14.757436674037224],[74.11613778246614,14.75566536399572]]]]}}]}
