{"type":"FeatureCollection","features":[{"type":"Feature","properties":{"id":"31-313","name":"Lakshadweep District","source_name":"Lakshadweep District","state_id":"31","source_agency":"Survey of India (SOI)","district_code":"553"},"geometry":{"type":"MultiPolygon","coordinates":[[[[74.09479785637146,11.203070144735877],[74.08781163286005,11.202789720314739],[74.08207718010922,11.202950491241372],[74.07672356298984,11.203969134491471],[74.06597077709976,11.207120900203202],[74.05565277918274,11.211242672745284],[74.0521961873882,11.213123218801726],[74.04260134739691,11.220258420396057],[74.03561332343983,11.223934738399375],[74.02654339848799,11.230496569558692],[74.02266039972689,11.232775405016712],[74.02102563464763,11.234182142839382],[74.01167877936436,11.240625849843312],[74.0088216245489,11.24344297723818],[74.00355870032486,11.247438342593027],[74.00068618055224,11.250234446132517],[73.99593294601212,11.255836846640703],[73.9948210647825,11.257857836841426],[73.99170350249251,11.261245019140503],[73.98475165383591,11.27043769072745],[73.98129974558951,11.27642157868496],[73.97823905415106,11.279901221617166],[73.97638038702956,11.284080431410713],[73.97489303287993,11.285799521129782],[73.96914050221679,11.295232243920433],[73.96505674431896,11.305959029954906],[73.9634519226599,11.313001492905324],[73.96262229109885,11.321640574634326],[73.96366423928984,11.328452926715018],[73.96728079391882,11.336865943136251],[73.97014364386534,11.340136918303886],[73.97270140887335,11.343654140879087],[73.97830933323283,11.347660569135579],[73.98270291028706,11.34913252693338],[73.98473258930936,11.350247885177112],[73.9914256066372,11.352093636203566],[73.99605251862748,11.352398808855389],[74.00013924066101,11.352205654288944],[74.00552598803166,11.350884043912966],[74.01207805551066,11.348536336384429],[74.02046459589185,11.344622627199584],[74.03078499307253,11.339372211558468],[74.03767035159059,11.336735478872722],[74.04401115266842,11.3339067604358],[74.0501974757397,11.33073337155359],[74.05414512811545,11.32832943215612],[74.05983712364667,11.324371366781868],[74.06188043786901,11.323302873801808],[74.06898951480662,11.317423107121],[74.07282535879379,11.314894736980504],[74.07601604916913,11.311645645664996],[74.0795750715132,11.308695619773852],[74.08283914268144,11.305431457721733],[74.08997329063384,11.297792732090366],[74.0942287746026,11.292510521074579],[74.10112418134398,11.284550933801848],[74.10780081884664,11.275057195255886],[74.11271235654321,11.266754346829014],[74.11635206079741,11.259426305142876],[74.11762369990332,11.25779389495565],[74.12046043868213,11.25077299443108],[74.12184553328012,11.245052809295501],[74.12276997572094,11.239216890650068],[74.12313345241216,11.234720610804233],[74.12299540031154,11.230377137280882],[74.12129974143022,11.223593521493418],[74.12003672788255,11.22168569648783],[74.11882824308957,11.21854372304664],[74.11293186571214,11.210933928991007],[74.10773100006091,11.206841147558116],[74.10355161395826,11.204862321031857],[74.09479785637146,11.203070144735877]]],[[[73.06449236836495,8.328626586842194],[73.06978778931985,8.329498992093749],[73.07182166738043,8.32952248160677],[73.07404824856862,8.327528866430752],[73.07795048852827,8.329087478640368],[73.08064745752247,8.329399514535375],[73.08521558819977,8.327413797434412],[73.08528287096259,8.324038265477073],[73.08469031302114,8.322429953729012],[73.08273266522228,8.320974592071153],[73.07951675274234,8.319790477411884],[73.07733487780966,8.31618330019035],[73.07708411594376,8.314794534613085],[73.07280374526724,8.308689063962428],[73.07112355420934,8.305221328748907],[73.06843940173279,8.29832184282916],[73.06825386050714,8.295440150808219],[73.06829317191624,8.28674216491202],[73.06979845866033,8.283024219297085],[73.06804617700729,8.280904504765848],[73.062215047252,8.275782227415158],[73.06031168480949,8.273316837558507],[73.05408450801478,8.267835081418808],[73.05070193689666,8.26365655628186],[73.04988633558443,8.261878897056274],[73.04548260154617,8.260210975409656],[73.03997082542399,8.260258112458086],[73.03471030995173,8.261554505660676],[73.03138589874138,8.2616594256509],[73.02332091296444,8.263513608726676],[73.01921840014735,8.265124110959581],[73.01620584508683,8.265762994932201],[73.0149141211885,8.267408712516636],[73.010489235238,8.2700730695066],[73.00760428637221,8.275436858288787],[73.00661676446941,8.28123868094659],[73.00724976439946,8.284199270760828],[73.00698598789674,8.289138790578155],[73.00719210080834,8.291626475716525],[73.00674936463678,8.297794890976514],[73.01032622578181,8.302522946826617],[73.01379937586985,8.30414277861475],[73.01655591278174,8.30648456462003],[73.02025576541408,8.308623169806626],[73.02308902501296,8.309533598289164],[73.02911420567385,8.314160283570327],[73.03144498550871,8.314959647632785],[73.03524220710639,8.318454867479833],[73.03850187101985,8.32090821820589],[73.04691288693591,8.32532443238967],[73.0489543309038,8.327408779255354],[73.0527107846869,8.328651483765832],[73.05487880277441,8.328844189248946],[73.05654905897505,8.328120304195785],[73.0610696961892,8.32920503442421],[73.06449236836495,8.328626586842194]]],[[[73.64593624871651,10.053368958237504],[73.64196996488009,10.053705595436654],[73.64018791755869,10.054916765767366],[73.63491189306674,10.06082664955493],[73.631251552219,10.063929626129347],[73.62511893851722,10.07073693811305],[73.62151027946702,10.075126410956752],[73.62238339519898,10.078192326858249],[73.62226070681096,10.082676145751355],[73.62082669072109,10.089350851513181],[73.62019249878196,10.093485904195694],[73.61982033911399,10.098535472629603],[73.62021588247157,10.103152907719132],[73.62149017204679,10.10561088757657],[73.62646852823217,10.112895046972422],[73.62898450636004,10.115270681681011],[73.6317429556776,10.117185823907953],[73.63485317698593,10.12028544842058],[73.63636003428424,10.122598562446605],[73.63719281853955,10.12545114748778],[73.63948965208715,10.128764668767158],[73.64203582707943,10.1306668645893],[73.6433468800618,10.132703729630979],[73.64398358867739,10.136125627266287],[73.64617463049841,10.137741621627624],[73.6484281987956,10.141739797745357],[73.65330794907291,10.147222714564919],[73.65409441150024,10.149121469737755],[73.65861946081098,10.154629297823627],[73.66144541019274,10.154646574146012],[73.66217639488421,10.153212107349672],[73.66260569905589,10.149803221735208],[73.66412439575976,10.14519351441516],[73.66566573930126,10.14275222561922],[73.66592917719632,10.138009508502282],[73.66400108902562,10.13128540381515],[73.66383862633369,10.12836475586664],[73.66049568166228,10.122184831199485],[73.65916455361457,10.118772514935863],[73.65715264585313,10.11643976901603],[73.65463892699827,10.1099402510374],[73.65387517720153,10.105942592255573],[73.65293629241317,10.095452415874476],[73.65189421652873,10.092702960778947],[73.6511034216988,10.087339552222739],[73.64939014485486,10.079797988250801],[73.64920484482242,10.076533484211751],[73.64931957693351,10.06742064673329],[73.64972877874183,10.060895844687817],[73.64894428652529,10.056408237235233],[73.64593624871651,10.053368958237504]]],[[[72.32958349376143,10.13905797241844],[72.32982858379317,10.138031509399326],[72.33208831650464,10.135302413914227],[72.33420447839474,10.130994964806346],[72.33485828363193,10.12756307319823],[72.33540285275092,10.119536250255608],[72.33587919415324,10.116648575501262],[72.33754863766751,10.110642846049751],[72.34111653483284,10.105597377231078],[72.34182499323073,10.103420122321342],[72.34224558768084,10.099277401056932],[72.3416878272876,10.097155008778955],[72.33868636425238,10.090755595503897],[72.33619217719978,10.082931719977358],[72.33429259587217,10.07876819705677],[72.33081213236625,10.074473599473347],[72.32610403029649,10.067350007099472],[72.3248671058086,10.062819879268854],[72.32280178166216,10.058095943924172],[72.32264995908425,10.056417217446372],[72.31925462822909,10.05129763700682],[72.31301769379458,10.046034847856376],[72.30991954965778,10.042076993695606],[72.30978925571083,10.041298394677922],[72.30630286186006,10.035603754046901],[72.3056639316932,10.033902691630853],[72.30120227269092,10.029964435250534],[72.29684812567172,10.02800863206867],[72.29353604487808,10.027233588825844],[72.28522847140974,10.023626554366095],[72.27658670854491,10.01874691664214],[72.27404735657568,10.016911418335683],[72.26489489005813,10.01130361816903],[72.26263467475137,10.010315190370827],[72.25533674045965,10.010665807753611],[72.2517096213336,10.010425674627283],[72.24926381328302,10.009291209460576],[72.24441893296466,10.006330777189945],[72.24229858606544,10.006607154825794],[72.2406896333205,10.007611996246585],[72.23950814349976,10.010590039760576],[72.23810354836895,10.012719722454527],[72.23586197534803,10.014793881274416],[72.23501526454073,10.016960460210752],[72.23480944736185,10.022086841988022],[72.23632407878405,10.026632813393398],[72.23678804910668,10.03013666760401],[72.23808894828976,10.03369612583895],[72.23946313393473,10.040316889412901],[72.24038278804395,10.043295462272685],[72.24128285774223,10.048634554801037],[72.24222112477655,10.051336602877786],[72.24451276226382,10.055933401247556],[72.2458310700321,10.056989807687005],[72.24851740566301,10.060780854097871],[72.25038636735529,10.06215565626731],[72.25505320915724,10.067745996442241],[72.2602137527089,10.072257891149754],[72.2629013594185,10.073965261566066],[72.26926293580593,10.077306808873956],[72.27198609814623,10.082629576604571],[72.27293255785472,10.087278304757687],[72.27632523170706,10.093062885805761],[72.28048912027971,10.096804603359773],[72.28373984543612,10.098575497260024],[72.29599976330279,10.108009361215844],[72.2988749529638,10.10903495393643],[72.30088442986498,10.110419801043575],[72.30281880413966,10.112911579918414],[72.30611169392421,10.116049974805549],[72.3089401673374,10.117767530874492],[72.31346157862198,10.121405011676693],[72.31573979516702,10.125032002983879],[72.31706884812118,10.128178739936896],[72.31992437701903,10.131566409834313],[72.32292753348584,10.13691017300271],[72.32557912721423,10.139172362900919],[72.32958349376143,10.13905797241844]]],[[[72.6199720274757,10.539372474961432],[72.61832989863312,10.538837246138637],[72.61664957542962,10.539685311275274],[72.61538366652663,10.541626614017503],[72.61458878010087,10.54766465776612],[72.61533041138628,10.552528710415057],[72.61745192071118,10.556203517363844],[72.62203640585346,10.56175823763333],[72.62386493320062,10.564985370431634],[72.62840496674886,10.571179288929457],[72.63039663603517,10.575166625398126],[72.6325553813226,10.578309657427736],[72.63654325218374,10.581577895589138],[72.6385503879586,10.582250112266118],[72.64228310352527,10.581435580715322],[72.64503651754497,10.579163170971013],[72.64817902109827,10.577326454291995],[72.65005937980797,10.57564183574034],[72.65138102405635,10.573542680630768],[72.652613718084,10.570240047660706],[72.65306725322417,10.56720492535325],[72.65192424305171,10.56294497255583],[72.65098117744165,10.561101691972041],[72.64907806317399,10.559468819112478],[72.64653993937404,10.55827833707247],[72.64304060192353,10.557670447323344],[72.63787331932545,10.55543639525315],[72.63112964415603,10.550219219506987],[72.62856169454159,10.54853663681948],[72.62258863390915,10.542998451016208],[72.6199720274757,10.539372474961432]]],[[[73.67503144693768,10.816604414311165],[73.67722864697897,10.815982663678312],[73.68310435615453,10.816695031624754],[73.68692233419998,10.816054532979225],[73.69635902013196,10.816592806151485],[73.69975730135297,10.81646832745485],[73.70202648065701,10.81558118417615],[73.70370165824761,10.813506967560967],[73.70387561960385,10.811481884776464],[73.70036577801392,10.809059753561955],[73.69286937628587,10.806976619861043],[73.68870059118933,10.805206414128577],[73.6853895135194,10.80320324499257],[73.68084237294394,10.801280887249302],[73.67769486308777,10.80050547986433],[73.67198267631672,10.80004769233515],[73.66519795366621,10.80089811704204],[73.66301989269996,10.801565613081884],[73.65993774766127,10.804688100667441],[73.65852780645918,10.808694015959892],[73.65846425195697,10.81327686152653],[73.66120273451641,10.816459258684079],[73.66590753231095,10.817256862590794],[73.67181107798986,10.816613848640388],[73.67503144693768,10.816604414311165]]],[[[72.53182314649068,10.77916407391866],[72.5317031299516,10.781146431591642],[72.53506367574316,10.783178634355677],[72.53731331722459,10.783103114449087],[72.5376552303887,10.781478797435426],[72.53647966913177,10.780490309212967],[72.53182314649068,10.77916407391866]]],[[[72.17047704159873,10.808859639930443],[72.16882909628508,10.808772028112852],[72.1629642431145,10.811048608681547],[72.16290025542673,10.811922590862306],[72.16536040755888,10.812231242966066],[72.16863895458329,10.814084255751137],[72.16981504525259,10.816774782498364],[72.17169104842128,10.819605541100264],[72.17555127298164,10.823790380765614],[72.17787966495959,10.82713847544107],[72.1824776401002,10.836077922539154],[72.18481527283481,10.841680540735723],[72.18625238328788,10.843813703525102],[72.18867942980374,10.848744989061792],[72.19287993575367,10.864167006923061],[72.19256463572971,10.865538270830532],[72.19509172350874,10.870356083640928],[72.2012642604165,10.87759301200783],[72.20456366225001,10.878163433327657],[72.20655073614735,10.87782130967971],[72.20773756512123,10.874603270025265],[72.20449776962565,10.866127713026485],[72.20368433086455,10.86509958626272],[72.20019626137326,10.858333944049097],[72.1982972083715,10.856227996232743],[72.19361237520106,10.849737593474286],[72.19131250613201,10.846178883904791],[72.18676387992487,10.838365124398788],[72.1858307654376,10.834743020523923],[72.18311217666123,10.827976590832135],[72.18049571429582,10.823533891760857],[72.1775690599264,10.819607757904073],[72.17692951421789,10.816437908649684],[72.17218472847509,10.810133977332605],[72.17047704159873,10.808859639930443]]],[[[72.29516461371131,10.944312659403346],[72.29195926919991,10.944336822509484],[72.29080093893708,10.94268548272879],[72.29178569778611,10.938740385825158],[72.29366009893735,10.936558265144372],[72.29356847144436,10.935108380560383],[72.29135512355693,10.93381502049846],[72.28627485890476,10.93428615281172],[72.28519127448243,10.936235494138991],[72.28674837988804,10.941204452508261],[72.28759284988777,10.945404241144903],[72.28915082538278,10.946069673739894],[72.29066329726858,10.9452183225932],[72.2942871910252,10.945211758259662],[72.29516461371131,10.944312659403346]]],[[[72.32287135787186,10.94542696233857],[72.31656880270295,10.941456187938176],[72.31553133809872,10.94180753656397],[72.31554352750466,10.946090803955114],[72.3168562372113,10.948110794137342],[72.3181496225447,10.948611093589786],[72.3218215979016,10.948712917747446],[72.32727701258315,10.950483783746996],[72.32807670008613,10.949800535696461],[72.32287135787186,10.94542696233857]]],[[[72.33241532953531,10.949100507160102],[72.32879181938908,10.950584430874892],[72.33171994270614,10.950591763020922],[72.33419662883584,10.951566552666282],[72.33241532953531,10.949100507160102]]],[[[72.33536484761231,10.953887113718858],[72.33528690248177,10.952464334863079],[72.33254885209247,10.952974374908635],[72.33382650290883,10.954013434489173],[72.33536484761231,10.953887113718858]]],[[[72.33433228952494,10.954583555631583],[72.33476342593481,10.957890614373808],[72.33589577269865,10.957011485012416],[72.33606108501873,10.954970880488784],[72.33433228952494,10.954583555631583]]],[[[72.72191055406067,11.111532211229258],[72.72005898763564,11.112063738201183],[72.71759106985215,11.115306982783897],[72.71680470855287,11.120331941216953],[72.71784418385796,11.123996526326419],[72.71892194817896,11.126087166624465],[72.722182161104,11.130025417419613],[72.72694154715751,11.133218730743456],[72.72905427827185,11.135098505888136],[72.73171587382186,11.135874093584006],[72.73515557000104,11.13526867014513],[72.73574581678072,11.133852189722031],[72.73553099584223,11.131006031852646],[72.73313076915156,11.124641148359574],[72.72820587387501,11.1177289238793],[72.72208610971806,11.112772398336467],[72.72191055406067,11.111532211229258]]],[[[72.09473606438982,11.190081897103191],[72.09233281319248,11.181630192335314],[72.09050097985572,11.17367240918798],[72.08761636820306,11.163531010229164],[72.08616239221152,11.152593471790407],[72.0847990888288,11.14647608498523],[72.08303069625599,11.141682548223725],[72.0796872802293,11.13556941671351],[72.07558677599097,11.129400563361829],[72.06934811048065,11.125329881499326],[72.06624795495934,11.12404797359017],[72.05955971776424,11.12189926863145],[72.05457515882146,11.121380320893891],[72.05115397346692,11.12233031457393],[72.04312383581988,11.1281774467105],[72.03767137230334,11.136525330485236],[72.03349631706806,11.145387996955566],[72.03159228275668,11.148404339472464],[72.02682213988618,11.15707178953245],[72.0254777559123,11.16073086036131],[72.02209690885412,11.165140613893781],[72.01780761045327,11.16948256963396],[72.01405608103461,11.17548356093333],[72.00965877111928,11.181511059558476],[72.00622845991167,11.184563026965122],[72.00444039094836,11.188037950950147],[72.00127836490094,11.191560651015093],[72.00094399784346,11.19394113605088],[72.00160938959014,11.19519349924711],[72.00419432523226,11.195236021082136],[72.00639376407912,11.194347691991041],[72.0097814503898,11.193848626183344],[72.01484313563753,11.191369367130799],[72.01920787370791,11.190040766925508],[72.02548085115046,11.187651258281015],[72.02824036196155,11.187405669790394],[72.03759351536571,11.188553104629895],[72.0589706148835,11.191797847005532],[72.06711433955074,11.192854604761271],[72.07266149498433,11.194904272913252],[72.07790823405684,11.198001707020929],[72.0827838919552,11.2019741490433],[72.090449498356,11.209313106953417],[72.09590668753872,11.21964734850163],[72.09772750350096,11.221738469074136],[72.10013979410613,11.222068410220256],[72.10200325948908,11.221605313975417],[72.10288622877498,11.220016180675826],[72.1028944994665,11.217910659252965],[72.10163238673327,11.208489741161976],[72.0974690757225,11.199154435641129],[72.09722571976258,11.195972939824054],[72.09473606438982,11.190081897103191]]],[[[72.76353703461022,11.181105122035948],[72.76229500045265,11.18077715680584],[72.7630932628516,11.182819284434137],[72.76355468787756,11.187730204618717],[72.76344329975423,11.190259653766587],[72.76600065138892,11.198533413155843],[72.76752130230119,11.201658035985732],[72.77171541059009,11.213467053012812],[72.77557090061373,11.22512193571141],[72.7795471171845,11.2403696278721],[72.78350638040205,11.248619574192928],[72.78663761126292,11.255879273463943],[72.7884735217448,11.257976939181674],[72.79118882309768,11.259062481978678],[72.79185205041155,11.25863946639044],[72.79106318725646,11.253175656715976],[72.78763518129792,11.24560950256532],[72.78526679308831,11.239333575331175],[72.78487749114359,11.237540123793972],[72.7824240869056,11.230674274400723],[72.78029184529203,11.22371693861865],[72.7793802119402,11.218392105006556],[72.7780939488157,11.214107047190506],[72.77628764073644,11.210814543866121],[72.7717502332271,11.205156387976004],[72.77054894400106,11.202753319730828],[72.76544787822272,11.188045247582247],[72.76484363120188,11.184103857125955],[72.76353703461022,11.181105122035948]]],[[[73.0086323053405,11.46694105562137],[73.00387618356343,11.470655169386873],[73.00220653701267,11.473077291332197],[73.00029987166941,11.477912185500823],[72.99979143269611,11.48166161465748],[72.9987569501227,11.483899481115579],[72.99725028791775,11.491814804921153],[72.99796538491766,11.493312656087914],[72.99756461948547,11.495167700345753],[73.0006858317106,11.497441014921533],[73.00332799659448,11.497350234838366],[73.00552442675003,11.496322841522188],[73.00778960930896,11.493604939167287],[73.0098426801446,11.489119584679262],[73.01091192598425,11.487840731211023],[73.01220810212403,11.475049071390744],[73.01315783732576,11.472653485828918],[73.013068143986,11.470654754518758],[73.0118343332678,11.468756960997036],[73.0086323053405,11.46694105562137]]],[[[72.18706206039643,11.492143752399869],[72.17878137055912,11.491348334780042],[72.1735215896889,11.491117616061333],[72.1631784078575,11.492768534595786],[72.15635700331667,11.495105926942799],[72.15439130202535,11.496300207380942],[72.15152077359326,11.49927299910367],[72.1485999849863,11.501251028408278],[72.14733046251175,11.503337668667259],[72.14581928107722,11.510695654729718],[72.1427198960509,11.515497765794278],[72.13874029969371,11.523753454685567],[72.13822441014803,11.529255649498667],[72.13853528344123,11.533981221008117],[72.13739259892947,11.543129991064594],[72.13776243253886,11.546012940757697],[72.13708899092872,11.552426715894345],[72.1390851565448,11.557365051168485],[72.1432876871295,11.563479625042934],[72.14644364926482,11.566659560026341],[72.14847316350736,11.570089416198973],[72.148868910349,11.572638773901089],[72.15139776263584,11.579465822913129],[72.15819198052702,11.589035245252786],[72.1609617905202,11.590856418094416],[72.16358824716077,11.59752375067164],[72.16632048426386,11.601763916188],[72.1705510815827,11.605363025385538],[72.17300546232434,11.606642663641459],[72.17555845110674,11.606670045865686],[72.1788026608625,11.60549044741844],[72.18193009962845,11.603629900023163],[72.18931464504175,11.600668267928683],[72.19056879394621,11.59992265231422],[72.19219902920685,11.596519412946895],[72.19256511503761,11.594027515587811],[72.195039568819,11.590943353551177],[72.19512723301807,11.585549546866506],[72.19441872749162,11.582639632342232],[72.19450434732715,11.580462286722664],[72.19369408289494,11.571245086206636],[72.19200483615401,11.5601972546959],[72.19011898280631,11.551654510016881],[72.19089604848716,11.541718779193136],[72.19155419024567,11.53874517770585],[72.19204328638695,11.533574965822364],[72.19145738122167,11.526407841040688],[72.19200474735501,11.519394314298303],[72.19397764807091,11.512656906860615],[72.19688084841644,11.501622390862913],[72.19706939651643,11.499200964544805],[72.19512229517673,11.49577787153624],[72.19146964242694,11.49348547650001],[72.18706206039643,11.492143752399869]]],[[[72.71833828713122,11.691765504111537],[72.71668611460144,11.688868919836887],[72.71387922589693,11.685747312748166],[72.7124784409966,11.683239367426417],[72.7093707327707,11.680372658436106],[72.70911009063178,11.67922945534345],[72.70646360723863,11.679050581675208],[72.70190994312132,11.682175511931316],[72.70052753404111,11.683689342750412],[72.69995798119919,11.688036626110568],[72.70112490732194,11.689926253220735],[72.70426600533723,11.690638243070346],[72.70508451645476,11.692178356195088],[72.70709449152466,11.693821078084074],[72.7058725730879,11.694468901976649],[72.70328623174613,11.69275009663973],[72.70274782701763,11.694146869703998],[72.70496809296706,11.697460246596288],[72.70793564606194,11.700316801154088],[72.71100638238099,11.701014203759968],[72.71250127605721,11.702330550241118],[72.7163000603048,11.703830875099666],[72.71744848379727,11.703441850227462],[72.71858695686525,11.700703704146951],[72.71899905811196,11.696575171987675],[72.71833828713122,11.691765504111537]]],[[[71.84192038516626,11.821600150010633],[71.84010104297008,11.821456007462968],[71.83402752216735,11.823581423473014],[71.83164135906733,11.82539738899837],[71.8226079418898,11.828891512456462],[71.81824935724062,11.829949104478583],[71.81488515952809,11.831285996005153],[71.80730922401041,11.831887296054427],[71.79555484388749,11.831354330864166],[71.79018645054936,11.832330858762969],[71.78370995116637,11.834421782252686],[71.78201177983686,11.835288961744784],[71.77826648219167,11.838799489093459],[71.77529670611845,11.842772445587308],[71.7740576974921,11.845479996916353],[71.77197319776475,11.85353210246123],[71.76932522920518,11.858532470437835],[71.76677521737878,11.862337850742213],[71.76102479574051,11.872320708200405],[71.76042397785012,11.87467791822209],[71.75982272872285,11.884451129198778],[71.7588052391564,11.896796721977484],[71.75837321626692,11.899568241948254],[71.75624701396842,11.905611474875665],[71.75507473983176,11.917343189632955],[71.75294761236042,11.923386063448604],[71.75097286344386,11.930042326263731],[71.74994965275769,11.931470953794479],[71.74390845198955,11.936108242963893],[71.73763841311487,11.940369478676507],[71.73290458576245,11.947071758954083],[71.73169954798644,11.951784723331983],[71.73184204186283,11.956606124912456],[71.73445444651615,11.961092021408655],[71.73711807174028,11.962830233996545],[71.73874679261661,11.965974127493794],[71.74275111398929,11.9700379825807],[71.74869167167945,11.976930488423179],[71.75172823191897,11.979580453424145],[71.75598052163363,11.98393204379666],[71.75859317605898,11.988418922007057],[71.76077696526868,11.99153497539922],[71.76583845363872,11.995952241146966],[71.76804443596743,11.998802987721138],[71.7733538183785,12.003507836178924],[71.77600628230167,12.004256320326649],[71.7808603574704,12.004647662012902],[71.78391512745313,12.003824620594562],[71.78595740758928,12.002117954134004],[71.79079677103105,11.99288400977506],[71.79485365183996,11.986527212523356],[71.79861292738873,11.977205435053415],[71.8008030916396,11.97043062863203],[71.80166645602031,11.963281830674541],[71.8028271025316,11.95909756671618],[71.80355807058783,11.953542102577357],[71.80655585901525,11.94683160457101],[71.80832104546212,11.941893538449834],[71.80847948809554,11.939974915945317],[71.81097074665196,11.935795867843792],[71.81248371066607,11.934112396118818],[71.81555500789868,11.92834279940129],[71.81656357424993,11.927220391672043],[71.8223239043647,11.914747504943728],[71.82277483693812,11.91297885149735],[71.82521373960077,11.90745876584375],[71.82818906151054,11.899123850295863],[71.83067636063755,11.89300566661295],[71.83153505148724,11.882546551797857],[71.83630755897033,11.86157039066229],[71.83686779545091,11.858456638527615],[71.83967070252434,11.848452426001899],[71.83980389083364,11.845348465396317],[71.84049436590705,11.842961374081147],[71.84266402182634,11.839907040370326],[71.8432473838146,11.837747497426736],[71.84485779754944,11.835468855727074],[71.8454573393878,11.833110021459772],[71.8457755363315,11.826718258045988],[71.8451782174552,11.824064045666729],[71.84426495508451,11.822788522975603],[71.84192038516626,11.821600150010633]]],[[[71.89899858523428,12.284996528024523],[71.89653482670452,12.285209550030624],[71.89222166745209,12.287344836096326],[71.89146792984151,12.288278496099316],[71.88928279677282,12.295378332862454],[71.88882237020317,12.300811968873388],[71.8900316377446,12.30713774114511],[71.8914035034229,12.31154458405179],[71.89104170997527,12.315809122161264],[71.8899934807288,12.320446681418797],[71.88739194504117,12.32538592578315],[71.88399739189212,12.33362625785504],[71.88297134807343,12.337254519569974],[71.8823556771647,12.341927386973165],[71.8821369466936,12.347062354245015],[71.88355277007497,12.354292613795737],[71.88159735302865,12.376893435225872],[71.88016488304275,12.382786692486466],[71.87954435567933,12.389435448781184],[71.87989250039986,12.393948085281178],[71.88198119576691,12.397109983616037],[71.88613797101587,12.400279623635784],[71.89019261363205,12.402034776058409],[71.89667756402746,12.40315149618019],[71.90177226718248,12.39993418708833],[71.9058105335418,12.396119305723602],[71.9080166949204,12.394948616148598],[71.9136226483304,12.390684364530825],[71.9204177639137,12.38780862883917],[71.92405158733408,12.383598033360775],[71.92643048833168,12.378152286864509],[71.92662600985139,12.37387459447294],[71.9260335725652,12.370921668943966],[71.92551958927967,12.363079699135884],[71.92597453644908,12.359715149815273],[71.92637467321511,12.35203141200804],[71.92580352491737,12.345844414034051],[71.92313770956045,12.338489832421661],[71.9224892076615,12.333209409965239],[71.92207810925593,12.326123198544616],[71.9198371280271,12.31637565185558],[71.91763720490009,12.311909410042913],[71.91686231810597,12.309108016094953],[71.91550798459828,12.30717178796173],[71.91293190742054,12.300738421122464],[71.91265958569159,12.298973894725535],[71.91069790470635,12.296241394772894],[71.90681636357392,12.289286726900764],[71.90558775053631,12.287858800109056],[71.90247453411145,12.285778857735373],[71.89899858523428,12.284996528024523]]]]}}]}
