{"type":"FeatureCollection","features":[{"type":"Feature","properties":{"id":"34-503","name":"Pondicherry","source_name":"Pondicherry","state_id":"34","source_agency":"Survey of India (SOI)","district_code":"600"},"geometry":{"type":"MultiPolygon","coordinates":[[[[79.84059193367943,11.955739682260573],[79.83868617585513,11.948765486359818],[79.83774583161647,11.944295175970764],[79.8374802823166,11.940416991542262],[79.83681054084131,11.937483442695955],[79.8369669883326,11.935571495916195],[79.83405895956835,11.923064269486325],[79.8317788823965,11.91659126344025],[79.83005885806422,11.910100318054095],[79.8321585191553,11.907482779143821],[79.83216140665841,11.905095684875233],[79.83143655098642,11.90318516829266],[79.82759977231751,11.888707876710605],[79.82613122575634,11.881457282397648],[79.8246831544571,11.876681771308784],[79.81984777791362,11.867844545668538],[79.80909720764697,11.836120675284905],[79.80646292848547,11.837028026080022],[79.8060625728977,11.841624759005535],[79.80810824248138,11.845209598877826],[79.80764442299919,11.846683006350515],[79.80528248459643,11.847608718855605],[79.80495113565465,11.849332011789786],[79.80299957432963,11.850686576584202],[79.80317801971957,11.852675416836394],[79.8020762265451,11.854456010401044],[79.80057545990151,11.855224016953073],[79.79476824811857,11.85506805010322],[79.7945136947668,11.854725164710388],[79.78418378410066,11.855815883538305],[79.7815378867758,11.855649591876693],[79.78006104464906,11.848067281051739],[79.77834043851213,11.847555939794178],[79.77691397632287,11.845761016031542],[79.77637328797428,11.84357767674948],[79.77638395144164,11.839423812913493],[79.77351713345521,11.836525491762123],[79.77058020724532,11.837166265612156],[79.76605913838898,11.84050031649325],[79.76392269957405,11.847256865784104],[79.76207298702835,11.848345452511227],[79.76319353961189,11.851794642149597],[79.76503591304414,11.851894800988457],[79.76686447080678,11.857956799454339],[79.76940663311045,11.858224436391518],[79.77072677514998,11.862103067598097],[79.7701567264679,11.864760603689705],[79.76917915789471,11.865026920005906],[79.76963248146653,11.867617037052105],[79.76994668555966,11.874498825519305],[79.76830531537236,11.875894875831175],[79.76577711451735,11.87627133543109],[79.76443449967168,11.875407492528256],[79.76389236011718,11.876921473591546],[79.76059735283954,11.876752922568082],[79.75963866886782,11.875640619728367],[79.75733012904702,11.876019347353012],[79.7576851012484,11.872267916042055],[79.75866975046017,11.871621965671807],[79.75858620742497,11.868421789032675],[79.75539705002848,11.867805743568299],[79.7537825302654,11.865949700743899],[79.75418118241974,11.861779037861407],[79.75352941650272,11.857133284054036],[79.75399988400574,11.851677869957546],[79.75383080318956,11.850077724521173],[79.75178958401244,11.848300492008576],[79.74941735422776,11.847946893755315],[79.74858980165702,11.849030182828356],[79.74300869025896,11.848277635536151],[79.74235851242982,11.85154105862546],[79.7439560061785,11.85287388290662],[79.74322469567461,11.859658850146086],[79.74195017112244,11.862502516436995],[79.74006953330347,11.86442876483491],[79.73258984485526,11.865570634906868],[79.73249838609297,11.86256707784573],[79.72604000884088,11.862115343806165],[79.72102431227752,11.862456133398931],[79.71936109617769,11.856702528505005],[79.71962279514327,11.853036903359595],[79.71826789008918,11.853489366895376],[79.71619458937968,11.85606651019601],[79.7148326051919,11.858833141671438],[79.71333254954045,11.86062355435936],[79.71333094466313,11.863995896547076],[79.71257268005593,11.866618636547086],[79.7081679574024,11.869041335893279],[79.70852343810388,11.876069599779102],[79.70935217106914,11.884928279792165],[79.71061967767945,11.887549643515166],[79.70983243894113,11.889180260220455],[79.69951831036177,11.88906721186554],[79.69675992540765,11.88853905283785],[79.69648865770036,11.886622656625143],[79.68866365454211,11.88628101838881],[79.68461569486303,11.885806146898888],[79.68549656511266,11.884711017603141],[79.68495992087333,11.880915570264174],[79.67392757773092,11.880652274574565],[79.67365163575239,11.885723237214208],[79.67374903883749,11.891567574559513],[79.67745276986062,11.891499086949208],[79.6827261132771,11.891922871415138],[79.68253267059465,11.888740862042122],[79.68674579378744,11.88884395102925],[79.6870683496243,11.89449387207077],[79.69529286681365,11.894745063102423],[79.69564362986725,11.902365639699125],[79.69752547675633,11.90238324306357],[79.6976599016111,11.907554017431467],[79.69550740415627,11.9078483705861],[79.69523769224878,11.912070137162932],[79.69609257300506,11.919027752372173],[79.71065723183455,11.919275197947092],[79.71856558191493,11.918992370985137],[79.71785684882045,11.913315569133681],[79.70650618815785,11.913576734379626],[79.70651738534778,11.905142472020483],[79.7088579381386,11.904260365125687],[79.70844398079632,11.90153044268663],[79.70732867586787,11.901458430308736],[79.70596491116767,11.89931183790507],[79.70518309424963,11.893874560012234],[79.7089463181659,11.893150309152734],[79.7096801514333,11.891622340806721],[79.71146969373599,11.890627340759108],[79.71333316139824,11.89099740315562],[79.71679882555016,11.892750033618288],[79.71913402676391,11.890299456603495],[79.7219334793207,11.88995505091885],[79.72869325983145,11.890151609542961],[79.73040628630507,11.891683084785683],[79.73062137497256,11.90195236124136],[79.73121395907684,11.903163508929687],[79.7333392740269,11.904021505061326],[79.73849358077689,11.90426809190973],[79.74060077863815,11.905392732611405],[79.73721977820153,11.909371598108807],[79.73251671025639,11.913206418862236],[79.72541989085913,11.923112212693214],[79.71743527612017,11.92894122039163],[79.71772079833302,11.931738977123775],[79.71907181409578,11.936181685480529],[79.72079618832903,11.944854849913977],[79.71347098068519,11.947831405786102],[79.70958350547511,11.949911808411153],[79.70901346881598,11.947466637951782],[79.70782429188854,11.946612770804654],[79.70804285334123,11.940718626755933],[79.70942781601498,11.936437863095659],[79.71112051277233,11.93302479042241],[79.70648285324165,11.935234143139283],[79.70643521652612,11.937225173534118],[79.70512758934474,11.939300258637845],[79.70152019141123,11.941375905221305],[79.69721462242829,11.941706968029024],[79.6957924377038,11.944835146128963],[79.69566456848975,11.94765568701302],[79.69387470817989,11.949075335043688],[79.6936785871971,11.950210587144573],[79.69156621841394,11.951272584104991],[79.69282099258042,11.957378801431707],[79.69344062855845,11.957211384367312],[79.6956005238044,11.963863184127701],[79.69787605609092,11.960442023432915],[79.70007100404507,11.962769202903477],[79.7009477598569,11.96263341847571],[79.70192853714457,11.96485016596666],[79.70358366135422,11.965426033205505],[79.70250983412043,11.966976668629574],[79.70572803769132,11.967088705869806],[79.70597566206972,11.96632027338784],[79.71011633494861,11.965735998877221],[79.71159511072973,11.967529894691953],[79.71407391896747,11.966946032688734],[79.71493267820463,11.96759215213464],[79.71592278711417,11.970981423132788],[79.7092539902561,11.975798160642643],[79.71027588567091,11.976877604470573],[79.71236976883372,11.986461259902018],[79.71455783494021,11.986341001990635],[79.71441498802471,11.984926284556636],[79.71580142297057,11.9847992632909],[79.71930601077088,11.989200553076516],[79.72046278148744,11.992671715409816],[79.72302139319488,11.992449124456972],[79.72332923125805,11.993090846350809],[79.72820933583327,11.992261939757821],[79.72894445735814,11.993572478610117],[79.73158873180148,11.992906988910935],[79.7333160074081,11.993217791615175],[79.73469878454172,11.997421270955444],[79.73691192718812,11.997840677466987],[79.73762744128665,12.000856164062219],[79.7413159440747,12.001262776958226],[79.74142848320781,12.003896618931453],[79.743632171633,12.003592901758212],[79.74456061999011,12.005879567613656],[79.74640257431587,12.007632479789734],[79.74858094643211,12.007262211705966],[79.7553874746538,12.004313227061898],[79.75882205880113,12.00382653187589],[79.76227990337581,12.002643678442478],[79.76198970666711,11.99319081530286],[79.76032992179563,11.989155059714308],[79.75512871173206,11.987923463983249],[79.75424804020284,11.986074431829858],[79.75173094200372,11.984289611648666],[79.74803063788993,11.984705587794759],[79.74185266390701,11.97762102263568],[79.74010841846948,11.978516707156412],[79.7354865413813,11.979119670368567],[79.73190098917915,11.98143077552575],[79.73180961737455,11.982515623780257],[79.73013867554499,11.98317164505418],[79.72948730716702,11.984631771015822],[79.7303142565991,11.985892536812083],[79.72642036177538,11.985677263834221],[79.72543249126835,11.981971027373607],[79.72341063007319,11.977004324504147],[79.7244651901552,11.971224828999372],[79.72724643783218,11.97112250460582],[79.73007863004628,11.970371182870664],[79.73276832937539,11.968919265310985],[79.74443629453438,11.964909826197506],[79.74860250456884,11.943920482783014],[79.74922734802806,11.922114981677417],[79.75046425458532,11.922499841271538],[79.75102595745354,11.920610084779112],[79.75017850628055,11.91985994414261],[79.75618196790306,11.920341653658207],[79.75630421844119,11.924215309455727],[79.75502812175213,11.924363927759146],[79.75502575138111,11.925917101172768],[79.75628850311536,11.926039798326121],[79.75719465929392,11.928074071116093],[79.76209966539592,11.92849808775232],[79.7620803658206,11.930771616973983],[79.76089615997117,11.930649101182793],[79.76032478495893,11.93587845728652],[79.76038731665551,11.940009720872627],[79.7597217441031,11.939959729975724],[79.75984875853695,11.943553144588751],[79.76259384759578,11.94341865627202],[79.76347031920649,11.94412411569223],[79.77143012993136,11.943842397951462],[79.77314332593085,11.948979005327878],[79.77500847306098,11.94968798919287],[79.77531579610786,11.9515623628324],[79.77623799812206,11.95168172352874],[79.77669692376504,11.953593985038301],[79.77929456874189,11.953561035658632],[79.78070755573465,11.956435499986783],[79.78337696211213,11.95632067829964],[79.78462673653966,11.959815931501748],[79.78808302572992,11.960226194160526],[79.78832224943824,11.959649857144058],[79.79163219359147,11.959329941116286],[79.7975640595408,11.95659706330097],[79.80324812163926,11.953091087982086],[79.80497871701012,11.953209040685582],[79.80482556453535,11.959690612995551],[79.80514603066896,11.963121336306706],[79.8063842951919,11.967976067758812],[79.80972006287949,11.975177140036726],[79.81251071532981,11.977844542493719],[79.81620158719188,11.978984363745948],[79.81841007543474,11.977841270089101],[79.81954915608532,11.975242528127925],[79.82083091060808,11.970736390048886],[79.82161159904902,11.969466431340438],[79.8222550344785,11.965719512605473],[79.8247761283621,11.961475741532798],[79.829440863341,11.957743050943492],[79.83271415876476,11.95647345208981],[79.84059193367943,11.955739682260573]],[[79.77529103603675,11.904940495132204],[79.77506270187673,11.901780958103664],[79.77188662943828,11.901856657671825],[79.77191387145527,11.902643140298107],[79.76974751276572,11.902728222680055],[79.76910118446632,11.900617155309549],[79.77278674744122,11.90039703379139],[79.77198863353689,11.899108552965913],[79.77043590812056,11.89083644034696],[79.77185971165713,11.885247623417383],[79.77074863527797,11.88397114909562],[79.77339825232492,11.883208526456132],[79.77275814085895,11.87530205769083],[79.77619834130013,11.878153041391602],[79.77957806298521,11.877867348825484],[79.77981403110232,11.87233949497797],[79.77833378469937,11.866499183575277],[79.7783761599527,11.863236804726068],[79.78057914193644,11.862703156366793],[79.78501230645534,11.862944261490181],[79.78663473169495,11.868608204041657],[79.78717864855696,11.873379336291887],[79.78911067392748,11.875560690407529],[79.78949109778499,11.877111158756353],[79.79227686325115,11.876800109000916],[79.79171204941703,11.877911855368298],[79.79202799466772,11.88028041698382],[79.79335331564869,11.883598464254806],[79.79459287212205,11.885295849961933],[79.79556771498403,11.891405090300278],[79.79665461288319,11.894243935092513],[79.79640517445597,11.899839589638615],[79.79048082137523,11.897067139538212],[79.78757111503575,11.896790539297166],[79.78247518802434,11.901227526060776],[79.7814052917833,11.902714241728814],[79.77872425932226,11.9046026883895],[79.77529103603675,11.904940495132204]]],[[[79.68574423043476,11.812444212789064],[79.68843752846008,11.810227766382589],[79.68843752822345,11.803806600261936],[79.68665493089021,11.801991895457801],[79.68415929273228,11.801782503941864],[79.68144974414503,11.800177178454936],[79.68141445226401,11.797664018254064],[79.67865736826654,11.798687715064903],[79.67666085816795,11.801851847191635],[79.67470296648722,11.80675437753846],[79.67583147800735,11.814253653985833],[79.67930970801213,11.814537006027665],[79.68303527685569,11.8130629960684],[79.68574423043476,11.812444212789064]]],[[[79.70291222345868,11.813298707546378],[79.70184266572136,11.812461181746386],[79.69613835134615,11.813438294468417],[79.69220083143311,11.812923475440032],[79.6930722831845,11.816020647247989],[79.69207402827163,11.820906114312846],[79.69235950675497,11.823276127741826],[79.7002271460834,11.822858623984583],[79.70091571463847,11.81574147627716],[79.70291222345868,11.813298707546378]]],[[[79.6623099247278,11.80918373685289],[79.65988250305574,11.807403076528097],[79.6577410395813,11.808124905444117],[79.65121463979811,11.808868409919262],[79.6498030807097,11.810935981323599],[79.64814743971208,11.81174949144481],[79.64690400033591,11.815488810499936],[79.6450730400021,11.817202588915617],[79.64429471961141,11.819627728770113],[79.64581283999802,11.821390111684911],[79.64697275947135,11.825278289811466],[79.64880372010795,11.828159370916227],[79.64887247980754,11.830665599041218],[79.64740007980255,11.832663509648105],[79.6474303194655,11.833916670128623],[79.65029159958213,11.83851431978247],[79.65407556072383,11.837734199919774],[79.65761580037064,11.835835470144724],[79.66016387941595,11.833505641132648],[79.66403208021585,11.83251662983856],[79.66398636025349,11.826599130763066],[79.66249091997831,11.822136840306275],[79.66313579872327,11.818205307885874],[79.66332594221697,11.812528797206859],[79.6623099247278,11.80918373685289]]],[[[79.80820182402553,11.833477951587863],[79.80585060177651,11.826537939684199],[79.8010332223908,11.80720185768446],[79.79814045399378,11.797652872392122],[79.79692267057288,11.785177349536802],[79.78433477988291,11.787292821362552],[79.78240037113258,11.784446821701827],[79.7811427373004,11.78425434435141],[79.78040391865602,11.781135006550194],[79.77857472825235,11.781084962445204],[79.77489495656357,11.782412577656837],[79.77183967395082,11.782135770840293],[79.77012341650213,11.783378144363978],[79.77099330551238,11.788092828115753],[79.77056612446393,11.789466752562609],[79.76876327386542,11.789077365267115],[79.7687213690041,11.79068195113807],[79.76581226714036,11.791779213383608],[79.76305549719679,11.790512542537662],[79.76179251086047,11.790697368727377],[79.76086402232097,11.786891153447446],[79.75985580550865,11.786894439352743],[79.75749810039233,11.783400343212087],[79.75585919029723,11.77530885650316],[79.75114309314736,11.77552380887528],[79.7496840148756,11.776042972806428],[79.74017217171084,11.780849580651969],[79.73548804095921,11.780566685908303],[79.73180426132328,11.780717211685955],[79.72607955000092,11.782473155493847],[79.7246025764342,11.783355018031981],[79.72176407751074,11.786818353324318],[79.71978152684649,11.78490251214627],[79.71227860002267,11.791440623530665],[79.71382810190073,11.796252873330408],[79.71665645889435,11.796415996480153],[79.71686877740865,11.797488073319872],[79.71918933573882,11.79740961023361],[79.72272168140874,11.796441111449223],[79.7234244763165,11.799012593043226],[79.7225255840902,11.799573482134882],[79.72306351457787,11.802895187033455],[79.7251648582225,11.80298932805917],[79.72543392149481,11.805779735497707],[79.72420279802726,11.806899897988234],[79.7244230967909,11.810381909077064],[79.72976926783768,11.809984835606416],[79.72970477273103,11.809211956280294],[79.73562344613289,11.809277288209266],[79.73582114506863,11.812388625035132],[79.73456965792133,11.813052284330865],[79.73474083223078,11.816469135769479],[79.73291077441019,11.818083692292182],[79.73254608199436,11.82424458251814],[79.7315642549048,11.82435341889319],[79.73229269541935,11.833352186541237],[79.7293483267337,11.836910671490273],[79.73284936865076,11.83715354185519],[79.73810040413635,11.83693929227764],[79.73663328167574,11.844162227694293],[79.73757801986231,11.843022767198192],[79.73890439930548,11.84356012862137],[79.73954626139943,11.842321383183528],[79.74230863197778,11.842166622902226],[79.74447871341324,11.841361128672592],[79.74858169010751,11.840647032751269],[79.75262933878555,11.837950095619416],[79.75560294300907,11.83749484355714],[79.75560782370259,11.836821367231787],[79.76061463269905,11.835191712551179],[79.76438650670326,11.833484736313242],[79.76522745346269,11.831848742550257],[79.76494904462317,11.824110498563579],[79.76765350421338,11.823297848279825],[79.76771799093231,11.822656033061511],[79.77293953013462,11.822621794639845],[79.7732817701515,11.826280281262111],[79.77470045154615,11.828573126138785],[79.77608038959987,11.828623194702232],[79.77828177133708,11.831668164532987],[79.78303084944766,11.831687819881028],[79.78632144328527,11.830930644545772],[79.7872897230513,11.829307130146855],[79.79158039747121,11.827730944742132],[79.79570978084361,11.828447214224674],[79.79615529818274,11.826873452243213],[79.79501970031859,11.825740749110391],[79.79661025790725,11.824387581969223],[79.79800497183876,11.824921320374532],[79.79833197389424,11.82745054591521],[79.80042772697377,11.829035087618028],[79.80060505138144,11.830594604842856],[79.79858538582774,11.833256345203639],[79.79591489140904,11.833192333674834],[79.79359660310082,11.832418791300508],[79.79377845113218,11.833475836197737],[79.79697916793006,11.834101146474858],[79.79829867980187,11.835072080479774],[79.79761040183922,11.837752671401853],[79.79818927203401,11.838653107950618],[79.80032784332494,11.837609559709971],[79.8012876553129,11.834626616290684],[79.803375726198,11.833524271707663],[79.80820182402553,11.833477951587863]]],[[[79.69453719497191,11.859674023893913],[79.69506166266012,11.865818071987887],[79.69513296641097,11.86993507776774],[79.69598861337056,11.873772908720223],[79.69812773091442,11.873772909260639],[79.69834164284941,11.869935077393853],[79.69777121090249,11.861142752158647],[79.69677295653325,11.860165810605789],[79.69453719497191,11.859674023893913]]],[[[79.6362609603091,11.877629311129269],[79.63842780056193,11.8772449187619],[79.63988508087672,11.878494300901409],[79.64014428044618,11.880148861514572],[79.639381440452,11.882287979608616],[79.64275356027957,11.882335679642914],[79.64627076020469,11.881431199321444],[79.6470260404778,11.877943950174291],[79.65036755995511,11.876456250186026],[79.65225215965337,11.873565630701124],[79.652694600304,11.87188433903258],[79.6526643601962,11.86745165969492],[79.65396863998419,11.865550949347698],[79.65892043959171,11.865315420763029],[79.6612471206973,11.86327556963493],[79.66487502028401,11.861929396987744],[79.66620647999795,11.857204440025054],[79.66331496055622,11.851586369610084],[79.65887435990365,11.847607649455274],[79.65599831944475,11.846798908586116],[79.6543120802709,11.845622071866805],[79.6502975041019,11.844963091558867],[79.64875799998141,11.84515956110049],[79.64691156024365,11.846821768468116],[79.64134991909401,11.846664449254266],[79.63513956062015,11.849800140547218],[79.63233948027782,11.849069611412778],[79.63069140023534,11.849275620228077],[79.62998975935523,11.851722720475633],[79.63138583979962,11.859616260415299],[79.63331616016069,11.860642439520408],[79.63157664010136,11.866682969497768],[79.62688440072742,11.86630821052681],[79.62454980051302,11.865507120601942],[79.62306228099362,11.862722429907018],[79.62316127963338,11.859269129861794],[79.622329680566,11.858489011010997],[79.61840819970111,11.858431861500597],[79.61667623969201,11.856181140008635],[79.6139143195073,11.856602700135662],[79.61081688041381,11.855406779513663],[79.60750595893073,11.853439290680228],[79.60573584017366,11.854267109846571],[79.60543812048437,11.86439706003411],[79.60681908000655,11.865644460456954],[79.60659804025087,11.867791139999596],[79.6049118004623,11.869150139050147],[79.60442363968352,11.872597679261212],[79.60449204032396,11.875515931254013],[79.60368348071451,11.87915894849589],[79.60873427913096,11.878079399599844],[79.61230476007539,11.87367822119718],[79.6141051195524,11.873780280573145],[79.61835491966576,11.878447498888983],[79.62383268046287,11.881828350681928],[79.62546527915872,11.88760850946278],[79.62750252007379,11.887561801416718],[79.62942492000852,11.886207569654257],[79.63305660012965,11.88526158050117],[79.6342085998312,11.883358978838768],[79.6336974003348,11.879359290100378],[79.6362609603091,11.877629311129269]]],[[[79.66092672052496,11.943940141283587],[79.66501632052218,11.933217090008629],[79.66652688053684,11.93323805898116],[79.66853315975537,11.934573210072468],[79.67079179937018,11.933473588538694],[79.67220299987245,11.933842679810404],[79.67385863941138,11.931872399891663],[79.67380536045624,11.927515050132875],[79.67501985663243,11.925060246674105],[79.674392880643,11.922558751508037],[79.67382804046973,11.914276140318494],[79.66527551982827,11.914674750336317],[79.6655120403912,11.909712781533939],[79.66518407968698,11.908490220040749],[79.66208664049435,11.909438100717502],[79.65998856029661,11.908275569979608],[79.65856944013807,11.904858631030148],[79.65519710332435,11.904030631252825],[79.65181728025091,11.904761339660563],[79.65052020040348,11.903523479436657],[79.64588160036637,11.903979331284534],[79.64448552042283,11.903087610339789],[79.6430099519423,11.899698444096673],[79.63856496026428,11.89882178944211],[79.63214111936638,11.899339650655035],[79.63040915948862,11.900970450873007],[79.63165296007439,11.90508461937718],[79.63103483950394,11.910357450559067],[79.63162855151687,11.914579931787088],[79.63108056056997,11.915813429616788],[79.62831863946981,11.918019329775634],[79.62258923928128,11.92024710087935],[79.62272640015706,11.929953601320756],[79.6235734808261,11.940050160675504],[79.62389387971527,11.940649018912623],[79.6278762006774,11.940376318739105],[79.6306150805571,11.94120791955569],[79.63343820039135,11.941182180909559],[79.63585667993135,11.939499901369938],[79.63894655898032,11.93974308059681],[79.64147952000437,11.938128480972331],[79.64585100103288,11.937993029898731],[79.65264131976579,11.938685398130717],[79.65476999914054,11.939508450167281],[79.65626507978365,11.94381998958347],[79.65944676007058,11.943535770145461],[79.66092672052496,11.943940141283587]]],[[[79.68706382536051,11.96107385948017],[79.68642209013794,11.958562637806644],[79.6864933940315,11.949494144639441],[79.68731688064176,11.948175450723019],[79.68465432095348,11.946816450678925],[79.67900087894272,11.942958870567942],[79.67586527985004,11.944233898856936],[79.67324051969096,11.944328311360891],[79.66816703931471,11.947028128988476],[79.66527552037137,11.947052971559032],[79.66394819979398,11.94599250067028],[79.66120896017081,11.947888350071027],[79.65740952001993,11.951662051019426],[79.65692135923506,11.95372485023505],[79.65797882437622,11.95588666857363],[79.66188827991385,11.953589400361958],[79.66452024016513,11.954040570180597],[79.66510020059987,11.956014630850031],[79.66430675989861,11.957969700332644],[79.66717523917276,11.961115829961242],[79.6674729598365,11.963367450107237],[79.67226420012179,11.962539630231024],[79.67524716046238,11.963080439399034],[79.67660508048564,11.961855900253852],[79.68062592022231,11.963208239282679],[79.68294539927021,11.96577837115481],[79.68671423996223,11.967174540140217],[79.68814092029747,11.966997151922348],[79.69045247965542,11.965242420818699],[79.69074263970117,11.964093210088247],[79.68706382536051,11.96107385948017]]],[[[79.78791816107378,12.014375670201767],[79.77806856002819,12.01680657103687],[79.77745044053417,12.017697300322755],[79.77857219952952,12.022020361021141],[79.77837384034387,12.024395911313706],[79.7802886798473,12.024102240344568],[79.78256207992392,12.022591589617358],[79.7901991200021,12.021801030665296],[79.79320152012265,12.020334255572955],[79.79276267936704,12.017016448890558],[79.79145047963158,12.014747641500197],[79.78791816107378,12.014375670201767]]],[[[79.64392859993806,12.024496080079626],[79.64853659970639,12.02449419049453],[79.65180971974462,12.02164272073573],[79.65457163952016,12.02004144003296],[79.65520532005559,12.018635678572654],[79.65283967947869,12.016016998937785],[79.6513215603284,12.012590430349695],[79.65100080008699,12.008807191465225],[79.65015407982173,12.00619790928813],[79.65001305724492,12.002277299692222],[79.64675136067375,12.00031856886948],[79.64461511932284,11.996298810380218],[79.63960246332292,11.99278932798636],[79.64005283958842,11.991241440959358],[79.64324964051048,11.989328400466013],[79.64376839914289,11.987868331103513],[79.64378351995265,11.984043149927091],[79.64298251973172,11.98207286933123],[79.64087688021205,11.979057328815312],[79.64120937645413,11.974165146830714],[79.63613892003104,11.973314250641382],[79.63468163947549,11.970774631126881],[79.63359840045314,11.970433260351276],[79.63315595941786,11.966988600707612],[79.63032528032439,11.964475619134756],[79.62992856013436,11.962761841050199],[79.62482448072817,11.965038301111719],[79.62414551956248,11.967966089644966],[79.6276741308319,11.970733815362745],[79.62827292012737,11.97454743090418],[79.62790680011265,11.976816149755926],[79.62477875998749,11.979415891337014],[79.62350471961925,11.979925201080516],[79.62087240020095,11.983765589935013],[79.62197112019962,11.985074010480792],[79.6262817598392,11.985429779677819],[79.62931836058999,11.992620510197668],[79.62955488095913,11.99462130022998],[79.62842555962332,11.99636748143977],[79.62535871995043,11.99691108128972],[79.62475572045335,12.009133349811203],[79.61767595981468,12.013447769804435],[79.61906448026124,12.016085581370163],[79.62366491997894,12.017863260589921],[79.62496199990802,12.018770189440707],[79.62519852078921,12.020262750659338],[79.62299351971758,12.026657069869174],[79.62275700014784,12.030072211438197],[79.62460343958016,12.031465500247588],[79.63145460020212,12.028624559457205],[79.63692479974299,12.0279512709016],[79.64136276975987,12.02626106339031],[79.64392859993806,12.024496080079626]]],[[[79.69437396000268,12.030513749551453],[79.69510656048286,12.030961951200537],[79.69962312035497,12.029929199662035],[79.7017593604342,12.027999870807996],[79.70786279967575,12.027146310402536],[79.70958720044501,12.025526040436855],[79.7097319197005,12.023333550025422],[79.70670323999362,12.013946549758028],[79.70629896050441,12.009851459890804],[79.70733648016926,12.004393590635335],[79.71041270316059,12.001174663296558],[79.71228792020152,11.999913211500004],[79.71604919976708,11.996292149620954],[79.71745519536412,11.993237551674541],[79.70856479977296,11.987807309456457],[79.7061232797031,11.987694720351193],[79.70209487979106,11.985086428738605],[79.69804379928951,11.985955199833748],[79.69670726432601,11.984477238148282],[79.69481676025401,11.983970610972076],[79.69010147976509,11.98583603984244],[79.68816359997427,11.984956741537575],[79.68723300021392,11.98154259047794],[79.68377541610566,11.979215802621939],[79.68293747969395,11.979857430345067],[79.68083940050585,11.984465609882484],[79.67749031986322,11.98820592013072],[79.67629224051207,11.988575010026604],[79.67095955992016,11.987261731278112],[79.6675643997191,11.984739298780001],[79.66352087982077,11.985454530953938],[79.66203299968107,11.987828280288287],[79.66164384014228,11.99045177976558],[79.66401659937904,12.006009091799482],[79.66470347993584,12.009070439856549],[79.6630478399662,12.010211009344665],[79.66577159903424,12.010923360767032],[79.66677095979436,12.011940989757193],[79.6684190394236,12.018588029786399],[79.6700836804707,12.023008541743424],[79.6749649205337,12.021438599271868],[79.67652119919973,12.021916411501875],[79.67847455971014,12.02515604902846],[79.68147264066573,12.027607920335644],[79.68371580026265,12.02804090996919],[79.68504348076549,12.031873741278666],[79.68707280027309,12.033043830633764],[79.69437396000268,12.030513749551453]]],[[[79.85509192276116,12.000551275226476],[79.8474654001322,12.002600700241583],[79.83873000014648,12.005347229823167],[79.83306107997788,12.007523520889514],[79.8316955990914,12.008570668539543],[79.82161703973476,12.011242860931809],[79.82496648071465,12.032994240401553],[79.82666027982461,12.03428555925407],[79.82801064008802,12.043762199341446],[79.8295975196624,12.045573720062343],[79.83659375970656,12.041117640032532],[79.83838656112653,12.040837291526532],[79.84584035993015,12.03748227080383],[79.85288987955958,12.033991800854952],[79.86014567964301,12.032513639153985],[79.86477671997945,12.031222321095804],[79.86846628475422,12.030739626281493],[79.86027870123728,12.013783710202194],[79.85554125537249,12.002980582406355],[79.85509192276116,12.000551275226476]]]]}},{"type":"Feature","properties":{"id":"34-504","name":"Yanam","source_name":"Yanam","state_id":"34","source_agency":"Survey of India (SOI)","district_code":"601"},"geometry":{"type":"MultiPolygon","coordinates":[[[[82.22758170378025,16.75688864968983],[82.21782504025052,16.74330582780769],[82.21878624640263,16.739985428657064],[82.22257615833765,16.737273579486132],[82.2282382265479,16.730397476815757],[82.2348533686604,16.729272269725655],[82.25276248683534,16.731070831945374],[82.2715035843834,16.73151236715509],[82.28850566851956,16.734907333381738],[82.29286582520939,16.746658733064145],[82.29687619322314,16.753122984022987],[82.30150038869915,16.75518110633432],[82.30553211147803,16.752529497726982],[82.30885345009295,16.745508531873067],[82.31061608075255,16.735037266814977],[82.3072651048886,16.72633876391557],[82.30264399920183,16.71825695798708],[82.292995258033,16.70966443147529],[82.2841736463312,16.705328762889334],[82.2725163802933,16.702735208163535],[82.26128287867503,16.701915056603447],[82.25439367196978,16.7036141028521],[82.23523584267605,16.716772768833156],[82.22327262681802,16.721856664934716],[82.21036595457252,16.719764057697343],[82.20141074176898,16.720516490736173],[82.18691336275897,16.72832632515987],[82.18244726597094,16.73711012480508],[82.1881424077536,16.74010219481462],[82.19656074598419,16.73922146886985],[82.20459318810313,16.748480860029016],[82.21502369822552,16.755719150582642],[82.21892275342464,16.760230304153108],[82.22546750665144,16.763695154655935],[82.22961278015582,16.76236078635241],[82.22758170378025,16.75688864968983]]]]}},{"type":"Feature","properties":{"id":"34-501","name":"Karaikal","source_name":"Karaikal","state_id":"34","source_agency":"Survey of India (SOI)","district_code":"598"},"geometry":{"type":"MultiPolygon","coordinates":[[[[79.85381345601176,10.98316556670563],[79.85354752423022,10.978204940196596],[79.85375821106365,10.975470247946083],[79.85370859089886,10.968138356487382],[79.8532012807139,10.963690330443928],[79.85275377390815,10.954979700691352],[79.85265468942384,10.939497750479529],[79.85247686492987,10.933463213951237],[79.85332084041067,10.92217510392762],[79.8540486265966,10.91670513480403],[79.85381294641871,10.91194783937351],[79.85285757114009,10.905049280014095],[79.85311428224297,10.889827944833643],[79.85192328104213,10.878411088437655],[79.85193339527447,10.86889845294831],[79.85242541492259,10.858673252388337],[79.85195665276157,10.847020696129706],[79.85243977637394,10.845118866927796],[79.85436567362501,10.84369410847884],[79.85869650590739,10.842747313520599],[79.86134606955716,10.839183115961495],[79.8606263514647,10.837280140482495],[79.85870326043174,10.83608933242419],[79.85605811230089,10.8353733393918],[79.85221133698901,10.833704937411708],[79.85249526341362,10.827239801319683],[79.85193545247523,10.82781747774968],[79.84125333136255,10.82789366898216],[79.83094697635285,10.827336377298144],[79.8296471433671,10.835603807758732],[79.83014975826413,10.838252731908774],[79.82796714139896,10.849625163011861],[79.82514320750333,10.84689142626199],[79.82095917286311,10.845513064333472],[79.81913392507569,10.847331446316845],[79.81931103763883,10.849088820459789],[79.81749061481801,10.849663870500496],[79.81363595674361,10.84991543250868],[79.81165151579577,10.852035503555777],[79.81036598754795,10.852559676026814],[79.80781551440936,10.855571305375983],[79.80805979708359,10.857425080920486],[79.8071855666556,10.859885727884961],[79.80736951281558,10.865397822261565],[79.80953672496233,10.865618684516166],[79.80945216169214,10.863882167458256],[79.81158221695081,10.859608868157194],[79.81575883173836,10.86176350004146],[79.81785186579856,10.863403610900706],[79.822665507768,10.86410029515502],[79.82478522615183,10.86478204235339],[79.82468639080608,10.868986395121985],[79.82350929750982,10.869393286238498],[79.82228742129143,10.87419467900015],[79.81671562457002,10.874324774788937],[79.81580322307933,10.874870592367923],[79.8109885976065,10.875525685703405],[79.81068211024272,10.877830286652955],[79.81118013366925,10.880291742683374],[79.81565860465592,10.880205085579854],[79.81689681075707,10.880580510307079],[79.81918655842718,10.87991116265395],[79.82089180424637,10.881310225491987],[79.822703039,10.88019141877974],[79.82366042262473,10.881013440362464],[79.82843191476942,10.882044392371329],[79.8284618530294,10.883735377229643],[79.82618449976702,10.884734967540545],[79.8231537379489,10.884221506274384],[79.81752211462937,10.88671826358437],[79.8144067405618,10.88676954129433],[79.81172472972786,10.888296390521317],[79.8087096093126,10.887299034904586],[79.80594923958448,10.887830874642136],[79.80421200429889,10.891011574108212],[79.80096346811821,10.89004491681728],[79.79973238187529,10.88733646565521],[79.79808623170027,10.887746022165404],[79.79458130081701,10.887598971041394],[79.79559060385391,10.889549244691699],[79.79516013388583,10.890804385945186],[79.79363541147954,10.891169121900463],[79.79268799834591,10.893570698156346],[79.7902355748253,10.894831529129464],[79.78987173591952,10.890333535384048],[79.78361965513585,10.888396616721215],[79.78203378503686,10.890296039343387],[79.78214836859757,10.894736207064517],[79.78285022734005,10.895380984038743],[79.7877262164876,10.895463628515396],[79.79005877133054,10.896707122090508],[79.79107818735203,10.896013706887677],[79.79232564709629,10.898352663761047],[79.7937627116308,10.898740335473404],[79.79187906436437,10.900191036645165],[79.79111298362277,10.90297750869639],[79.79124288840625,10.90479104298425],[79.79457962166659,10.902068849177574],[79.79528615398706,10.90269102623594],[79.79172804774696,10.906990214766227],[79.78920639732867,10.90839545315391],[79.78211683954268,10.906220572522864],[79.77989119322285,10.908702130368205],[79.77730108834051,10.90890429926228],[79.77694717291666,10.907076353578937],[79.77913370234442,10.90598644174805],[79.77912307928614,10.905226812949893],[79.77657907920315,10.905361393121654],[79.7768807093186,10.89655962769791],[79.76502946016774,10.896232231689178],[79.76516990192411,10.894329376889617],[79.767708623051,10.893478496944113],[79.7678263493352,10.892418593338036],[79.75823735955774,10.892700966386057],[79.75774862564457,10.891428553780035],[79.7561695661175,10.891712148089566],[79.756630350336,10.893038026650883],[79.7557412150046,10.89455809029594],[79.75874499291895,10.896044101395313],[79.76076806244066,10.897978239409715],[79.76226400847598,10.897943606060045],[79.76239110680581,10.900380983068327],[79.7616321166156,10.899197901779306],[79.76014610639636,10.899583034857022],[79.75949501785499,10.898289557919988],[79.75748999212844,10.898647717730146],[79.75776937135272,10.90186329872595],[79.75915037707878,10.900887863540955],[79.75905767944394,10.90337631813908],[79.75760337286196,10.905484039787483],[79.75744734318744,10.907811785083828],[79.7608503453414,10.912342171475862],[79.76276516749138,10.913184789530744],[79.76230597085667,10.91433726097638],[79.75884746303018,10.916561300829084],[79.7542128030899,10.916117497253182],[79.7536475605812,10.91399933854766],[79.74858582021918,10.913997105735628],[79.74325675427512,10.914787970290401],[79.74338985755914,10.91602640579258],[79.74499523130393,10.916089243546592],[79.74497334726648,10.918652074728627],[79.7432394978992,10.917536120046108],[79.7422703858277,10.918892373455353],[79.74367916814226,10.919117990307262],[79.74299990346799,10.924998661749578],[79.73854018418156,10.924226929951303],[79.73939628973378,10.926446014848729],[79.73742017218713,10.925795647529984],[79.73825224859769,10.924814600493924],[79.73543937286122,10.924815308649167],[79.73587942639158,10.92756334514688],[79.73308967312424,10.928377622762671],[79.73122324037357,10.927465030334409],[79.73014872481211,10.928459674309378],[79.72707055725611,10.928541728047733],[79.72457817180913,10.929676779357559],[79.72578255791248,10.934246216839918],[79.72711388798105,10.935226760535903],[79.72946909629889,10.934105278103232],[79.72937384638753,10.936528003501984],[79.72672092623955,10.93645627810983],[79.7267343468137,10.935525160859758],[79.7248775686533,10.936293959828234],[79.72403561657626,10.935200305002155],[79.72326291362909,10.936140619900709],[79.72721519653415,10.937328524840254],[79.72617278224395,10.938734463863808],[79.72517095789232,10.93835952310563],[79.72541414573341,10.940768616565293],[79.72394604364585,10.941297758482124],[79.72562535280053,10.943277153580416],[79.72737744840617,10.943981885736543],[79.7292996490829,10.943625547111468],[79.7308244218586,10.944385787615445],[79.73069428518129,10.9458614381091],[79.73205801785144,10.947764022594956],[79.73705799492139,10.94901934743927],[79.73743890947264,10.952531262777876],[79.73650136403782,10.953001578804411],[79.73658526129574,10.957381403088762],[79.73346096500157,10.957196858187324],[79.73364308706508,10.954746991448287],[79.73243102924685,10.955090801140887],[79.73256698779795,10.951384396602645],[79.72737068648829,10.9513177964918],[79.72574243390017,10.95181534995351],[79.72141057863512,10.951513419223906],[79.71985566450101,10.952553325267877],[79.71962293545089,10.954402037225229],[79.72133818623043,10.954121456907608],[79.72093187324569,10.956725038551768],[79.71906569212265,10.957136725143506],[79.72036045389885,10.957936504349089],[79.72090694489941,10.965010142678528],[79.71957225484533,10.96846366033407],[79.72154404788432,10.96912769911407],[79.72162610629373,10.968210130510819],[79.7235432717425,10.969714881152017],[79.72483758912813,10.96890101290809],[79.72999775968427,10.969446779534323],[79.73054701976653,10.970409402631327],[79.7317954623676,10.96926104010809],[79.73515772975274,10.96936418269469],[79.7354132255186,10.967456695584094],[79.73883940016903,10.96724338482712],[79.73999107770102,10.964309627569099],[79.74173012227556,10.966388345613227],[79.74465308914787,10.966161545865265],[79.74629711951668,10.964945212535604],[79.74536992719635,10.962676454080544],[79.74533562088041,10.956755313493716],[79.74926177500392,10.958414615624179],[79.75105298588478,10.957879438690485],[79.75392692445699,10.958817971811195],[79.75535638323744,10.958362679893167],[79.75676898751077,10.959742821809947],[79.75919946487947,10.960598142437362],[79.76040656418454,10.959703373455373],[79.76384259184461,10.959717269805838],[79.76274727775312,10.96124092655062],[79.76163481338638,10.964695104503681],[79.76268431903384,10.966485169151737],[79.76045189417486,10.968063468938555],[79.75946357283844,10.97187934880824],[79.75662265262781,10.972862374639703],[79.75465938038029,10.971837112383936],[79.75467307434937,10.975128480166816],[79.75257582505647,10.977701487925053],[79.7554758231447,10.97792578712249],[79.75558303842509,10.979390920800476],[79.75833269596502,10.97980438749099],[79.7583924711673,10.983471529294325],[79.75575775851883,10.98380434946403],[79.75497460306279,10.98288788227404],[79.75278307252506,10.982824675977962],[79.75282715163475,10.987590058586903],[79.75061355566767,10.988426453639574],[79.74744627521416,10.988076628310168],[79.74830518785062,10.990021960376502],[79.74801482798668,10.99642740175203],[79.7484689209955,10.997853151134438],[79.74699447064437,11.002408752054368],[79.74754057081992,11.003125360695094],[79.75244822238349,11.003152371494636],[79.75387629709797,11.002529793832352],[79.75486450379749,11.00367091851879],[79.75633810417226,11.003636295941181],[79.75697837882745,11.002316621603656],[79.75873429676783,11.001860240752505],[79.76057602601207,10.999132437391719],[79.76174216388378,11.00115044286559],[79.7626963150839,11.000940528089089],[79.7631480511772,10.99905704485046],[79.7666285631204,10.997296706605049],[79.76831008854295,10.997879999644478],[79.7706148676575,10.997134271958224],[79.77190650731715,10.997957806823653],[79.7755097536903,10.997470532476875],[79.77848855254727,10.998621819519183],[79.7799355775862,10.998374505174132],[79.77877488674697,10.996873294339073],[79.78347406176754,10.994735586357084],[79.78343880253502,10.996638885576221],[79.7859572649847,10.997327098188626],[79.78807124373634,10.994012546961056],[79.78892466042075,10.991199183784161],[79.78598737138525,10.989971324293311],[79.79112353329278,10.98582247726108],[79.7915005326777,10.984635393896834],[79.793808244742,10.98304433032454],[79.79766800747468,10.982449256899892],[79.79935504990559,10.982799535008036],[79.79887280755534,10.985514928472796],[79.80354890755588,10.989007885607046],[79.80451777858019,10.991019131179604],[79.8036994282376,10.991965311900362],[79.8061552127934,10.99290413662073],[79.80333819590443,10.994746715693088],[79.80354374013834,10.996796390207365],[79.80484804152306,10.998402000333956],[79.80803104603721,10.99983783720654],[79.81238127860787,10.999021587393585],[79.81420251180971,11.000007485874862],[79.81477197453147,11.001411798984165],[79.81400292259777,11.003075357183704],[79.81607317706269,11.003705097156647],[79.81920817543866,10.99908782776829],[79.82112451405203,10.998162781536312],[79.8219183685278,11.000341740458595],[79.82371084194746,11.000308976477363],[79.82526950385547,10.998516135642909],[79.82781160494876,10.998089456765198],[79.82919501785881,11.002139041767867],[79.83315699885617,11.0027131569029],[79.8376317830267,11.001500230534596],[79.84001300271322,11.001427214652393],[79.83932292490864,10.995794979624417],[79.84229858106487,10.995726973306672],[79.84327524164699,10.994679009081233],[79.84493459164818,10.994849162803508],[79.85056991993842,10.9943562959903],[79.85175425281412,10.992462685579165],[79.85058391277931,10.99020020628643],[79.85054032770714,10.987633944288437],[79.85182399539711,10.98379840805165],[79.85381345601176,10.98316556670563]]]]}},{"type":"Feature","properties":{"id":"34-502","name":"Mahe","source_name":"Mahe","state_id":"34","source_agency":"Survey of India (SOI)","district_code":"599"},"geometry":{"type":"MultiPolygon","coordinates":[[[[75.53251336533533,11.757101711949645],[75.53216079658353,11.753983984054786],[75.53588582207708,11.748763938910072],[75.53866607038407,11.747292213376353],[75.53968408317391,11.745100175749892],[75.53958418221455,11.738378313945535],[75.53879688501465,11.736384829363114],[75.53702754134929,11.734680989767691],[75.5313169897583,11.735332507301484],[75.52912896818914,11.733130613537618],[75.52938542729105,11.73042549287056],[75.52795192467089,11.728321628639433],[75.52689813080536,11.72345338408306],[75.52741083590008,11.72154723610448],[75.52749991904257,11.717216828770463],[75.53023918449385,11.717043474316569],[75.53138037869769,11.715887576801636],[75.5301957596658,11.71186136553408],[75.52891453446304,11.710836962284347],[75.52991980666398,11.7090033653047],[75.53296813501112,11.708977134358783],[75.53298618899915,11.710933994096715],[75.5359341467731,11.71122571464715],[75.53729036623768,11.713144527088414],[75.53444080548122,11.713539191363001],[75.5333377819249,11.716374770139439],[75.53497806653401,11.718436904486888],[75.53967220145412,11.715411399636144],[75.54341581730664,11.716920028254233],[75.5457078394286,11.717227786133808],[75.54814567866293,11.716561806492134],[75.55245907119472,11.719360919188833],[75.55436157996229,11.718827790384307],[75.55658133807198,11.719541790822541],[75.55831455509514,11.722446204871268],[75.5578466047884,11.726414375415517],[75.5542930767532,11.730541482999158],[75.54408955686934,11.735277900996127],[75.5455112365022,11.740543366301813],[75.54559236057176,11.74272228512769],[75.54472371005264,11.74466719814509],[75.5454965576079,11.752482998190297],[75.54455441765451,11.755590988367587],[75.54518541209666,11.75896902244975],[75.54269915525727,11.76061699589644],[75.53481074198695,11.759628787661585],[75.53251336533533,11.757101711949645]]],[[[75.5365769283701,11.693062687383826],[75.53375435762224,11.697993761665884],[75.53132884770926,11.700303925583608],[75.52904319130145,11.70128997696419],[75.53000649782612,11.702934676520936],[75.531948148061,11.703821822418242],[75.5338919551775,11.707905462411944],[75.53561823211017,11.708652788594426],[75.53865964752544,11.708579252625368],[75.54086585609073,11.70605221803423],[75.54409261969393,11.703737172238142],[75.54213937461532,11.70133861148183],[75.54161508624037,11.699779938074176],[75.54132593092366,11.695010499488925],[75.53994562701425,11.69522107468291],[75.5365769283701,11.693062687383826]]]]}}]}
