{"type":"FeatureCollection","features":[{"type":"Feature","properties":{"id":"38-142","name":"Daman","source_name":"Daman","state_id":"38","source_agency":"Survey of India (SOI)","district_code":"463"},"geometry":{"type":"MultiPolygon","coordinates":[[[[72.82062156644214,20.368339479590635],[72.82052867195581,20.36998583609652],[72.8220262317484,20.37668299894835],[72.82350696396466,20.379871918939173],[72.82434840684132,20.383419820779714],[72.82579775636157,20.387191800673968],[72.82677847372985,20.395812778852072],[72.82597355230885,20.406881251449672],[72.8264344321587,20.409826347397896],[72.82845010490121,20.414599908869217],[72.82788290470091,20.425095405255288],[72.82729195072902,20.428379759122517],[72.82720397463314,20.43383183001559],[72.83203630009685,20.447704685188416],[72.83699920841458,20.455347874491196],[72.83933758432768,20.457993326400302],[72.84411945345562,20.461340442920662],[72.84855193994709,20.46350144472112],[72.85132412966229,20.465777736420694],[72.8534567242721,20.468413124715404],[72.8562886672495,20.47052629133036],[72.85812030184161,20.46564923697271],[72.85978533366504,20.46463257000185],[72.86660770694733,20.463384184557626],[72.8704807152097,20.46348161725524],[72.87726011157008,20.46175656661096],[72.88023467827762,20.461847733084987],[72.88529751041034,20.462618322520377],[72.88800353221983,20.46070333944038],[72.88713659442641,20.454917236472408],[72.88735832157526,20.452475531694898],[72.8887192345429,20.44944573250439],[72.89146725740702,20.44765240865364],[72.89532909848224,20.444300916267647],[72.89144812394018,20.44089866041806],[72.89016719944941,20.43864659571732],[72.8870018488239,20.438297949976697],[72.88208533380892,20.440006257253266],[72.8789055911723,20.4416545278128],[72.87685070004663,20.44463606999437],[72.87492353991745,20.4455326859449],[72.87205540508347,20.441534915799675],[72.86934590964539,20.43853210019736],[72.86803137665845,20.433869593524758],[72.86501455234188,20.429021070477468],[72.861596930408,20.427874985877466],[72.8607508963105,20.425901228193386],[72.85741854260569,20.420950040229357],[72.85725939742392,20.418917059070136],[72.86264601617198,20.416767182002953],[72.86490500651564,20.417298613753783],[72.86853290450772,20.416344150223768],[72.87036071050979,20.4138134311515],[72.87207135692623,20.413962985177626],[72.87468923527818,20.415312331778047],[72.87506159190848,20.416607448531767],[72.88008358849613,20.416968945247994],[72.88157332395087,20.419417445333778],[72.88323618315589,20.419913276595302],[72.88499584429333,20.419150157827634],[72.88919669447225,20.419028027139323],[72.89111414294102,20.419602634021487],[72.89172301491539,20.42136236411466],[72.89311289347968,20.421713903329398],[72.89790143166819,20.420602213184047],[72.90137663137776,20.41606314282377],[72.90404738233835,20.41489796062075],[72.90177461375426,20.410128070331986],[72.90326365548219,20.40985591904951],[72.90259505953125,20.405787327793558],[72.90041695829109,20.405251109662874],[72.89904553565218,20.403234239293504],[72.89696365169452,20.40172211097156],[72.89482526239036,20.401516738180813],[72.89320629871355,20.39986325079931],[72.8900801328258,20.398982560383782],[72.88771043676769,20.40002044974388],[72.88519796313037,20.3979375899404],[72.88280830839342,20.397890451554435],[72.88332844059934,20.39278754557324],[72.88404723473055,20.390580170222158],[72.88704748498145,20.388249054605797],[72.88690478597803,20.38544598474424],[72.88974786935141,20.38338938848252],[72.89619874260033,20.380346593817904],[72.89616017172803,20.379060558831185],[72.89150085065081,20.375644403404618],[72.89067569653452,20.37264087567407],[72.88759733262447,20.372793439902562],[72.88297179269736,20.372306041538685],[72.876679798247,20.369764366325768],[72.87135148851506,20.371277535907222],[72.86566471079837,20.372283186224383],[72.86428038910984,20.37515367391911],[72.85813662648732,20.3740336781159],[72.85617348999472,20.372054865452508],[72.84577565576286,20.374882564913516],[72.84385980344257,20.374836773905084],[72.84143744787625,20.373592925100613],[72.8359517878136,20.373306773091848],[72.83039932721628,20.36793096701732],[72.82616664436395,20.36641119209652],[72.82062156644214,20.368339479590635]]]]}},{"type":"Feature","properties":{"id":"38-143","name":"Diu","source_name":"Diu","state_id":"38","source_agency":"Survey of India (SOI)","district_code":"464"},"geometry":{"type":"MultiPolygon","coordinates":[[[[71.01344737292996,20.73788624813821],[71.00837090701195,20.737013242880494],[70.99847442047837,20.7332108390934],[70.99454484210581,20.730529115282916],[70.99074559402656,20.725414666700875],[70.98997749882575,20.723377953340176],[70.99047564820977,20.720628282862577],[70.99224736955603,20.717443291826765],[70.99420482184318,20.716098200966673],[70.99823117715393,20.716340615432866],[70.99829062169873,20.71546640843096],[70.9960209864828,20.712257526294646],[70.99305275453149,20.710176913702806],[70.98698569477524,20.70907987896915],[70.98194168006552,20.707055145264153],[70.97921939090139,20.70553933328438],[70.97713501918683,20.701902436815395],[70.97563422993285,20.702250764765186],[70.9758247405963,20.704017831795802],[70.97303513514117,20.705143611489113],[70.9712994944497,20.704256713435914],[70.97000111747222,20.705056102061683],[70.97042879681568,20.70676435619366],[70.9686658456613,20.70753568534545],[70.96604006958958,20.707240557335783],[70.96503149642488,20.70626560492495],[70.96195952849786,20.706073038226517],[70.9596802843223,20.707144538971665],[70.95505185775019,20.70450933625541],[70.95231097202172,20.704022815432435],[70.95006661418711,20.705533417949027],[70.9455313051863,20.705917220462226],[70.94433241594803,20.705259419433503],[70.9431302801516,20.70647455342934],[70.9378128889613,20.708472768887116],[70.93805682170866,20.70948771055364],[70.93148095118963,20.711283591761596],[70.92719763623003,20.7113895316605],[70.92029939057599,20.70994672739208],[70.91658816747643,20.707380507084803],[70.91546195336667,20.70453235406035],[70.91729768574555,20.701571539518486],[70.91332182577555,20.699506472142197],[70.91136845516039,20.700003708734247],[70.91182963624618,20.70138556923986],[70.91053395163834,20.70225746221383],[70.90974642599036,20.700830536880094],[70.90664112448714,20.700880845597826],[70.90173934904297,20.699455262396626],[70.89753381007452,20.699565063336998],[70.8972637782016,20.701231103220614],[70.89857716983208,20.702481470194837],[70.89800247649194,20.70405582175082],[70.89608337754345,20.705876816244576],[70.89368379946451,20.70693839886051],[70.88870602541921,20.708098217669033],[70.87825130477138,20.70863126976803],[70.87486454051877,20.707515980582734],[70.87391529644263,20.705607176608723],[70.87170740534917,20.706783982695427],[70.87080459183473,20.708655044539935],[70.87208887760723,20.710627360980254],[70.87197784623706,20.712592845838547],[70.87286120458016,20.714840212563658],[70.87304761438467,20.717464384469523],[70.87521802895685,20.720652004977477],[70.87596696628599,20.725754763129768],[70.87806484490716,20.72853666543659],[70.88047480629646,20.730103715540718],[70.88488658744703,20.731652505097635],[70.8938685148968,20.73238786613709],[70.90195799258831,20.73485253210526],[70.90541811033219,20.7365675975604],[70.9101052545963,20.73683808445509],[70.91142070833735,20.737357173637992],[70.91338981615984,20.74014327067028],[70.91586274614171,20.742025932309478],[70.91949255141043,20.74309530703954],[70.92267015977352,20.74110281366552],[70.92429263005675,20.740664218565293],[70.92501687460968,20.738487237794896],[70.92659577543229,20.73705964667976],[70.93101107147763,20.73700813031418],[70.93850932614993,20.732430957540068],[70.9395030428766,20.732403495858687],[70.94694496508376,20.734599895751003],[70.95414132229217,20.734921815629857],[70.95986961906736,20.736779703945327],[70.96140546115973,20.736069892837858],[70.96330023135414,20.73357144452116],[70.9643540247006,20.729614717418873],[70.97118942458896,20.728734841607608],[70.97483218971409,20.727526857334944],[70.97688058804191,20.72548434142325],[70.98055095837672,20.722718200737376],[70.98160710337919,20.722943307374578],[70.98362908053005,20.731035122492727],[70.98562274183443,20.732935083846552],[70.98869547207059,20.733416289054084],[70.98999293465661,20.73509998308971],[70.99375758434076,20.736258056438604],[70.99560488429888,20.738740929555647],[70.999195165937,20.740467667689256],[70.99961117518457,20.74198567312139],[71.0021150232713,20.741758457579515],[71.00666671574398,20.7377053603502],[71.0109731561328,20.739490441261804],[71.01310607933254,20.739901415165868],[71.01344737292996,20.73788624813821]]],[[[71.15256639894231,20.761919915405635],[71.15507395069064,20.76115957359411],[71.15464111733374,20.75952143519501],[71.14991377856943,20.759425603144795],[71.1513258313831,20.761254097493882],[71.15017006135457,20.762304028927026],[71.15201329863461,20.763720331837185],[71.15256639894231,20.761919915405635]]],[[[71.14972881553688,20.77143091872248],[71.1496070715448,20.761833127438745],[71.1485777725262,20.76060531010402],[71.14848858668601,20.758460680813574],[71.14603325479538,20.757957292931486],[71.1456179116085,20.760661508295005],[71.14722039235278,20.766082472538177],[71.14881775899869,20.76717686071295],[71.14972881553688,20.77143091872248]]]]}},{"type":"Feature","properties":{"id":"38-155","name":"Dadra And Nagar Haveli","source_name":"Dadra And Nagar Haveli","state_id":"38","source_agency":"Survey of India (SOI)","district_code":"465"},"geometry":{"type":"MultiPolygon","coordinates":[[[[73.21066210487838,20.120516858083327],[73.21501368023861,20.119238931791028],[73.21464150156444,20.113635079436744],[73.21374212625352,20.107206690937474],[73.2136951457529,20.104412153093264],[73.21253835503538,20.10023185772932],[73.21309228547082,20.09111537222919],[73.21060138243257,20.085890779523634],[73.20669676916164,20.081195652766695],[73.20411346209791,20.078712305546713],[73.19936034589816,20.07768699933792],[73.19698023632102,20.075481295320074],[73.19466638241437,20.075844866305264],[73.19256620239102,20.077428459052996],[73.1892491142995,20.077315136080994],[73.19030434517715,20.07280176356038],[73.18863324871738,20.069990401608926],[73.18927421962186,20.06854674532274],[73.1880723200435,20.065635543319075],[73.18862429140938,20.063733724313632],[73.18742620118147,20.059281121705965],[73.18849298575536,20.05632210592323],[73.19016528159172,20.056647362005865],[73.19270098383575,20.054353202968798],[73.19297031710651,20.050411803728],[73.19214412246481,20.049563835299637],[73.18856291295354,20.0509568248236],[73.1853145991976,20.04982440132308],[73.1838967020104,20.0503674322956],[73.18053979879618,20.04904540430641],[73.17903983582504,20.047574625655304],[73.177824755737,20.051343371757405],[73.17456764914849,20.051544140185833],[73.17105437614833,20.052318884375726],[73.16835718389584,20.055676467311994],[73.16634420774463,20.054951252929573],[73.16535588776382,20.055990451861813],[73.16463296641352,20.060314278961258],[73.16124918291223,20.06332207607724],[73.15812550198083,20.062687708766177],[73.15721735257397,20.06372497944875],[73.15776409428283,20.06568819990423],[73.156217731032,20.06574030677996],[73.15537096671189,20.069349632292052],[73.15357633164626,20.071399662303488],[73.15342490657044,20.07311204326371],[73.15523729955954,20.075422724408032],[73.15342727462281,20.076848619239392],[73.1495681196387,20.07837643311959],[73.14956577514496,20.074845092805244],[73.14759812339173,20.07355559339748],[73.14372619530924,20.076173761104087],[73.14288970084122,20.07942877451851],[73.1417550606697,20.079913460170356],[73.13976469819545,20.078176516737305],[73.13853560341357,20.078315320080545],[73.1368600875834,20.080606983105252],[73.13816252417436,20.084148698757872],[73.13708835914927,20.08605397025858],[73.13410571482966,20.085855046488092],[73.13190556075455,20.08184159137998],[73.12946409533619,20.08168211744766],[73.12658737815337,20.08285672620685],[73.12569011609294,20.08177670464942],[73.125170791679,20.07839953590541],[73.12401424199189,20.078119802039357],[73.1211861588546,20.07925467635284],[73.1196187069533,20.078830612098137],[73.11994724904004,20.07633780509927],[73.1191783094137,20.075162276414925],[73.1151488957189,20.076539763847823],[73.11264968071156,20.07443292889945],[73.11098825235756,20.07467902252253],[73.10756368540007,20.077647725965175],[73.10617149969772,20.08139881558672],[73.10705868437383,20.084796532091254],[73.10524959042746,20.08856451044104],[73.1039173080553,20.089777576703924],[73.1017366332993,20.089943519874875],[73.09676500801969,20.089291931348384],[73.09098075048091,20.090590865774406],[73.08411706021933,20.091358114572753],[73.07827661874,20.094392691349057],[73.07451716688486,20.09541836871489],[73.06765429601282,20.096338647578957],[73.06396237406521,20.098437050726087],[73.05568817325664,20.09885796984212],[73.05394970450797,20.095031401050186],[73.05244777048526,20.08952323369973],[73.05314157432859,20.086892279214894],[73.0527107888486,20.08470951904057],[73.05279432614284,20.07956666395543],[73.05331136393256,20.07867264223789],[73.05237308118012,20.07102367585616],[73.0525749906241,20.06450869348448],[73.05175249537734,20.063930810991884],[73.04805323780147,20.066524973400046],[73.04486378764399,20.065352788209736],[73.03955310177263,20.067175203384373],[73.03841825594455,20.0683102597596],[73.03364850587207,20.075495395950394],[73.0286250967284,20.081572432678882],[73.02714121108176,20.081601935236655],[73.02483547276178,20.08288578552373],[73.02346527139947,20.084630867936596],[73.02199197695766,20.09012653738229],[73.01993750187376,20.092152171156286],[73.01406573244833,20.096295152023625],[73.01311416870492,20.1010367130578],[73.01134670063065,20.10458237175619],[73.00834594835611,20.10827550142603],[73.00522299661347,20.11056911446457],[73.0012436269241,20.111760956852592],[73.00023293500094,20.116559951218118],[72.9987239890336,20.119441330405177],[72.99984648559779,20.122555830728484],[73.00202376156057,20.124697772321706],[73.00508216413974,20.125272737525528],[73.0122760322249,20.129477964721506],[73.0115489123163,20.130977994965455],[73.01147285693195,20.134208796489606],[73.00857578306075,20.134056841930576],[73.00425679294041,20.136729199670786],[73.00341721915264,20.139849965878923],[72.9980094897462,20.14266919713733],[72.99479782875456,20.13733939904773],[72.99576611829957,20.132955606058964],[72.99511178208135,20.13051980747729],[72.99243243837235,20.117755131851467],[72.99154029494565,20.116844604968634],[72.98945803219264,20.11698895388842],[72.98262661831231,20.116384047064624],[72.97879139442368,20.115260515044724],[72.97766601834785,20.112982764705585],[72.97212323132788,20.11491550975361],[72.97003402118578,20.117608821905456],[72.9690905472265,20.124072476266306],[72.96460169290657,20.126202597197686],[72.96328474133367,20.129236753582948],[72.96169388248371,20.13146520837754],[72.96069128975915,20.134345143549506],[72.96159717758427,20.13739186804726],[72.96438588227842,20.14335343654805],[72.96843031560064,20.150050898480718],[72.97056033063471,20.15284639020579],[72.97355405601998,20.15791016327298],[72.97426893911705,20.162128555055332],[72.97344580311744,20.163405089676],[72.97319902692655,20.171677340194766],[72.97460981393982,20.176040685727813],[72.97734502775893,20.179359303932745],[72.9768984486872,20.18067540134782],[72.97450339685373,20.181617917665545],[72.97276238005682,20.181480844386112],[72.96756500740904,20.183130084648685],[72.9630513065837,20.182252625599315],[72.96175723111921,20.184163226675636],[72.96122365343015,20.18802925811018],[72.96177766583762,20.191582001326477],[72.96038700011718,20.19627935516586],[72.95987581561046,20.200013284497725],[72.96129867310918,20.20864862880344],[72.96264621815399,20.20971459196012],[72.96471145857949,20.213809794107796],[72.96473338259966,20.21732252840143],[72.96603119205662,20.22391843008097],[72.96557671505325,20.224852757035233],[72.9603257364536,20.22945559454694],[72.95874260445946,20.233200602726072],[72.95390087732278,20.236971204812527],[72.94960549313943,20.23889442703003],[72.94602777281717,20.23978837884035],[72.93999585871543,20.24254504454098],[72.93706783294616,20.243322269430138],[72.9308993171547,20.24283496833339],[72.9294752358745,20.244702209554596],[72.92864053474439,20.247833565570822],[72.92739708351003,20.248898906489583],[72.92383722264833,20.255434205578254],[72.91878494265907,20.25708140536533],[72.91819856387272,20.258475673905433],[72.91769524622192,20.26305973622799],[72.91625369382696,20.263817271078892],[72.91477952533226,20.26630358100663],[72.911913337989,20.269643855686915],[72.91214430670891,20.275553303046426],[72.91645845673507,20.27597428791087],[72.91738120634326,20.27807970444201],[72.91690867257903,20.28134631948576],[72.9199358839313,20.281703500915118],[72.91992545479403,20.283270411009994],[72.92121065422836,20.28331466772222],[72.92690445128349,20.286190650060764],[72.92891686403694,20.28841887381079],[72.93026794055261,20.290994381916118],[72.93138772263977,20.295093925369024],[72.93252315724884,20.29537635518697],[72.9341467262098,20.293790387112807],[72.93587370159042,20.294776543531047],[72.9413287606372,20.293357651109645],[72.94235366922098,20.291561925892253],[72.94710869775729,20.28767578845542],[72.9482767103533,20.28810833980352],[72.95048361662856,20.285738760027304],[72.95484893169248,20.284385384708393],[72.95618584718066,20.281895587998527],[72.95560245067102,20.28020040972051],[72.9580515870247,20.27755898787006],[72.96146173075945,20.275091720446483],[72.96271097574972,20.271289603472937],[72.96685540478703,20.270719027079327],[72.97329392655442,20.270420146810302],[72.97405551200855,20.271991323816106],[72.97947523713945,20.27345757326523],[72.9812187130757,20.276211939510198],[72.98060741341529,20.28204464654846],[72.9812207753804,20.289859127379447],[72.98488298501113,20.288187196343184],[72.98663794998944,20.29019327572134],[72.98863219789533,20.291356204539408],[72.99358074120269,20.29251950391584],[72.9999070145767,20.291224013232604],[73.00106974580802,20.29173059136069],[73.00592102838543,20.288988015115645],[73.00965344340304,20.29080611056372],[73.01080585708787,20.292401214598485],[73.01070170210784,20.297423333358868],[73.01205637875734,20.30078217517411],[73.01095716489924,20.30154250116649],[73.01005493481051,20.30459503946253],[73.00995414181708,20.30787364492901],[73.00677768204308,20.311884627936138],[73.00760362612647,20.312476370290995],[73.01250738153593,20.311076511029498],[73.01221986215185,20.309253002106406],[73.01681579578582,20.309662191303584],[73.01745749268427,20.30547195775729],[73.01608633649921,20.29365650423088],[73.02175346292829,20.292575032943397],[73.02411453270535,20.29080144562559],[73.03001692049921,20.290456968644765],[73.03462615495894,20.291448499236758],[73.03571361906614,20.29248462679147],[73.03573875326245,20.296123484587564],[73.03659483771784,20.306046566235786],[73.03787542423902,20.3103107128728],[73.03820188013489,20.317379028917955],[73.03924392400675,20.320373972303493],[73.04133313372562,20.323695967006152],[73.04293608964903,20.32531903087552],[73.04818594432011,20.323729264369163],[73.05211166892012,20.324322591851956],[73.05620000793691,20.325602417008064],[73.0614321318943,20.328160636374516],[73.06491256962211,20.329232187940903],[73.0680632201134,20.32901201223172],[73.07094078296225,20.32483881080998],[73.07748786835997,20.323013349452765],[73.07880847906924,20.32571815045019],[73.08221676221108,20.328275260302235],[73.08488789687993,20.331145259838667],[73.08673943958264,20.336717487712097],[73.0907824721632,20.344879409558118],[73.08914043039385,20.348709093515673],[73.09012780981766,20.35440388787805],[73.08992531442041,20.35844451211872],[73.09225558504062,20.35959876696088],[73.09709228319288,20.36019949047479],[73.09863949018039,20.35828095503292],[73.09928179644363,20.354356326714043],[73.10231332730858,20.35368824313019],[73.10537860539489,20.349867726744204],[73.10458875602869,20.346841717585562],[73.10517799635757,20.345197810039675],[73.10752525346857,20.343274627537852],[73.10912147268657,20.338366230332724],[73.11105422809726,20.337552148859796],[73.11136083878986,20.336043572566012],[73.10938630947528,20.333055647663365],[73.10824457731101,20.32793183970515],[73.108758268783,20.323835501734248],[73.1069409895744,20.31946227403549],[73.10438421984279,20.31542765362163],[73.10169418840312,20.305132432226088],[73.10136330824369,20.302879612685615],[73.10376647083169,20.301424592127272],[73.10802190301165,20.304401262164824],[73.11143535672778,20.303656377731837],[73.11436510418963,20.304081149696025],[73.11710820170128,20.30540453101437],[73.12010982935112,20.304248530959857],[73.12402103050132,20.303679466092433],[73.1262691768392,20.304814944475304],[73.12620648478217,20.308776254754],[73.127295673037,20.310986956200594],[73.12810010726226,20.31463625641244],[73.12930659444042,20.31751774361079],[73.13876395183826,20.316839377786017],[73.14043325410759,20.31749900132479],[73.14957291128745,20.317529528448187],[73.15134739193907,20.317277121845322],[73.15879338154082,20.30853858261079],[73.1604053698392,20.30824641317284],[73.16250718661645,20.30946545513273],[73.16517869316372,20.309401623874244],[73.16586238072166,20.306416066696684],[73.16534463755855,20.303539239598834],[73.16343365548923,20.299872392401397],[73.16300202442065,20.297045081150497],[73.16475347444027,20.29430323947583],[73.16577187542781,20.28997178158473],[73.1647939342272,20.284285837589415],[73.16329191838275,20.282912054821583],[73.15806323221219,20.28118441680674],[73.15455822445182,20.282502931807077],[73.15246380158896,20.285882555092215],[73.15164162309013,20.290679164755865],[73.15064107886738,20.29160060863024],[73.14520745406772,20.288534738252007],[73.14398671180616,20.28747798682527],[73.14294812190515,20.283400587190325],[73.14139290573581,20.280608168881393],[73.14085012558525,20.275469076717275],[73.13744204338688,20.27310276355752],[73.1357525762594,20.2747920337707],[73.13394550342122,20.27411048097995],[73.13056417116745,20.275054228335446],[73.12934825572728,20.268663493519362],[73.12650996024053,20.26320321289435],[73.1253229693378,20.26158624862309],[73.11899130280746,20.259341469792474],[73.11414789606626,20.258885144311705],[73.11067375694913,20.254666563235244],[73.10838155884794,20.25253463848526],[73.10729711803768,20.25059360026458],[73.10766954446747,20.248616284016464],[73.10570560668296,20.245319787369887],[73.10352599436013,20.24445981506007],[73.10084407374,20.24045777415292],[73.09803755885967,20.23935519908796],[73.09726942982459,20.236113055369536],[73.0984106640528,20.234937157300482],[73.0978381138181,20.233613753088992],[73.09915907171364,20.232014719829568],[73.09793304172725,20.229327469868803],[73.09182302113312,20.228423458981293],[73.08946442944506,20.22676880970041],[73.08568146860968,20.227645208289708],[73.08444732703069,20.23001704805716],[73.082637232906,20.230899697690116],[73.0757709340148,20.23174337362233],[73.07063856663405,20.232054603872857],[73.06736193550407,20.229311381471092],[73.06362465534195,20.227643395758875],[73.06265606637804,20.224009806226448],[73.06015557959458,20.223345110810385],[73.0583092851179,20.217758478366918],[73.05526443798058,20.21224783929237],[73.05514342459088,20.20902387806601],[73.05359445237059,20.205398841830345],[73.0490441887713,20.200215960320072],[73.05076171514445,20.197867270264645],[73.05341929132801,20.195437284257668],[73.05784011255916,20.19382370139265],[73.05973693433191,20.193813011167563],[73.06226636112422,20.184263354832467],[73.06299520763024,20.177619113160183],[73.0622702245672,20.17287678407288],[73.062831141957,20.16975968613659],[73.06066563187781,20.166970600325083],[73.06043165730848,20.161901849110777],[73.06450892549732,20.158658600586353],[73.07265928806821,20.15497875811201],[73.07433559551609,20.15647584717006],[73.07475890151565,20.16057046770361],[73.07617117991785,20.162550496989393],[73.07664731356414,20.165755705461486],[73.07775949047,20.167011215018636],[73.07784600624989,20.16964366664034],[73.07941488112637,20.1731699942117],[73.08363881749358,20.172273382524867],[73.087237715473,20.170331362565015],[73.09025886437398,20.163390406900252],[73.09040613335561,20.160506108869093],[73.0953018693815,20.158834557079235],[73.09960030904048,20.156230872663432],[73.10406107202034,20.156917750804975],[73.10689124323282,20.157971137648236],[73.10830601334366,20.157848981501065],[73.11070766831646,20.15634917898791],[73.11383837680268,20.152101147551328],[73.11585181593901,20.15218041959303],[73.11671659356375,20.155826797856975],[73.1150263986395,20.158895903060948],[73.11585644138714,20.1622246685892],[73.11787045319352,20.163845345937844],[73.11967569524673,20.16404710428671],[73.1190313784252,20.16752897909184],[73.1225491226125,20.17068816267523],[73.12477693823399,20.17060417499042],[73.12853966690737,20.173405592177282],[73.13129505251182,20.17024471837872],[73.13301054091787,20.169291185929506],[73.13623008989454,20.17004035074124],[73.13717536970626,20.171052849062512],[73.13875893615077,20.17469466990309],[73.14206249374327,20.177370124388194],[73.13968504694105,20.182242143974076],[73.13914865228719,20.18447489602298],[73.1348643964905,20.18460387318901],[73.13340701146512,20.188607260763803],[73.13279854200269,20.19196612578491],[73.13254047491336,20.1997857793598],[73.13318337133953,20.20577372283269],[73.13759769605154,20.20752306903475],[73.13871176992915,20.204513840814688],[73.14214183255294,20.20285680028961],[73.14514643300151,20.202285539139027],[73.14776467137153,20.20074401913787],[73.15243765682445,20.203906372703443],[73.15693863438736,20.19847688222637],[73.15737213412474,20.198354032542472],[73.16569102025923,20.205928742084094],[73.16848156614847,20.208236940772107],[73.16908143522895,20.205472054249846],[73.1689173490384,20.203024384559544],[73.1716619019006,20.19844741249405],[73.1769384525371,20.199333319568424],[73.17899216929449,20.197758177019416],[73.17946852785683,20.195606549230437],[73.1781375804281,20.192647884511448],[73.1805813418763,20.1923276595968],[73.18195499091361,20.19439205029383],[73.1902228108945,20.19510323832983],[73.1919117185561,20.197435570107498],[73.19900250590626,20.194462925575646],[73.20333417206189,20.18995130317613],[73.20686233355235,20.18814366818531],[73.20843748927705,20.189504163176654],[73.21177871353241,20.18792098052908],[73.21533657773057,20.18743132250076],[73.21784322707099,20.18597208255769],[73.2183801393894,20.181521149746725],[73.21584610451433,20.174716330636084],[73.21424900741209,20.171632100618563],[73.20572634110991,20.16418089422543],[73.20122679220985,20.165317281598412],[73.19826459405982,20.165280008367464],[73.18986089422631,20.164268324592214],[73.18796261912563,20.15771171334937],[73.18557203479507,20.155843431063754],[73.18471502990843,20.14729027396556],[73.18565374244687,20.137406522219685],[73.18726414963629,20.13305411197649],[73.187180230531,20.12945665958608],[73.18888790030266,20.1276805806193],[73.19274756729821,20.127798173242446],[73.19763599785168,20.126325594538347],[73.19900496359118,20.124262854137708],[73.20059165245736,20.12345171640313],[73.20247526044474,20.1198886118163],[73.20426633807399,20.11926914799632],[73.21066210487838,20.120516858083327]],[[72.99048771727111,20.21335442637874],[72.99306398107684,20.214214374653494],[72.99314707147113,20.214998126713013],[73.00132809733846,20.21444575243062],[73.00274732382772,20.22063478267237],[73.0058178655196,20.223402939027267],[73.00848496319078,20.228930868705465],[73.0056761964989,20.231975063268475],[72.9986026052936,20.23675782004127],[72.98960895779317,20.238758239999225],[72.97942555552657,20.234041137437185],[72.97481719306832,20.225731909242437],[72.97497546792063,20.21927563750222],[72.97924768051949,20.21558609444973],[72.98397246056722,20.213067128249648],[72.99048771727111,20.21335442637874]]],[[[72.97739234316768,20.33143136366763],[72.97830458516417,20.33196265542812],[72.97969533802721,20.328619996203503],[72.98161249167912,20.326740166134663],[72.9828625909531,20.322977043452017],[72.98276980942826,20.318343342370913],[72.9800847005042,20.316061603178017],[72.97871058565069,20.313409148783094],[72.97745764083436,20.31396807258242],[72.97410971370503,20.310721249336833],[72.97345063169004,20.30899968279265],[72.97314379105899,20.303499233737483],[72.97151067356756,20.297255307662272],[72.96823526713807,20.298312711369924],[72.96560108985037,20.30236675157348],[72.9629961856774,20.305353054163113],[72.95726214044234,20.30842392526144],[72.95476948289344,20.310165661794343],[72.95275796893849,20.31350413014247],[72.95273970496355,20.315383840898598],[72.95517752260133,20.317886524426193],[72.95700834053099,20.322093146764672],[72.9611540092201,20.328407071453604],[72.96160818424944,20.332191925137973],[72.97124294712941,20.33206526529299],[72.97739234316768,20.33143136366763]]]]}}]}
