{"type":"FeatureCollection","features":[{"type":"Feature","properties":{"id":"04-141","name":"Chandigarh","source_name":"Chandigarh","state_id":"04","source_agency":"Survey of India (SOI)","district_code":"044"},"geometry":{"type":"MultiPolygon","coordinates":[[[[76.83773262580982,30.75456267497648],[76.83382936967962,30.74988028494172],[76.83343651436593,30.746484149768577],[76.83493440949005,30.74188891847889],[76.83148933295584,30.73956511997341],[76.83308467871335,30.73884404060595],[76.8372350295441,30.733496356825945],[76.83899223954978,30.733721249582754],[76.84194984079778,30.732780546563976],[76.8432816907273,30.731175357140497],[76.84748949882032,30.731464886763412],[76.84826776102292,30.730382652622918],[76.84638326421211,30.72973284938772],[76.84939205512248,30.72344640138275],[76.84605125205802,30.722340815827135],[76.84356212225092,30.719268841487715],[76.84511570112248,30.71729384504245],[76.8491951128887,30.718754477235827],[76.84683063871339,30.7168815655837],[76.8483135552866,30.715355179579934],[76.84693128046018,30.711895738883154],[76.84469262065566,30.709757427319534],[76.84411893353166,30.708255439344526],[76.83868621649886,30.705935974368078],[76.83563107615694,30.703713871611086],[76.83526399602106,30.701609778803512],[76.82858141581916,30.694707255400143],[76.83020498663168,30.693503567499604],[76.82747886377372,30.692079715183457],[76.8274200098206,30.689673592939453],[76.82514535320648,30.688301650418317],[76.82619898540916,30.68673488659738],[76.82761035553968,30.687722717622922],[76.8318742505474,30.683284352013793],[76.82933389644126,30.682069189408672],[76.82918971138722,30.681011752160767],[76.82730799365744,30.682188155485626],[76.82086949509706,30.677681222317187],[76.82076964169802,30.67494948809005],[76.8168030146609,30.673024907541343],[76.8163335742672,30.67143648071837],[76.81149410600281,30.670100979657533],[76.80865968064002,30.66742748134943],[76.80215582350749,30.6667316309796],[76.80018203244448,30.670207238801577],[76.79679270175819,30.66753726939573],[76.79415106220576,30.66954749789509],[76.78934038189898,30.67561245771035],[76.78172742642192,30.6738197018726],[76.78122016124256,30.67434197609895],[76.77910019653002,30.67155573988751],[76.77698485561413,30.670372679536452],[76.77422402384568,30.672129175021208],[76.76991445858536,30.679824485609114],[76.76695825886131,30.68239863062693],[76.76427177239876,30.68608650498083],[76.762017046186,30.686665414429303],[76.75885954820627,30.686536103233387],[76.7525405619651,30.684600140034945],[76.74991858285497,30.688360853028367],[76.74821242098163,30.687539339943505],[76.74714730852124,30.695553051642893],[76.74317877725422,30.69370234584061],[76.73930201202295,30.692966356122525],[76.73950966900742,30.69807913531718],[76.73794481174382,30.699886007736037],[76.73933834777759,30.700380461601686],[76.73909805309754,30.70578466281135],[76.73610207224837,30.705859734422802],[76.73000893691331,30.706881701490566],[76.72907027519535,30.71182932460933],[76.73125268670456,30.71257740134806],[76.72868827080217,30.715938352429166],[76.73112501360463,30.71756833087673],[76.73066003984655,30.720672401755895],[76.73107471182432,30.723494702772918],[76.72955404681242,30.7235384883783],[76.72676531254119,30.727014711844763],[76.72483168226508,30.7284107947871],[76.72320275612188,30.72846394544046],[76.72125116064848,30.730020408667325],[76.71848359407245,30.733289348610185],[76.71564596333207,30.737365877582224],[76.71416525216506,30.740976038737358],[76.71268654899339,30.741257224350747],[76.70746901821542,30.739546349363767],[76.70516329940772,30.742974478868078],[76.70668456933778,30.745128229526305],[76.70588401069024,30.74725014602794],[76.70714086386569,30.74787549189966],[76.70833018016636,30.75026212740609],[76.70733932405662,30.753779504509687],[76.70521152266132,30.756007061754527],[76.71021762902919,30.760118439074688],[76.71134949043451,30.76152541330223],[76.7189476248564,30.76373926297393],[76.72127482286325,30.764053028669174],[76.72478160130518,30.76596999474617],[76.72883731471302,30.764918924564867],[76.73396194022787,30.766100758931255],[76.73764364888909,30.767754141987606],[76.7440230587527,30.769733615544098],[76.74387173390691,30.77154209394969],[76.74540916749046,30.772671124159952],[76.7437546535073,30.77608861577993],[76.74791075261373,30.777612746486213],[76.75093348225079,30.779986287405595],[76.75225567732295,30.78032149446676],[76.75243335875788,30.78316150159494],[76.75177064108213,30.784266242444446],[76.75830831019213,30.78755157519627],[76.75844093419241,30.788693234675183],[76.76105445548092,30.79106601554312],[76.76829720388082,30.79455647870601],[76.7715276496152,30.795262180194566],[76.77503021229052,30.79091839008436],[76.78165002361955,30.78912745697499],[76.78272347344807,30.789227457934295],[76.78700406224755,30.77968218875495],[76.77933632087802,30.777996997740093],[76.78268321975271,30.770798333404368],[76.79014617913306,30.770849173007548],[76.7911832418435,30.768675429303375],[76.80055184751178,30.773671967680148],[76.80126435112712,30.77480699630826],[76.80465659875051,30.77669584749688],[76.80745306126605,30.77745977512156],[76.81057165478776,30.77981170912645],[76.81203447046019,30.779220559203345],[76.81318583885785,30.780170224309323],[76.81521940699211,30.77848119529629],[76.81854706577538,30.77793014896588],[76.81782076907949,30.7751099630926],[76.81953764354623,30.775048505958363],[76.81792046220903,30.771255670962088],[76.81539438084647,30.77042099506692],[76.81259021874415,30.76864824727268],[76.81134390594508,30.768599158767355],[76.80578085896157,30.766166599499716],[76.80509570276779,30.76523947217722],[76.81498274051158,30.753087748712883],[76.81784073476898,30.75465823731672],[76.81830179189643,30.75735687061079],[76.8201732093154,30.761066272811142],[76.82430332056047,30.761315914211682],[76.82651496996316,30.76351107089141],[76.83773262580982,30.75456267497648]]]]}}]}
